Name_A,Address_A,City_A,State_A,Zipcode_A,Phone_A,Name_B,Address_B,City_B,State_B,Zipcode_B,Phone_B,Gold
Gombei Japanese Restaurant,1438 El Camino Real,Menlo Park ,CA,94025.0,(650) 329-1799,Gombei Japanese Restaurant,1438 El Camino Real,Menlo Park,CA,94025.0,(650) 329-1799,1
Menlo Grill Bistro & Bar,100 El Camino Real,Menlo Park ,CA,94025.0,(650) 330-2790,Menlo Grill Bistro & Bar,100 El Camino Real,Menlo Park,CA,94025.0,(650) 330-2790,1
The Cellar,1880 Century Park E Ste 102,Los Angeles ,CA,90067.0,(310) 277-1584,The Cellar Bar & Grill,1880 Century Park E,Los Angeles,CA,90067.0,(310) 277-1584,1
Pizza My Heart,220 University Ave,Palo Alto ,CA,94301.0,(650) 327-9400,Pizza My Heart,220 University Ave,Palo Alto,CA,94301.0,(650) 327-9400,1
Tamarine Restaurant,546 University Ave,Palo Alto ,CA,94301.0,(650) 325-8500,Tamarine Restaurant,546 University Ave,Palo Alto,CA,94301.0,(650) 325-8500,1
Mandarin House Restaurant,9150 Overland Plz,Saint Louis ,MO,63114.0,(314) 427-8070,Mandarin House Restaurant,9150 Overland Plz,Overland,MO,63114.0,(314) 427-8070,1
Sushi Kuu,1001 Alameda De Las Pulgas,Belmont ,CA,94002.0,(650) 592-1878,Sushi Kuu,1001 Alameda De Las Pulgas,Belmont,CA,94002.0,(650) 591-3474,1
Andalucia Tapas Restaurant & Bar,1201 San Jacinto St,Houston ,TX,77002.0,(832) 319-6673,Andalucia Tapas Restaurant & Bar,1201 San Jacinto St,Houston,TX,77002.0,(832) 319-6673,1
Jing-Jing Szechwan Hunan Gourmet,443 Emerson St,Palo Alto ,CA,94301.0,(650) 328-6885,Jing-Jing Szechwan Hunan Gourmet,443 Emerson St,Palo Alto,CA,94301.0,(650) 328-6885,1
Caffe Positano (village),6027 Paseo Delicias,Rancho Santa Fe ,CA,92067.0,(858) 759-1940,Caffe Positano,6027 Paseo Delicias,Rancho Santa Fe,CA,92067.0,(858) 759-1940,1
Jing-Jing Szechwan Hunan Gourmet,443 Emerson St,Palo Alto ,CA,94301.0,(650) 328-6885,Jing-Jing Szechwan Hunan Gourmet,443 Emerson St,Palo Alto,CA,94301.0,(650) 328-6885,1
Zola,565 Bryant St,Palo Alto ,CA,94301.0,(650) 521-0651,Zola,565 Bryant St,Palo Alto,CA,94301.0,(650) 521-0651,1
Tava Indian Kitchen,855 El Camino Real,Palo Alto ,CA,94301.0,(650) 321-8282,Tava Indian Kitchen,855 El Camino Real Ste 162,Palo Alto,CA,94301.0,(650) 321-8282,1
Asian Box,855 El Camino Real,Palo Alto ,CA,94301.0,(650) 391-9305,Asian Box,855 El Camino Real,Palo Alto,CA,94301.0,(650) 391-9305,1
Erawan Thai Restaurant,2639 Broadway St,Redwood City ,CA,94063.0,(650) 556-9966,Erawan Thai Restaurant,2639 Broadway St,Redwood City,CA,94063.0,(650) 556-9969,1
Islamorada Fish Company,17907 W Interstate 10,San Antonio ,TX,78257.0,(210) 253-8700,Islamorada Fish Company Restaurant,17907 W IH 10,San Antonio,TX,78257.0,(210) 253-8700,1
Plaza Gourmet,929 Edgewater Blvd,Foster City ,CA,94404.0,(650) 638-0213,Plaza Gourmet Delicatessen,929 Edgewater Blvd,Foster City,CA,94404.0,(650) 638-0213,1
Red Robin Gourmet Burgers,2204 Bridgepointe Pkwy,Foster City ,CA,94404.0,(650) 571-5500,Red Robin Gourmet Burgers,2204 Bridgepointe Pkwy,San Mateo,CA,94404.0,(650) 571-5500,1
Jing-Jing Szechwan Hunan Gourmet,443 Emerson St,Palo Alto ,CA,94301.0,(650) 328-6885,Jing-Jing Szechwan Hunan Gourmet,443 Emerson St,Palo Alto,CA,94301.0,(650) 328-6885,1
Sushi Lover,550 Masonic Way,Belmont ,CA,94002.0,(650) 593-2291,Sushi Lover,550 Masonic Way,Belmont,CA,94002.0,(650) 593-2291,1
Market Restaurant & Bar,3702 Via De La Valle,Del Mar ,CA,92014.0,(858) 523-0007,Market,3702 Via De La Valle,Del Mar,CA,92014.0,(858) 523-0007,1
Panera Bread,1445 Saint Louis Galleria,Saint Louis ,MO,63117.0,(314) 725-4237,Panera Bread,1445 St. Louis Galleria,Richmond Heights,MO,63117.0,(314) 725-4237,1
Saigon City Restaurant,418 E 3rd Ave,San Mateo ,CA,94401.0,(650) 340-8878,Saigon City,418 E 3rd Ave,San Mateo,CA,94401.0,(650) 340-8878,1
Buca di Beppo,7843 Park Ln,Dallas ,TX,75225.0,(214) 361-8462,Buca di Beppo Italian Restaurant,7843 Park Lane,Dallas,TX,75225.0,(214) 361-8462,1
Crepevine,367 University Ave,Palo Alto ,CA,94301.0,(650) 323-3900,Crepevine,367 University Ave,Palo Alto,CA,94301.0,(650) 323-3900,1
Sushi O Sushi Japanese Cuisine,2789 El Camino Real,Santa Clara ,CA,95051.0,(408) 241-1677,Sushi O Sushi,2789 El Camino Real,Santa Clara,CA,95051.0,(408) 241-1677,1
Panera Bread,3393 Peachtree Rd NE,Atlanta ,GA,30326.0,(404) 848-9997,Panera Bread,3393 Peachtree Rd NE,Atlanta,GA,30326.0,(404) 848-9997,1
Stresa Italian Restaurant,1524 Northern Blvd,Manhasset ,NY,11030.0,(516) 365-6956,Stresa Italian Restaurant,1524 Northern Blvd,Manhasset,NY,11030.0,(516) 365-6956,1
Grand Lux Cafe,600 N Michigan Ave Ste 7,Chicago ,IL,60611.0,(312) 276-2500,Grand Lux Cafe,600 N Michigan Ave,Chicago,IL,60611.0,(312) 276-2500,1
Hopdoddy Burger Bar,6030 Luther Ln,Dallas ,TX,75225.0,(214) 363-2337,Hopdoddy Burger Bar,6030 Luther Ln,Dallas,TX,75225.0,(214) 363-2337,1
Top Pot Doughnuts,8611 Hillcrest Ave Ste 195,Dallas ,TX,75225.0,(469) 232-9911,Top Pot Doughnuts,8611 Hillcrest Ave,Dallas,TX,75225.0,(469) 232-9911,1
Thaibodia,910 Woodside Rd,Redwood City ,CA,94061.0,(650) 365-2288,Thaibodia,910 Woodside Rd,Redwood City,CA,94061.0,(650) 365-2288,1
Panevino Ristorante Inc,8853 Tamiami Trl N,Naples ,FL,34108.0,(239) 514-8655,Panevino Ristorante,8853  N TAMIAMI TRAIL,Naples,FL,34108.0,(239) 514-8655,1
Joy Sushi,30 S B St,San Mateo ,CA,94401.0,(650) 340-8974,Joy Sushi,30 S B St,San Mateo,CA,94401.0,(650) 340-8974,1
Harbor Mist Restaurant,105 Harbor Rd,Cold Spring Harbor ,NY,11724.0,(631) 659-3888,Harbor Mist,105 Harbor Rd,Cold Spring Harbor,NY,11724.0,(631) 659-3888,1
Jing-Jing Szechwan Hunan Gourmet,443 Emerson St,Palo Alto ,CA,94301.0,(650) 328-6885,Jing-Jing Szechwan Hunan Gourmet,443 Emerson St,Palo Alto,CA,94301.0,(650) 328-6885,1
Genova Via,142 King St,Chappaqua ,NY,10514.0,(914) 861-2301,Genova Via,142 King St,Chappaqua,NY,10514.0,(914) 861-2301,1
Panda Garden,207 Oakridge Dr,South Salem ,NY,10590.0,(914) 533-1111,Panda Garden,207 Oakridge Dr,South Salem,NY,10590.0,(914) 533-1111,1
Chantilly Restaurant,3001 El Camino Real,Redwood City ,CA,94061.0,(650) 321-4080,Chantilly Restaurant,3001 El Camino Real,Redwood City,CA,94061.0,(650) 321-4080,1
Applewood,989 El Camino Real,Menlo Park ,CA,94025.0,(650) 328-1556,Applewood Pizza,1001 El Camino Real,Menlo Park,CA,94025.0,(650) 324-3486,1
Chaats & Currys,520 Lawrence Expy Ste 310,Sunnyvale ,CA,94085.0,(408) 746-9192,Chaats & Currys,520 Lawrence Expy,Sunnyvale,CA,94085.0,(408) 746-9192,1
Jing-Jing Szechwan Hunan Gourmet,443 Emerson St,Palo Alto ,CA,94301.0,(650) 328-6885,Jing-Jing Szechwan Hunan Gourmet,443 Emerson St,Palo Alto,CA,94301.0,(650) 328-6885,1
Villa Roma,593 Woodside Rd,Redwood City ,CA,94061.0,(650) 365-5060,The Villa Roma Cocktail Lounge,593 Woodside Rd,Redwood City,CA,94061.0,(650) 365-5060,1
Da Pasquale,9749 Santa Monica Blvd,Beverly Hills ,CA,90210.0,(310) 859-3884,Da Pasquale Restaurant,9749 S Santa Monica Blvd,Beverly Hills,CA,90210.0,(310) 859-3884,1
Darbar Indian Cuisine,129 Lytton Ave,Palo Alto ,CA,94301.0,(650) 321-6688,Darbar Indian Cuisine,129 Lytton Ave,Palo Alto,CA,94301.0,(650) 321-6688,1
Gyu-Kaku,329 S Ellsworth Ave,San Mateo ,CA,94401.0,(650) 343-3255,Gyu-Kaku Japanese BBQ,329 S Ellsworth Ave,San Mateo,CA,94401.0,(650) 343-3255,1
Dusita Thai Cuisine,2325 El Camino Real Ste 104,Santa Clara ,CA,95050.0,(408) 247-5199,Dusita Thai Cuisine,2325 El Camino Real,Santa Clara,CA,95050.0,(408) 247-5199,1
Centreville Cafe,5800 Kennett Pike,Wilmington ,DE,19807.0,(302) 777-4911,Centreville Cafe,5800 Kennett Pike,Wilmington,DE,19807.0,(302) 777-4911,1
BLT Steak White Plains,221 Main St,White Plains ,NY,10601.0,(914) 467-5500,BLT Steak,221 Main St,White Plains,NY,10601.0,(914) 467-5500,1
Settebello Pizzeria,7864 E Coast Hwy,Newport Coast ,CA,92657.0,(949) 715-2072,Settebello Pizzeria Napoletana,7864 East Coast Hwy,Newport Coast,CA,92657.0,(949) 715-2072,1
First Class Pizza,21117 Newport Coast Dr,Newport Coast ,CA,92657.0,(949) 644-5888,Newport Coast First Class Pizza,21117 Newport Coast Dr,Newport Coast,CA,92657.0,(949) 644-5888,1
Sbarro,13783 W Oasis Service Rd,Lake Forest ,IL,60045.0,(847) 735-9900,Sbarro,13783 W Oasis Service Rd,Lake Forest,IL,60045.0,(847) 735-9900,1
Shiok Singapore Kitchen,1137 Chestnut St,Menlo Park ,CA,94025.0,(650) 838-9448,Shiok Singapore Kitchen,1137 Chestnut St,Menlo Park,CA,94025.0,(650) 838-9448,1
Il Mulino New York Long Island,1042 Northern Blvd,Roslyn ,NY,11576.0,(516) 621-1870,Il Mulino New York,1042 Northern Blvd,Roslyn,NY,11576.0,(516) 621-1870,1
Tamarine Restaurant,546 University Ave,Palo Alto ,CA,94301.0,(650) 325-8500,Tamarine Restaurant,546 University Ave,Palo Alto,CA,94301.0,(650) 325-8500,1
Il Tramezzino,460 N Canon Dr,Beverly Hills ,CA,90210.0,(310) 273-0501,Il Tramezzino - Beverly Hills,454 N Canon Dr,Beverly Hills,CA,90210.0,(310) 273-0501,1
Foodstuffs Inc,255 E Westminster,Lake Forest ,IL,60045.0,(847) 234-6600,Foodstuffs,255 E Westminster Rd,Lake Forest,IL,60045.0,(847) 234-6600,1
M Waterfront Grille,4300 Gulf Shore Blvd N,Naples ,FL,34103.0,(239) 206-1147,M Waterfront Grille,4300 Gulf Shore Blvd N,Naples,FL,34103.0,(239) 263-4421,1
La Coquille Restaurant,1669 Northern Blvd,Manhasset ,NY,11030.0,(516) 365-8422,La Coquille,1669 Northern Blvd,Manhasset,NY,11030.0,(516) 365-8422,1
Starbucks Coffee,375 Plandome Rd,Manhasset ,NY,11030.0,(516) 869-9608,Starbucks,375 Plandome Rd,Manhasset,NY,11030.0,(516) 869-9608,1
Cafe Borrone,1010 El Camino Real,Menlo Park ,CA,94025.0,(650) 327-0830,Cafe Borrone,1010 El Camino Real,Menlo Park,CA,94025.0,(650) 327-0830,1
Manhattan Express,7641 Wydown Blvd,Saint Louis ,MO,63105.0,(314) 863-9050,Manhattan Express,7641 Wydown Blvd,St Louis,MO,63105.0,(314) 863-9050,1
Starbucks Coffee,820 Woodside Rd,Redwood City ,CA,94061.0,(650) 299-0327,Starbucks,820 Woodside Rd,Redwood City,CA,94061.0,(650) 299-0327,1
Chantilly Restaurant,3001 El Camino Real,Redwood City ,CA,94061.0,(650) 321-4080,Chantilly Restaurant,3001 El Camino Real,Redwood City,CA,94061.0,(650) 321-4080,1
The Cheesecake Factory,3393 Peachtree Rd NE Suite 3076A,Atlanta ,GA,30326.0,(404) 816-2555,The Cheesecake Factory,3393 Peachtree Road NE,Atlanta,GA,30326.0,(404) 816-2555,1
Darbar Indian Cuisine,129 Lytton Ave,Palo Alto ,CA,94301.0,(650) 321-6688,Darbar Indian Cuisine,129 Lytton Ave,Palo Alto,CA,94301.0,(650) 321-6688,1
Diner Japonica,593 Woodside Rd,Redwood City ,CA,94061.0,(650) 364-4649,Diner Japonica,593 Woodside Rd,Redwood City,CA,94061.0,(650) 364-4649,1
Manhasset Delicatessen,435 Plandome Rd,Manhasset ,NY,11030.0,(516) 627-9788,Manhasset Delicatessen,435 Plandome Rd,Manhasset,NY,11030.0,(516) 627-9788,1
Kabuki Sushi Thai Tapas,308 Clematis St,West Palm Beach ,FL,33401.0,(561) 833-6349,Kabuki Sushi Thai Tapas,308 Clematis St,West Palm Beach,FL,33401.0,(561) 833-6349,1
Sneha South & North Indian Restaurant,1214 Apollo Way # 404-B,Sunnyvale ,CA,94085.0,(408) 481-0700,Sneha,1214 Apollo Way,Sunnyvale,CA,94085.0,(408) 481-0700,1
Corner Bakery Cafe,3393 Peachtree Rd NE Ste 4033,Atlanta ,GA,30326.0,(404) 266-8282,Corner Bakery Cafe,3393 Peachtree Rd,Atlanta,GA,30326.0,(404) 266-8282,1
Veladora,5921 Valencia Cir,Rancho Santa Fe ,CA,92067.0,(858) 759-6216,Veladora,5921 Valencia Cir,Rancho Santa Fe,CA,92067.0,(858) 759-6216,1
California Pizza Kitchen,8411 Preston Rd Ste 124,Dallas ,TX,75225.0,(214) 750-7067,California Pizza Kitchen,8411 Preston Road,Dallas,TX,75225.0,(214) 750-7067,1
Shiok Singapore Kitchen,1137 Chestnut St,Menlo Park ,CA,94025.0,(650) 838-9448,Shiok Singapore Kitchen,1137 Chestnut St,Menlo Park,CA,94025.0,(650) 838-9448,1
Corner Bakery Cafe,3393 Peachtree Rd NE Ste 4033,Atlanta ,GA,30326.0,(404) 266-8282,Corner Bakery Cafe,3393 Peachtree Rd,Atlanta,GA,30326.0,(404) 266-8282,1
The Counter,41 W Hillsdale Blvd,San Mateo ,CA,94403.0,(650) 212-3200,The Counter - San Mateo,41 W Hillsdale Blvd,San Mateo,CA,94403.0,(650) 212-3200,1
Marketplace Cafe - Nordstrom The Westchester,135 Westchester Ave,White Plains ,NY,10601.0,(914) 946-1122,The Westchester,125 Westchester Ave,White Plains,NY,10601.0,(914) 421-1333,1
Gombei Japanese Restaurant,1438 El Camino Real,Menlo Park ,CA,94025.0,(650) 329-1799,Gombei Japanese Restaurant,1438 El Camino Real,Menlo Park,CA,94025.0,(650) 329-1799,1
Vino Santo Bistro,2030 Broadway St,Redwood City ,CA,94063.0,(650) 780-0793,Vino Santo Bistro,2030 Broadway St,Redwood City,CA,94063.0,(650) 780-0793,1
Bangkok Bay Thai Cuisine,825 El Camino Real,Redwood City ,CA,94063.0,(650) 365-5369,Bangkok Bay Thai Cuisine,825 El Camino Real,Redwood City,CA,94063.0,(650) 365-5369,1
Chantilly Restaurant,3001 El Camino Real,Redwood City ,CA,94061.0,(650) 321-4080,Chantilly Restaurant,3001 El Camino Real,Redwood City,CA,94061.0,(650) 321-4080,1
Nola Restaurant & Bar,535 Ramona St,Palo Alto ,CA,94301.0,(650) 328-2722,NOLA Restaurant & Bar,535 Ramona St,Palo Alto,CA,94301.0,(650) 328-2722,1
Nanase,522 Mamaroneck Ave,White Plains ,NY,10605.0,(914) 285-5351,Sushi Nanase,522 Mamaroneck Ave,White Plains,NY,10605.0,(914) 285-5351,1
Angelicas,863 Main St,Redwood City ,CA,94063.0,(650) 679-8184,Angelicas,863 Main St,Redwood City,CA,94063.0,(650) 679-8184,1
Il Pastaio,400 N Canon Dr,Beverly Hills ,CA,90210.0,(310) 205-5444,Il Pastaio,400 N Canon Dr,Beverly Hills,CA,90210.0,(310) 205-5444,1
Chantilly Restaurant,3001 El Camino Real,Redwood City ,CA,94061.0,(650) 321-4080,Chantilly Restaurant,3001 El Camino Real,Redwood City,CA,94061.0,(650) 321-4080,1
Pizza Pizza,77 Pearl St,New York ,NY,10004.0,(212) 797-9692,Pizza Pizza,77 Pearl St,New York,NY,10004.0,(212) 797-9692,1
Riverside Cafe,1 Beachland Blvd,Vero Beach ,FL,32963.0,(772) 234-5550,Riverside Cafe,1 Beachland Blvd,Vero Beach,FL,32963.0,(772) 234-5550,1
B Street & Vine,320 S B St,San Mateo ,CA,94401.0,(650) 347-8463,B Street & Vine,320 S B St,San Mateo,CA,94401.0,(650) 347-8463,1
Starbucks Coffee,375 Plandome Rd,Manhasset ,NY,11030.0,(516) 869-9608,Starbucks,375 Plandome Rd,Manhasset,NY,11030.0,(516) 869-9608,1
The Resort at Pelican Hill,22701 Pelican Hill Rd S,Newport Coast ,CA,92657.0,(949) 612-1916,The Resort at Pelican Hill,22701 S Pelican Hill Rd,Newport Coast,CA,92657.0,(855) 315-8214,1
Pomodoro Grill & Pizza,3055 Cardinal Dr Ste 102,Vero Beach ,FL,32963.0,(772) 234-1123,Pomodoro Grill,3055 Cardinal Dr,Vero Beach,FL,32963.0,(772) 234-1123,1
Arturo Express,130 S Canal St,Chicago ,IL,60606.0,(312) 474-9289,Arturo Express,122 S Canal St,Chicago,IL,60606.0,(312) 474-9289,1
Truck,391 Old Post Rd,Bedford ,NY,10506.0,(914) 234-8900,TRUCK,391 Old Post Rd,Bedford,NY,10506.0,(914) 234-8900,1
Katana Teppanyaki & Sushi,3345 Lenox Rd NE,Atlanta ,GA,30326.0,(404) 869-1888,Katana Teppanyaki & Sushi,3345 Lenox Rd NE,Atlanta,GA,30326.0,(404) 869-1888,1
Misaki Japanese Restaurant Inc,411 Plandome Rd,Manhasset ,NY,11030.0,(516) 869-8080,Misaki Japanese Restaurant,411 Plandome Rd,Manhasset,NY,11030.0,(516) 869-8080,1
Starbucks Coffee,820 Woodside Rd,Redwood City ,CA,94061.0,(650) 299-0327,Starbucks,820 Woodside Rd,Redwood City,CA,94061.0,(650) 299-0327,1
Round Table Pizza,1225 El Camino Real,Menlo Park ,CA,94025.0,(650) 321-6861,Round Table Pizza,1225 El Camino Real,Menlo Park,CA,94025.0,(650) 321-6861,1
The Quilted Giraffe,500 S US Highway 1,Vero Beach ,FL,32962.0,(772) 978-4242,The Quilted Giraffe,500 S US 1,Vero Beach,FL,32962.0,(772) 978-4242,1
Su Hong-Menlo Park,1039 El Camino Real,Menlo Park ,CA,94025.0,(650) 323-6852,Su Hong-Menlo Park,1039 El Camino Real,Menlo Park,CA,94025.0,(650) 323-6852,1
Grain,5954 Luther Ln,Dallas ,TX,75225.0,(214) 368-0400,GRAIN Restaurant,5954 Luther Ln,Dallas,TX,75225.0,(469) 232-4962,1
Seasons 52,8930 Tamiami Trl N,Naples ,FL,34108.0,(239) 594-8852,Seasons 52,8930 Tamiami Trl N,Naples,FL,34108.0,(239) 594-8852,1
Truffles,9202 Clayton Rd,Saint Louis ,MO,63124.0,(314) 567-9100,Truffles Restaurant,9202 Clayton Rd,Saint Louis,MO,63124.0,(314) 567-9100,1
Azn Azian Cuizine,9118 Strada Pl,Naples ,FL,34108.0,(239) 593-8818,AZN,9118 Strada Pl,Naples,FL,34108.0,(239) 593-8818,1
Via Alloro,301 N Canon Dr,Beverly Hills ,CA,90210.0,(310) 275-2900,Via Alloro,301 N Canon Dr,Beverly Hills,CA,90210.0,(310) 275-2900,1
Portola Kitchen,3130 Alpine Rd Ste 350,Portola Valley ,CA,94028.0,(650) 851-6453,Portola Kitchen,3130 Alpine Rd,Portola Valley,CA,94028.0,(650) 851-6453,1
Arte Ristorante,473 University Ave,Palo Alto ,CA,94301.0,(650) 329-8300,Arte Ristorante,473 University Ave,Palo Alto,CA,94301.0,(650) 329-8300,1
El Grullense Grill,768 Woodside Rd,Redwood City ,CA,94061.0,(650) 368-3325,El Grullense Grill,768 Woodside Rd,Redwood City,CA,94061.0,(650) 368-3325,1
1880 Cafe,1880 Century Park E Ste 103,Los Angeles ,CA,90067.0,(310) 553-1880,1880 Cafe,1880 Century Park E,Los Angeles,CA,90067.0,(310) 553-1880,1
Lucias,1725 Woodside Rd,Redwood City ,CA,94061.0,(650) 365-3811,Villa Lucias,1725 Woodside Rd,Redwood City,CA,94061.0,(650) 365-3811,1
Kata Restaurant & Lounge,1306 20th St,Vero Beach ,FL,32960.0,(772) 564-8883,Kata,1306 20th St,Vero Beach,FL,32960.0,(772) 564-8883,1
Marvin Gardens,1160 Old County Rd,Belmont ,CA,94002.0,(650) 592-6154,Marvin Gardens,1160 Old County Rd,Belmont,CA,94002.0,(650) 592-6154,1
The Garden Cafe,1840 Century Park E,Los Angeles ,CA,90067.0,(310) 788-5188,The Garden Cafe,1840 Century Park E,Los Angeles,CA,90067.0,(310) 788-5188,1
Applewood,989 El Camino Real,Menlo Park ,CA,94025.0,(650) 328-1556,Applewood Pizza,1001 El Camino Real,Menlo Park,CA,94025.0,(650) 324-3486,1
Inshou Japanese Cuisine,2942 S Norfolk St,San Mateo ,CA,94403.0,(650) 212-1272,Inshou Japanese Cuisine,2942 S Norfolk St,San Mateo,CA,94403.0,(650) 212-1272,1
Di Mare,1517 Ocean Dr,Vero Beach ,FL,32963.0,(772) 360-1156,Di Mare Vero Beach,1517 Ocean Dr,Vero Beach,FL,32963.0,(772) 234-2809,1
5th Quarter Pizza,976 Woodside Rd,Redwood City ,CA,94061.0,(650) 369-2686,5th Quarter Pizza,976 Woodside Rd,Redwood City,CA,94061.0,(650) 369-2686,1
Sri Ananda Bhavan,920 E Arques Ave,Sunnyvale ,CA,94085.0,(408) 735-1111,Ananda Bhavan,920E Arques Ave,Sunnyvale,CA,94085.0,(408) 735-1111,1
Coupa Cafe,419 N Canon Dr,Beverly Hills ,CA,90210.0,(310) 385-0420,Coupa Cafe,419 N Canon Dr,Beverly Hills,CA,90210.0,(310) 385-0420,1
Five Crowns,3801 E Coast Hwy,Corona Del Mar ,CA,92625.0,(949) 760-0331,Five Crowns,3801 E Coast Hwy,Corona del Mar,CA,92625.0,(949) 760-0331,1
Kobe Japanese Cuisine & Bar,929 Edgewater Blvd Ste B,Foster City ,CA,94404.0,(650) 571-8798,Kobe Japanese Cuisine & Bar,929 Edgewater Blvd,Foster City,CA,94404.0,(650) 571-8798,1
Thai Bay Restaurant,1000 Okeechobee Rd,West Palm Beach ,FL,33401.0,(561) 832-6091,Thai Bay Restaurant,1000 Okeechobee Rd,West Palm Beach,FL,33401.0,(561) 832-6091,1
Villa Milano,168 Plandome Rd,Manhasset ,NY,11030.0,(516) 365-3440,Villa Milano,168 Plandome Rd,Manhasset,NY,11030.0,(516) 365-3440,1
1880 Cafe,1880 Century Park E Ste 103,Los Angeles ,CA,90067.0,(310) 553-1880,1880 Cafe,1880 Century Park E,Los Angeles,CA,90067.0,(310) 553-1880,1
The Cheesecake Factory,7700 W Northwest Hwy,Dallas ,TX,75225.0,(214) 373-4844,The Cheesecake Factory,7700 W Northwest Hwy,Dallas,TX,75225.0,(214) 373-4844,1
Johnnies New York Pizzeria,10251 Santa Monica Blvd,Los Angeles ,CA,90067.0,(310) 553-1188,Johnnies,10251 Santa Monica Blvd.,Century City,CA,90067.0,(310) 553-1188,1
Shiok Singapore Kitchen,1137 Chestnut St,Menlo Park ,CA,94025.0,(650) 838-9448,Shiok Singapore Kitchen,1137 Chestnut St,Menlo Park,CA,94025.0,(650) 838-9448,1
Osteria Coppa,139 S B St,San Mateo ,CA,94401.0,(650) 579-6021,Osteria Coppa,139 S B St,San Mateo,CA,94401.0,(650) 579-6021,1
La Coquille Restaurant,1669 Northern Blvd,Manhasset ,NY,11030.0,(516) 365-8422,La Coquille,1669 Northern Blvd,Manhasset,NY,11030.0,(516) 365-8422,1
On The Border Mexican Grill & Cantina,3495 Buckhead Loop NE,Atlanta ,GA,30326.0,(404) 816-3171,On The Border Mexican Grill & Cantina,1 Buckhead Loop NE,Atlanta,GA,30326.0,(404) 991-2500,1
Villa Blanca,9601 Brighton Way,Beverly Hills ,CA,90210.0,(310) 859-7600,Villa Blanca,9601 Brighton Way,Beverly Hills,CA,90210.0,(310) 859-7600,1
Block 34,34 E 4th Ave,San Mateo ,CA,94401.0,(650) 434-3403,Block 34,34 E 4th Ave,San Mateo,CA,94401.0,(650) 434-3403,1
Waterfront Pizza,969 Edgewater Blvd,Foster City ,CA,94404.0,(650) 573-6634,Waterfront,969 D Edgewater Blvd,Foster City,CA,94404.0,(650) 573-6634,1
El Grullense Grill,768 Woodside Rd,Redwood City ,CA,94061.0,(650) 368-3325,El Grullense Grill,768 Woodside Rd,Redwood City,CA,94061.0,(650) 368-3325,1
The Gourmet Whaler,111 Main St,Cold Spring Harbor ,NY,11724.0,(631) 659-2977,Gourmet Whaler,111 Main St,Cold Spring Harbor,NY,11724.0,(631) 659-2977,1
Hinoki & The Bird,10 W Century Dr.,Los Angeles ,CA,90067.0,(310) 552-1200,Hinoki & The Bird,10 W Century Dr,Los Angeles,CA,90067.0,(310) 552-1200,1
Yen Ching,1012 S Brentwood Blvd,Saint Louis ,MO,63117.0,(314) 721-7507,Yen Ching Restaurant,1012 S Brentwood Blvd,Saint Louis,MO,63117.0,(314) 721-7507,1
Jing-Jing Szechwan Hunan Gourmet,443 Emerson St,Palo Alto ,CA,94301.0,(650) 328-6885,Jing-Jing Szechwan Hunan Gourmet,443 Emerson St,Palo Alto,CA,94301.0,(650) 328-6885,1
Mulberry Street Pizzeria,240 S Beverly Dr,Beverly Hills ,CA,90212.0,(310) 247-8100,Mulberry Street Pizzeria,240 S Beverly Dr,Beverly Hills,CA,90212.0,(310) 247-8100,1
Stresa Italian Restaurant,1524 Northern Blvd,Manhasset ,NY,11030.0,(516) 365-6956,Stresa Italian Restaurant,1524 Northern Blvd,Manhasset,NY,11030.0,(516) 365-6956,1
Chantilly Restaurant,3001 El Camino Real,Redwood City ,CA,94061.0,(650) 321-4080,Chantilly Restaurant,3001 El Camino Real,Redwood City,CA,94061.0,(650) 321-4080,1
Pranzo,34 Water St,New York ,NY,10004.0,(212) 344-8068,Pranzo,34 Water St,New York,NY,10004.0,(212) 344-8068,1
Via Alloro,301 N Canon Dr,Beverly Hills ,CA,90210.0,(310) 275-2900,Via Alloro,301 N Canon Dr,Beverly Hills,CA,90210.0,(310) 275-2900,1
Guadalajara Grill,19 Laurie Meadows Dr,San Mateo ,CA,94403.0,(650) 573-6933,Guadalajara Grill,19 Laurie Meadows Dr,San Mateo,CA,94403.0,(650) 573-6933,1
Sushi Sai,123 N Wacker Dr,Chicago ,IL,60606.0,(312) 332-8822,Sushi Sai,123 N Wacker Dr,Chicago,IL,60606.0,(312) 332-8822,1
Round Table Pizza,1225 El Camino Real,Menlo Park ,CA,94025.0,(650) 321-6861,Round Table Pizza,1225 El Camino Real,Menlo Park,CA,94025.0,(650) 321-6861,1
Yard House,15900 La Cantera Pkwy,San Antonio ,TX,78256.0,(210) 691-0033,Yard House,15900 La Cantera Pkwy,San Antonio,TX,78256.0,(210) 691-0033,1
Mille Fleurs,6009 Paseo Delicias,Rancho Santa Fe ,CA,92067.0,(858) 756-3085,Mille Fleurs Restaurant,6009 Paseo Delicias,Rancho Santa Fe,CA,92067.0,(858) 756-3085,1
Brio Tuscan Grille,5505 Tamiami Trl N,Naples ,FL,34108.0,(239) 593-5319,Brio Tuscan Grille,5505 Tamiami Trl N,Naples,FL,34108.0,(239) 593-5319,1
Polo Steakhouse,155 Hammon Ave,Palm Beach ,FL,33480.0,(561) 655-5430,The Polo Steakhouse,155 Hammon Ave,Palm Beach,FL,33480.0,(561) 655-5430,1
Cafe 100,10100 Santa Monica Blvd Ste A105,Los Angeles ,CA,90067.0,(310) 553-6331,Cafe 100,10100 Santa Monica Blvd,Los Angeles,CA,90067.0,(310) 553-6331,1
Vivace Ristorante,1910 Ralston Ave,Belmont ,CA,94002.0,(650) 637-0611,Vivace Ristorante,1910 Ralston Ave,Belmont,CA,94002.0,(650) 637-0611,1
Old Town Sushi,100 S B St,San Mateo ,CA,94401.0,(650) 558-8969,Old Town Sushi,100 S B St,San Mateo,CA,94401.0,(650) 558-8969,1
Posh Nosh,8115 Maryland Ave,Saint Louis ,MO,63105.0,(314) 862-1890,The Posh Nosh,8115 Maryland Ave,Saint Louis,MO,63105.0,(314) 862-1890,1
Thai Satay Restaurant,173 E 4th Ave,San Mateo ,CA,94401.0,(650) 342-3617,Thai Satay Restaurant,173 E 4th Ave,San Mateo,CA,94401.0,(650) 342-6451,1
Zinburger,3393 Peachtree Rd NE,Atlanta ,GA,30326.0,(404) 841-2448,Zinburger Wine & Burger Bar,3393 Peachtree Rd NE,Atlanta,GA,30326.0,(404) 963-9611,1
Koma Sushi Restaurant,211 El Camino Real,Menlo Park ,CA,94025.0,(650) 321-5662,Koma Sushi Restaurant,211 El Camino Real,Menlo Park,CA,94025.0,(650) 321-5662,1
Garden Fresh & Vegetarian Restaurant,460 Ramona St,Palo Alto ,CA,94301.0,(650) 462-9298,Garden Fresh,460 Ramona St,Palo Alto,CA,94301.0,(650) 462-9298,1
Chick-Fil-A,3393 Peachtree Rd NE,Atlanta ,GA,30326.0,(404) 231-7972,Chick-fil-A,3393 Peachtree Rd NE,Atlanta,GA,30326.0,(404) 231-7972,1
Centreville Cafe,5800 Kennett Pike,Wilmington ,DE,19807.0,(302) 777-4911,Centreville Cafe,5800 Kennett Pike,Wilmington,DE,19807.0,(302) 777-4911,1
Sarku Japan Sushi Bar,1155 Saint Louis Galleria,Saint Louis ,MO,63117.0,(314) 721-8816,Sarku Japan Sushi Bar,1155 Saint Louis Galleria,Saint Louis,MO,63117.0,(314) 721-8816,1
Joy Restaurant,1489 Beach Park Blvd,Foster City ,CA,94404.0,(650) 345-1762,Joy Restaurant,1489 Beach Park Blvd,Foster City,CA,94404.0,(650) 345-1762,1
Pancho Villa Taqueria,365 S B St,San Mateo ,CA,94401.0,(650) 343-4123,Pancho Villa Taqueria,365 S B St,San Mateo,CA,94401.0,(650) 343-4123,1
Flagler Steakhouse at The Breakers,2 S County Rd,Palm Beach ,FL,33480.0,(561) 659-8471,The Breakers,1 S County Rd,Palm Beach,FL,33480.0,(561) 655-6611,1
Cobble Stone,620 Anderson Hill Rd,Purchase ,NY,10577.0,(914) 253-9678,Cobble Stone,620 Anderson Hill Rd,Purchase,NY,10577.0,(914) 253-9678,1
New York Pizza & Pasta,11140 Tamiami Trl N,Naples ,FL,34110.0,(239) 594-3500,New York Pizza & Pasta,11140 Tamiami Trl N,Naples,FL,34110.0,(239) 594-3500,1
Myzen Ramen,"520 Lawrence Expressway, Suite 304",Sunnyvale ,CA,94085.0,(408) 245-7779,Myzen Ramen,520 Lawrence Expwy,Sunnyvale,CA,94085.0,(408) 245-7779,1
Izakaya Mai Restaurant,212 2nd Ave,San Mateo ,CA,94401.0,(650) 347-2511,Izakaya Mai,212 2nd Ave,San Mateo,CA,94401.0,(650) 347-2511,1
Doughnut Vault,111 N Canal St # 120,Chicago ,IL,60606.0,(312) 285-2830,Doughnut Vault Canal,111 N Canal St,Chicago,IL,60606.0,(312) 285-2830,1
Bangkok Tokyo,227 Waukegan Rd,Lake Bluff ,IL,60044.0,(847) 295-7811,Bangkok Tokyo,227 Waukegan Rd,Lake Bluff,IL,60044.0,(847) 295-7811,1
The Breakfast Klub,3711 Travis St,Houston ,TX,77002.0,(713) 528-8561,The Breakfast Klub,3711 Travis St,Houston,TX,77002.0,(713) 528-8561,1
Bibimbowl,415 N Mary Ave,Sunnyvale ,CA,94085.0,(408) 481-9383,Bibimbowl,415 N Mary Ave,Sunnyvale,CA,94085.0,(408) 481-9383,1
Jing-Jing Szechwan Hunan Gourmet,443 Emerson St,Palo Alto ,CA,94301.0,(650) 328-6885,Jing-Jing Szechwan Hunan Gourmet,443 Emerson St,Palo Alto,CA,94301.0,(650) 328-6885,1
Las Juntas Restaurant,2505 Middlefield Rd,Redwood City ,CA,94063.0,(650) 329-0123,Las Juntas Restaurant,2505 Middlefield Rd,Redwood City,CA,94063.0,(650) 329-0123,1
Everyday Beijing,637 S B St,San Mateo ,CA,94401.0,(650) 373-7878,Everyday Beijing,637 S B St,San Mateo,CA,94401.0,(650) 373-7878,1
Flea Street Cafe,3607 Alameda De Las Pulgas,Menlo Park ,CA,94025.0,(650) 854-1226,Flea Street,3607 Alameda de Las Pulgas,Menlo Park,CA,94025.0,(650) 854-1226,1
White Elephant Gourmet,930 El Camino Real,Santa Clara ,CA,95050.0,(408) 987-9373,White Elephant,930 El Camino Real,Santa Clara,CA,95050.0,(408) 987-9373,1
Andrea,22701 Pelican Hill Rd S,Newport Coast ,CA,92657.0,(949) 467-6800,Andrea at Pelican Hill,22701 Pelican Hill Rd S,Newport Coast,CA,92657.0,(844) 445-2183,1
Top Pot Doughnuts,8611 Hillcrest Ave Ste 195,Dallas ,TX,75225.0,(469) 232-9911,Top Pot Doughnuts,8611 Hillcrest Ave,Dallas,TX,75225.0,(469) 232-9911,1
The Original Pancake House,8817 Ladue Rd,Saint Louis ,MO,63124.0,(314) 932-1340,The Original Pancake House,8817 Ladue Rd,Ladue,MO,63124.0,(314) 932-1340,1
San Mateo Prime,174 E 3rd Ave,San Mateo ,CA,94401.0,(650) 558-8918,San Mateo Prime,174 3rd Ave,San Mateo,CA,94401.0,(650) 558-8918,1
La Morenita Restaurant,800 Emerson St,Palo Alto ,CA,94301.0,(650) 329-1727,La Morenita Restaurant,800 Emerson St,Palo Alto,CA,94301.0,(650) 329-1727,1
Flea Street Cafe,3607 Alameda De Las Pulgas,Menlo Park ,CA,94025.0,(650) 854-1226,Flea Street,3607 Alameda de Las Pulgas,Menlo Park,CA,94025.0,(650) 854-1226,1
First Class Pizza,21117 Newport Coast Dr,Newport Coast ,CA,92657.0,(949) 644-5888,Newport Coast First Class Pizza,21117 Newport Coast Dr,Newport Coast,CA,92657.0,(949) 644-5888,1
Chantilly Restaurant,3001 El Camino Real,Redwood City ,CA,94061.0,(650) 321-4080,Chantilly Restaurant,3001 El Camino Real,Redwood City,CA,94061.0,(650) 321-4080,1
Buddha,1 Rye Ridge Plz,Rye Brook ,NY,10573.0,(914) 481-4651,Buddha,Rye Ridge Shopping Center,Rye Brook,NY,10573.0,(914) 481-4651,1
Pinstripes Pinstripes,435 E Illinois St,Chicago ,IL,60611.0,(312) 527-3110,Pinstripes,435 E Illinois St,Chicago,IL,60611.0,(312) 527-3010,1
Pizza My Heart,2855 Stevens Creek Blvd,Santa Clara ,CA,95050.0,(408) 241-4000,Pizza My Heart,"2855 Stevens Creek Blvd, Ste B171",Santa Clara,CA,95050.0,(408) 241-4000,1
Prima Deli,2115 Roosevelt Ave,Redwood City ,CA,94061.0,(650) 367-8553,Prima Deli,2115 Roosevelt Ave,Redwood City,CA,94061.0,(650) 367-8553,1
Fey Restaurant,1368 El Camino Real,Menlo Park ,CA,94025.0,(650) 324-8888,Fey Restaurant,1368 El Camino Real,Menlo Park,CA,94025.0,(650) 324-8888,1
Jing-Jing Szechwan Hunan Gourmet,443 Emerson St,Palo Alto ,CA,94301.0,(650) 328-6885,Jing-Jing Szechwan Hunan Gourmet,443 Emerson St,Palo Alto,CA,94301.0,(650) 328-6885,1
Caffe Baci,10 S Riverside Plz,Chicago ,IL,60606.0,(312) 379-0282,Caffe Baci,10 S Riverside Plz,Chicago,IL,60606.0,(312) 379-0283,1
Italian Grill,2180 58th Ave,Vero Beach ,FL,32966.0,(772) 567-6640,Italian Grill,2180 58th Ave,Vero Beach,FL,32966.0,(772) 567-6640,1
Akasaka Sushi,925 El Camino Real,Menlo Park ,CA,94025.0,(650) 325-0444,Akasaka Sushi,925 El Camino Real,Menlo Park,CA,94025.0,(650) 325-0444,1
Jing-Jing Szechwan Hunan Gourmet,443 Emerson St,Palo Alto ,CA,94301.0,(650) 328-6885,Jing-Jing Szechwan Hunan Gourmet,443 Emerson St,Palo Alto,CA,94301.0,(650) 328-6885,1
Zoes Kitchen,17603 La Cantera Pkwy,San Antonio ,TX,78257.0,(210) 558-3450,Zoes Kitchen,17603 La Cantera Pkwy,San Antonio,TX,78257.0,(210) 558-3450,1
Squid Lips,"1660 N Indian River Dr, Sebastian FL, 32958",Sebastian ,FL,32958.0,(772) 589-3828,Squid Lips,1660 N Indian River Dr,Sebastian,FL,32958.0,(772) 589-3828,1
Stacks,600 Santa Cruz Ave,Menlo Park ,CA,94025.0,(650) 838-0066,Stacks,600 Santa Cruz Ave,Menlo Park,CA,94025.0,(650) 838-0066,1
Chantilly Restaurant,3001 El Camino Real,Redwood City ,CA,94061.0,(650) 321-4080,Chantilly Restaurant,3001 El Camino Real,Redwood City,CA,94061.0,(650) 321-4080,1
Bistro Maxine,548 Ramona St,Palo Alto ,CA,94301.0,(650) 323-1815,Bistro Maxine,548 Ramona St,Palo Alto,CA,94301.0,(650) 323-1815,1
Tamarine Restaurant,546 University Ave,Palo Alto ,CA,94301.0,(650) 325-8500,Tamarine Restaurant,546 University Ave,Palo Alto,CA,94301.0,(650) 325-8500,1
Pasquale Restaurant,9749 Santa Monica Blvd,Beverly Hills ,CA,90210.0,(310) 859-3884,Da Pasquale Restaurant,9749 S Santa Monica Blvd,Beverly Hills,CA,90210.0,(310) 859-3884,1
Kanpai,330 Lytton Ave,Palo Alto ,CA,94301.0,(650) 325-2696,Kanpai Sushi,330 Lytton Ave,Palo Alto,CA,94301.0,(650) 325-2696,1
Vicolo Pizza & Trattoria,62 Main St,New Canaan ,CT,6840.0,(203) 966-4966,Vicolo Pizza & Trattoria,62 Main St,New Canaan,CT,6840.0,(203) 966-4966,1
Bangkok Cuisine,407 Lytton Ave,Palo Alto ,CA,94301.0,(650) 322-6533,Bangkok Cuisine,407 Lytton Ave,Palo Alto,CA,94301.0,(650) 322-6533,1
Cafe Borrone,1010 El Camino Real,Menlo Park ,CA,94025.0,(650) 327-0830,Cafe Borrone,1010 El Camino Real,Menlo Park,CA,94025.0,(650) 327-0830,1
Caffe Roma,350 N Canon Dr,Beverly Hills ,CA,90210.0,(310) 274-7834,Caffe Roma,350 N Canon Dr,Beverly Hills,CA,90210.0,(310) 274-7834,1
Haiku Asian Bistro & Sushi Bar,1 Cross River Shopping Ctr,Cross River ,NY,10518.0,(914) 763-9120,Haiku Asian Bistro & Sushi Bar,1 Cross River Shopping Ctr,Cross River,NY,10518.0,(914) 763-9120,1
Luv Pho,500 Lawrence Expy,Sunnyvale ,CA,94085.0,(408) 733-8883,Luv Pho Restaurant,500 Lawrence Expy,Sunnyvale,CA,94085.0,(408) 733-8883,1
Tabla Flavours,1088 Shell Blvd,Foster City ,CA,94404.0,(650) 638-1555,Tabla Flavours,1088 Shell Blvd,Foster City,CA,94404.0,(650) 638-1555,1
King Garden,2511 W 4th St # I,Wilmington ,DE,19805.0,(302) 655-3530,King Garden,2511 W 4th St,Wilmington,DE,19805.0,(302) 655-3530,1
Baleen Naples,9891 Gulf Shore Dr,Naples ,FL,34108.0,(239) 598-5707,Baleen Naples,9891 Gulf Shore Dr,Naples,FL,34108.0,(239) 598-5707,1
Pub Naples,9118 Strada Pl,Naples ,FL,34108.0,(239) 594-2748,The Pub Naples,9118 Strada Pl,Naples,FL,34108.0,(239) 594-2748,1
Pronto Rotisserie & Pizzeria,2560 El Camino Real,Redwood City ,CA,94061.0,(650) 365-9978,Pronto Rotisserie & Pizzeria,2560 El Camino Real,Redwood City,CA,94061.0,(650) 365-9978,1
Malakor Thai Cafe,425 25th St,West Palm Beach ,FL,33407.0,(561) 762-9070,Malakor Thai Cafe,425 25th St,West Palm Beach,FL,33407.0,(561) 762-9070,1
Sandwich Monkey,3 Plaza View Ln,Foster City ,CA,94404.0,(650) 274-0264,Sandwich Monkey,Three Plaza View Ln,Foster City,CA,94404.0,(650) 274-0264,1
Flea Street Cafe,3607 Alameda De Las Pulgas,Menlo Park ,CA,94025.0,(650) 854-1226,Flea Street,3607 Alameda de Las Pulgas,Menlo Park,CA,94025.0,(650) 854-1226,1
Gyu-Kaku,210 E Ohio St,Chicago ,IL,60611.0,(312) 266-8929,Gyu-Kaku Japanese BBQ,210 E Ohio St,Chicago,IL,60611.0,(312) 266-8929,1
California Pizza Kitchen,1493 Saint Louis Galleria,Saint Louis ,MO,63117.0,(314) 863-4500,California Pizza Kitchen,1493 St. Louis Galleria,Richmond Heights,MO,63117.0,(314) 863-4500,1
Lemon Tree Vero Beach,3125 Ocean Dr,Vero Beach ,FL,32963.0,(772) 231-0858,Lemon Tree,3125 Ocean Dr,Vero Beach,FL,32963.0,(772) 231-0858,1
Osteria - Palo Alto,247 Hamilton Ave,Palo Alto ,CA,94301.0,(650) 328-5700,Osteria,247 Hamilton Ave,Palo Alto,CA,94301.0,(650) 328-5700,1
Red Robin Gourmet Burgers,10750 Tamiami Trl N,Naples ,FL,34108.0,(239) 263-6114,Red Robin Gourmet Burgers,10750 Tamiami Trail North,Naples,FL,34108.0,(239) 263-6114,1
Friends Sushi,710 N Rush St,Chicago ,IL,60611.0,(312) 787-8998,Friends Sushi,710 N Rush St,Chicago,IL,60611.0,(312) 787-8998,1
Kim Tai Restaurant,2602 Fannin St,Houston ,TX,77002.0,(713) 652-0644,Kim Tai Restaurant,2602 Fannin St,Houston,TX,77002.0,(713) 652-0644,1
Di Mare,1517 Ocean Dr,Vero Beach ,FL,32963.0,(772) 360-1156,Di Mare Vero Beach,1517 Ocean Dr,Vero Beach,FL,32963.0,(772) 234-2809,1
Mulberry Street Pizzeria,347 N Canon Dr,Beverly Hills ,CA,90210.0,(310) 247-8998,Mulberry Street Pizzeria,347 N Canon Dr,Beverly Hills,CA,90210.0,(310) 247-8998,1
Menlo Grill Bistro & Bar,100 El Camino Real,Menlo Park ,CA,94025.0,(650) 330-2790,Menlo Grill Bistro & Bar,100 El Camino Real,Menlo Park,CA,94025.0,(650) 330-2790,1
Market House on the Square,655 Forest Ave,Lake Forest ,IL,60045.0,(847) 234-8800,Market House On The Square,655 Forest Ave,Lake Forest,IL,60045.0,(847) 234-8800,1
China Village Seafood Restaurant,600 Ralston Ave,Belmont ,CA,94002.0,(650) 593-1831,China Village Seafood Restaurant,600 Ralston Ave,Belmont,CA,94002.0,(650) 593-1831,1
Five Crowns,3801 E Coast Hwy,Corona Del Mar ,CA,92625.0,(949) 760-0331,Five Crowns,3801 E Coast Hwy,Corona del Mar,CA,92625.0,(949) 760-0331,1
Trevini Restaurant,290 Sunset Ave,Palm Beach ,FL,33480.0,(561) 833-3883,Trevini Restaurant,290 Sunset Ave,Palm Beach,FL,33480.0,(561) 833-3883,1
White Elephant Gourmet,930 El Camino Real,Santa Clara ,CA,95050.0,(408) 987-9373,White Elephant,930 El Camino Real,Santa Clara,CA,95050.0,(408) 987-9373,1
Old County Deli,1331 Old County Rd,Belmont ,CA,94002.0,(650) 593-6376,Old County Deli,1331 Old County Rd,Belmont,CA,94002.0,(650) 593-6376,1
Habanero Grill,2000 Avenue Of The Stars Ste 25,Los Angeles ,CA,90067.0,(310) 277-4440,Habanero Grill,2000 Avenue of the Stars,Century City,CA,90067.0,(310) 277-4440,1
Gibsons Bar & Steakhouse - Chicago,1028 N Rush St,Chicago ,IL,60611.0,(312) 266-8999,Gibsons Bar & Steakhouse,1028 N Rush St,Chicago,IL,60611.0,(312) 266-8999,1
Le Boulanger,720 Santa Cruz Ave,Menlo Park ,CA,94025.0,(650) 322-5528,Le Boulanger,720 Santa Cruz Ave,Menlo Park,CA,94025.0,(650) 322-5528,1
Tre Soldi,212 E Ohio St,Chicago ,IL,60611.0,(312) 664-0212,Tre Soldi,212 E Ohio St,Chicago,IL,60611.0,(312) 664-0212,1
Classic 101 Burgers & Shakes,575 Ralston Ave,Belmont ,CA,94002.0,(650) 592-0505,Classic 101 Burgers & Shakes,575 Ralston Ave,Belmont,CA,94002.0,(650) 592-0505,1
Starbucks Coffee,3590 Alameda De Las Pulgas,Menlo Park ,CA,94025.0,(650) 561-9732,Starbucks,325 Sharon Park Dr,Menlo Park,CA,94025.0,(650) 926-9593,1
Mediterranean Cuisine,911 E Duane Ave,Sunnyvale ,CA,94085.0,(408) 685-2269,Obed Mediterranean Cuisine,911 E Duane Ave,Sunnyvale,CA,94085.0,(408) 685-2269,1
Bandera Restaurant,3201 E Coast Hwy,Corona Del Mar ,CA,92625.0,(949) 673-3524,Bandera,3201 E Coast Hwy,Corona Del Mar,CA,92625.0,(949) 673-3524,1
Riverside Cafe,1 Beachland Blvd,Vero Beach ,FL,32963.0,(772) 234-5550,Riverside Cafe,1 Beachland Blvd,Vero Beach,FL,32963.0,(772) 234-5550,1
J & J Hawaiian BBQ,1170 Alma St,Menlo Park ,CA,94025.0,(650) 323-6137,J & J Hawaiian BBQ,1170 Alma St,Menlo Park,CA,94025.0,(650) 323-6137,1
Pizza Al Fresco,14 Via Mizner,Palm Beach ,FL,33480.0,(561) 832-0032,Pizza Al Fresco,14 Via Mizner,Palm Beach,FL,33480.0,(561) 832-0032,1
Left Bank Menlo Park Brasserie,635 Santa Cruz Ave,Menlo Park ,CA,94025.0,(650) 473-6543,Left Bank Menlo Park Brasserie,635 Santa Cruz Ave,Menlo Park,CA,94025.0,(650) 473-6543,1
West Restaurant & Lounge,170 N Church Ln,Los Angeles ,CA,90049.0,(310) 481-7878,West Restaurant & Lounge,170 N Church Ln,Los Angeles,CA,90049.0,(310) 481-7878,1
Jing-Jing Szechwan Hunan Gourmet,443 Emerson St,Palo Alto ,CA,94301.0,(650) 328-6885,Jing-Jing Szechwan Hunan Gourmet,443 Emerson St,Palo Alto,CA,94301.0,(650) 328-6885,1
Buca di Beppo,643 Emerson St,Palo Alto ,CA,94301.0,(650) 329-0665,Buca di Beppo Italian Restaurant,643 Emerson St,Palo Alto,CA,94301.0,(650) 329-0665,1
Echo Restaurant,230A Sunrise Ave,Palm Beach ,FL,33480.0,(561) 802-4222,Echo,230A Sunrise Ave,Palm Beach,FL,33480.0,(561) 802-4222,1
Karlitas Ta,512 Woodside Rd,Redwood City ,CA,94061.0,(650) 364-8612,Karlitas Taco Place,512 Woodside Rd,Redwood City,CA,94061.0,(650) 364-8612,1
Park Grill,2151 Avenue Of The Stars,Los Angeles ,CA,90067.0,(310) 284-6536,Park Grill Restaurant,2151 Ave of the Stars,Los Angeles,CA,90067.0,(310) 284-6536,1
Yu-N-Mi,9475 Santa Monica Blvd,Beverly Hills ,CA,90210.0,(310) 273-7437,Yu-N-Mi,9475 Santa Monica Blvd,Beverly Hills,CA,90210.0,(310) 273-7437,1
Mai Lee Restaurant,8396 Musick Memorial Dr.,Saint Louis ,MO,63144.0,(314) 645-2835,Mai Lee,8396 Musick Memorial Dr,Saint Louis,MO,63144.0,(314) 645-2835,1
The Ravioli House,505 S B St,San Mateo ,CA,94401.0,(650) 344-7433,The Ravioli House,505 S B St,San Mateo,CA,94401.0,(650) 344-7433,1
Bistro Niko,3344 Peachtree Rd NE,Atlanta ,GA,30326.0,(404) 261-6456,Bistro Niko,3344 Peachtree Rd,Atlanta,GA,30326.0,(404) 261-6456,1
Mp Mongolian BBQ,700 El Camino Real,Menlo Park ,CA,94025.0,(650) 853-1118,MP Mongolian BBQ,700 El Camino Real,Menlo Park,CA,94025.0,(650) 853-1118,1
Shalizaar Restaurant,300 El Camino Real,Belmont ,CA,94002.0,(650) 596-9000,Shalizaar,300 El Camino Real,Belmont,CA,94002.0,(650) 596-9000,1
Yojisan,260 N Beverly Dr,Beverly Hills ,CA,90210.0,(424) 245-3799,Yojisan Sushi,260 N Beverly Dr,Beverly Hills,CA,90210.0,(424) 245-3799,1
Firenze Trattoria,162 S Rancho Santa Fe Rd,Encinitas ,CA,92024.0,(760) 944-9000,Firenze Trattoria,162 S Rancho Santa Fe Rd,Encinitas,CA,92024.0,(760) 944-9000,1
West Egg Cafe,620 N Fairbanks Ct,Chicago ,IL,60611.0,(312) 280-8366,West Egg Cafe,620 N Fairbanks Ct,Chicago,IL,60611.0,(312) 280-8366,1
Pacific Catch,243 S B St,San Mateo ,CA,94401.0,(650) 389-2481,Pacific Catch,243 S B St,San Mateo,CA,94401.0,(650) 389-2482,1
Shu Feng Restaurant,8435 Olive Blvd,Saint Louis ,MO,63132.0,(314) 983-0099,Shu Feng Restaurant,8435 Olive Blvd,Saint Louis,MO,63132.0,(314) 983-0099,1
The Patio Cafe,10711 Tamiami Trl N,Naples ,FL,34108.0,(239) 260-1075,The Patio Cafe,10711 N Tamiami Trl,Naples,FL,34108.0,(239) 260-1075,1
Panda Express,13783 W Oasis Service Rd,Lake Forest ,IL,60045.0,(847) 283-0738,Panda Express,13783 W Oasis Service Rd,Mettawa,IL,60045.0,(847) 283-0738,1
Madera,2825 Sand Hill Rd,Menlo Park ,CA,94025.0,(650) 561-1540,Madera,2825 Sand Hill Rd,Menlo Park,CA,94025.0,(650) 561-1540,1
Mp Mongolian BBQ,700 El Camino Real,Menlo Park ,CA,94025.0,(650) 853-1118,MP Mongolian BBQ,700 El Camino Real,Menlo Park,CA,94025.0,(650) 853-1118,1
Su Hong-Menlo Park,1039 El Camino Real,Menlo Park ,CA,94025.0,(650) 323-6852,Su Hong-Menlo Park,1039 El Camino Real,Menlo Park,CA,94025.0,(650) 323-6852,1
Barolo Restaurant,136 Main St,New Canaan ,CT,6840.0,(203) 920-1515,Barolo,136 Main St,New Canaan,CT,6840.0,(203) 920-1515,1
Tin Fish,118 S Clematis St,West Palm Beach ,FL,33401.0,(561) 223-2497,Tin Fish Clematis,118 S Clematis St,West Palm Beach,FL,33401.0,(561) 223-2497,1
North Street Tavern & Wood Fired Pizza,1128 North St,White Plains ,NY,10605.0,(914) 437-7111,North Street Tavern & Wood Fired Pizza,1128 North St,White Plains,NY,10605.0,(914) 437-7111,1
Sushi Kushi Toyo,825 S Waukegan Rd Ste A5,Lake Forest ,IL,60045.0,(847) 234-9950,Sushi Kushi Toyo,825 S Waukegan Rd,Lake Forest,IL,60045.0,(847) 234-9950,1
Tre Angelina Ristoeante,478 Mamaroneck Ave,White Plains ,NY,10605.0,(914) 686-0617,Tre Angelina,478 Mamaroneck Ave,White Plains,NY,10605.0,(914) 686-0617,1
Greenville Country Club,201 Owls Nest Rd,Wilmington ,DE,19807.0,(302) 652-3255,Greenville Country Club,201 Owls Nest Rd,Wilmington,DE,19807.0,(302) 652-0874,1
Ocean Grill,1050 Beachland Blvd,Vero Beach ,FL,32963.0,(772) 231-5409,Ocean Grill,1050 Beachland Blvd,Vero Beach,FL,32963.0,(772) 231-5409,1
Tres Potrillos Taqueria,670 N Fair Oaks Ave,Sunnyvale ,CA,94085.0,(408) 735-8657,Tres Potrillos,670 N Fair Oaks Ave,Sunnyvale,CA,94085.0,(408) 735-8657,1
Cosi,17503 La Cantera Pkwy Ste 108,San Antonio ,TX,78257.0,(210) 558-1040,Cosi,17503 La Cantera Pkwy,San Antonio,TX,78257.0,(210) 558-1040,1
Tokyo Village,1221 Chess Dr,Foster City ,CA,94404.0,(650) 341-6888,Tokyo Village,1221 Chess Dr,Foster City,CA,94404.0,(650) 341-6888,1
Hotel Bel-Air,701 Stone Canyon Rd,Los Angeles ,CA,90077.0,(310) 909-1644,Hotel Bel-Air,701 Stone Canyon Rd,Los Angeles,CA,90077.0,(310) 472-1211,1
The Tides Restaurant,3103 Cardinal Dr,Vero Beach ,FL,32963.0,(772) 234-3966,The Tides Restaurant,3103 Cardinal Dr,Vero Beach,FL,32963.0,(772) 234-3966,1
Kona Grill,15900 La Cantera Pkwy,San Antonio ,TX,78256.0,(210) 877-5355,Kona Grill,15900 LaCantera Pkwy,San Antonio,TX,78256.0,(210) 877-5355,1
Wing Fat Restaurant,500 E 3rd Ave,San Mateo ,CA,94401.0,(650) 344-0751,Wing Fat Restaurant,500 E 3rd Ave,San Mateo,CA,94401.0,(650) 344-0751,1
Bar Louie,15900 La Cantera Pkwy Suite 22100,San Antonio ,TX,78256.0,(210) 901-6280,Bar Louie,15900 La Cantera Pkwy,San Antonio,TX,78256.0,(210) 901-6280,1
Chantilly Restaurant,3001 El Camino Real,Redwood City ,CA,94061.0,(650) 321-4080,Chantilly Restaurant,3001 El Camino Real,Redwood City,CA,94061.0,(650) 321-4080,1
House of India,8501 Delmar Blvd,Saint Louis ,MO,63124.0,(314) 567-6850,House Of India,8501 Delmar Blvd,Saint Louis,MO,63124.0,(314) 567-6850,1
Di Mare,1517 Ocean Dr,Vero Beach ,FL,32963.0,(772) 360-1156,Di Mare Vero Beach,1517 Ocean Dr,Vero Beach,FL,32963.0,(772) 234-2809,1
Bravo Taqueria,980 Woodside Rd,Redwood City ,CA,94061.0,(650) 364-3511,Bravo Taqueria,980 Woodside Rd,Redwood City,CA,94061.0,(650) 364-3511,1
Shiok Singapore Kitchen,1137 Chestnut St,Menlo Park ,CA,94025.0,(650) 838-9448,Shiok Singapore Kitchen,1137 Chestnut St,Menlo Park,CA,94025.0,(650) 838-9448,1
Sushi Ai,4 N Central Ave,Saint Louis ,MO,63105.0,(314) 727-1168,Sushi Ai,4 N Central Ave,Clayton,MO,63105.0,(314) 727-1168,1
Belle Fair Gourmet,20 Bellefair Blvd,Port Chester ,NY,10573.0,(914) 939-2371,The Belle Fair Gourmet,20 Bellefair Blvd,Rye Brook,NY,10573.0,(914) 939-2370,1
Lyfe Kitchen,8315 Westchester Dr,Dallas ,TX,75225.0,(214) 635-4462,Lyfe Kitchen,8315 Westchester Dr,Dallas,TX,75225.0,(214) 361-5933,1
South Beach Pizzeria,1621 Ocean Dr,Vero Beach ,FL,32963.0,(772) 231-1110,South Beach Pizzeria,1621 Ocean Dr,Vero Beach,FL,32963.0,(772) 231-1110,1
Sushi Thai Of Naples,869 103rd Ave N,Naples ,FL,34108.0,(239) 592-7575,Sushi Thai of Naples,869 103rd Ave N,Naples,FL,34108.0,(239) 592-7575,1
The Clubhouse Bistro,1221 Chess Dr,Foster City ,CA,94404.0,(650) 570-5700,Clubhouse Bistro,1221 Chess Dr,Foster City,CA,94404.0,(650) 570-5700,1
Mandaloun,2021 Broadway St,Redwood City ,CA,94063.0,(650) 367-7974,Mandaloun,2021 Broadway St,Redwood City,CA,94063.0,(650) 367-7974,1
Chantilly Restaurant,3001 El Camino Real,Redwood City ,CA,94061.0,(650) 321-4080,Chantilly Restaurant,3001 El Camino Real,Redwood City,CA,94061.0,(650) 321-4080,1
Hinoki & The Bird,10 W Century Dr.,Los Angeles ,CA,90067.0,(310) 552-1200,Hinoki & The Bird,10 W Century Dr,Los Angeles,CA,90067.0,(310) 552-1200,1
Salata Restaurant,8307 Westchester Dr,Dallas ,TX,75225.0,(214) 363-6991,Salata,8307 Westchester Dr,Dallas,TX,75225.0,(214) 363-6991,1
Starbucks Coffee,8687 N Central Expy,Dallas ,TX,75225.0,(214) 363-7691,Starbucks,8687 N Central Expy,Dallas,TX,75225.0,(214) 363-7691,1
Bedford Village Pastry,426 Old Post Rd,Bedford ,NY,10506.0,(914) 234-9555,Bedford Village Pastry,426 Old Post Rd,Bedford,NY,10506.0,(914) 234-9555,1
Cafe Del Sol,1010 Doyle St,Menlo Park ,CA,94025.0,(650) 326-2501,Cafe Del Sol Restaurant,1010 Doyle St,Menlo Park,CA,94025.0,(650) 326-2501,1
Starbucks Coffee,2605 The Alameda,Santa Clara ,CA,95050.0,(408) 244-6873,Starbucks,71 Washington St,Santa Clara,CA,95050.0,(408) 244-3025,1
Tasty Thai Restaurant,43 S B St,San Mateo ,CA,94401.0,(650) 340-8424,Tasty Thai Restaurant,43 South B St,San Mateo,CA,94401.0,(650) 340-8424,1
Lu Lu Seafood Restaurant,8224 Olive Blvd,Saint Louis ,MO,63132.0,(314) 997-3108,Lu Lu Seafood,8224 Olive Blvd,Saint Louis,MO,63132.0,(314) 997-3108,1
Menlo BBQ,555 Willow Rd,Menlo Park ,CA,94025.0,(650) 321-6188,Menlo BBQ,555 Willow Rd,Menlo Park,CA,94025.0,(650) 321-6188,1
Da Pasquale,9749 Santa Monica Blvd,Beverly Hills ,CA,90210.0,(310) 859-3884,Da Pasquale Restaurant,9749 S Santa Monica Blvd,Beverly Hills,CA,90210.0,(310) 859-3884,1
Orange Leaf Frozen Yogurt at The Rim,6028 Worth Parkway,San Antonio ,TX,78257.0,(210) 561-8172,Orange Leaf Frozen Yogurt,6028 Worth Parkway,San Antonio,TX,78257.0,(210) 561-8172,1
Cafe Continental,1538 Northern Blvd,Manhasset ,NY,11030.0,(516) 627-4269,Cafe Continental Restaurant,1538 Northern Blvd,Manhasset,NY,11030.0,(516) 627-4269,1
Red Robin Gourmet Burgers,17403 W Interstate 10,San Antonio ,TX,78257.0,(210) 558-0900,Red Robin Gourmet Burgers,17403 IH-10 West,San Antonio,TX,78257.0,(210) 558-0900,1
Round Table Pizza,1225 El Camino Real,Menlo Park ,CA,94025.0,(650) 321-6861,Round Table Pizza,1225 El Camino Real,Menlo Park,CA,94025.0,(650) 321-6861,1
Perbacco,700 Milam St,Houston ,TX,77002.0,(713) 224-2422,Perbacco,700 Milam St,Houston,TX,77002.0,(713) 224-2422,1
Lighthouse Restaurant,9180 Gulf Shore Dr,Naples ,FL,34108.0,(239) 597-2551,Lighthouse Restaurant,9180 Gulf Shore Dr,Naples,FL,34108.0,(239) 597-2551,1
Yard House,849 Newport Center Dr,Newport Beach ,CA,92660.0,(949) 640-9273,Yard House,849 Newport Center Dr,Newport Beach,CA,92660.0,(949) 640-9273,1
Thai Spoons,909 W El Camino Real,Sunnyvale ,CA,94087.0,(408) 739-1798,Thai Spoons,909 W El Camino Real,Sunnyvale,CA,94087.0,(408) 739-1798,1
Nola Restaurant & Bar,535 Ramona St,Palo Alto ,CA,94301.0,(650) 328-2722,NOLA Restaurant & Bar,535 Ramona St,Palo Alto,CA,94301.0,(650) 328-2722,1
Flea Street Cafe,3607 Alameda De Las Pulgas,Menlo Park ,CA,94025.0,(650) 854-1226,Flea Street,3607 Alameda de Las Pulgas,Menlo Park,CA,94025.0,(650) 854-1226,1
Coco Pazzo Cafe,636 N Saint Clair St,Chicago ,IL,60611.0,(312) 239-6992,Coco Pazzo Cafe,636 N St. Clair St,Chicago,IL,60611.0,(312) 664-2777,1
Kaz Teriyaki Grill,71 E 4th Ave,San Mateo ,CA,94401.0,(650) 347-5777,Kaz Teriyaki Grill,71 E 4th Ave,San Mateo,CA,94401.0,(650) 347-5777,1
Chantilly Restaurant,3001 El Camino Real,Redwood City ,CA,94061.0,(650) 321-4080,Chantilly Restaurant,3001 El Camino Real,Redwood City,CA,94061.0,(650) 321-4080,1
Harbor Mist Restaurant,105 Route 25A,Cold Spring Harbor ,NY,11724.0,(631) 659-3888,Harbor Mist,105 Harbor Rd,Cold Spring Harbor,NY,11724.0,(631) 659-3888,1
Edibles,1888 Century Park E Ste LL30,Los Angeles ,CA,90067.0,(310) 556-2790,Edibles Coffee Shop,1888 Century Park E,Los Angeles,CA,90067.0,(310) 556-2790,1
Juban Yakiniku House Japanese BBQ,712 Santa Cruz Ave,Menlo Park ,CA,94025.0,(650) 473-6458,Juban Yakiniku House,712 Santa Cruz Ave,Menlo Park,CA,94025.0,(650) 473-6458,1
Bluefin Restaurant,7952 E Pacific Coast Hwy,Newport Coast ,CA,92657.0,(949) 715-7373,Bluefin,7952 E Pacific Coast Hwy,Newport Coast,CA,92657.0,(949) 715-7373,1
Bangkok Patio,615 E 3rd Ave,San Mateo ,CA,94401.0,(650) 548-5489,Bangkok Patio,615 E 3rd Ave,San Mateo,CA,94401.0,(650) 548-5489,1
Juban Yakiniku House Japanese BBQ,712 Santa Cruz Ave,Menlo Park ,CA,94025.0,(650) 473-6458,Juban Yakiniku House,712 Santa Cruz Ave,Menlo Park,CA,94025.0,(650) 473-6458,1
Trattoria Abruzzo,835 Vanderbilt Beach Rd,Naples ,FL,34108.0,(239) 596-8010,Trattoria Abruzzo,835 Vanderbilt Beach Rd,Naples,FL,34108.0,(239) 596-8010,1
Three Seasons,518 Bryant St,Palo Alto ,CA,94301.0,(650) 838-0353,Three Seasons,518 Bryant St,Palo Alto,CA,94301.0,(650) 838-0353,1
Villa Milano,168 Plandome Rd,Manhasset ,NY,11030.0,(516) 365-3440,Villa Milano,168 Plandome Rd,Manhasset,NY,11030.0,(516) 365-3440,1
Gombei Japanese Restaurant,1438 El Camino Real,Menlo Park ,CA,94025.0,(650) 329-1799,Gombei Japanese Restaurant,1438 El Camino Real,Menlo Park,CA,94025.0,(650) 329-1799,1
Pho Little Saigon,2978 S Norfolk St,San Mateo ,CA,94403.0,(650) 345-1535,Pho Little Saigon,2978 S Norfolk St,San Mateo,CA,94403.0,(650) 345-1535,1
Applewood,989 El Camino Real,Menlo Park ,CA,94025.0,(650) 328-1556,Applewood Pizza,1001 El Camino Real,Menlo Park,CA,94025.0,(650) 324-3486,1
Sbarro,13783 W Oasis Service Rd,Lake Forest ,IL,60045.0,(847) 735-9900,Sbarro,13783 W Oasis Service Rd,Lake Forest,IL,60045.0,(847) 735-9900,1
The Counter,9110 Strada Pl Ste 6130,Naples ,FL,34108.0,(239) 566-0644,The Counter,9110 Strada Place,Naples,FL,34108.0,(239) 566-0644,1
Sultana,1149 El Camino Real,Menlo Park ,CA,94025.0,(650) 322-4343,Sultana,1149 El Camino Real,Menlo Park,CA,94025.0,(650) 322-4343,1
Protein Bar,120 S Riverside Plz,Chicago ,IL,60606.0,(312) 382-7300,Protein Bar,120 S Riverside Plz,Chicago,IL,60606.0,(312) 382-7300,1
Starbucks Coffee,100 S Wacker Dr Ste 100,Chicago ,IL,60606.0,(312) 759-5559,Starbucks,233 S Wacker Dr,Chicago,IL,60606.0,(312) 559-9930,1
Palm Beach Cafe,206 S Olive Ave,West Palm Beach ,FL,33401.0,(561) 659-4441,Palm Beach Cafe,206 S Olive Ave,West Palm Beach,FL,33401.0,(561) 659-4441,1
China Bee,31 S B St,San Mateo ,CA,94401.0,(650) 348-1889,China Bee,31 S B St,San Mateo,CA,94401.0,(650) 348-1889,1
Benihana,2105 Northern Blvd,Manhasset ,NY,11030.0,(516) 627-3400,Benihana,2105 Northern Blvd,Manhasset,NY,11030.0,(516) 627-3400,1
IHOP,1586 Northern Blvd,Manhasset ,NY,11030.0,(516) 365-2732,IHOP,1586 Northern Blvd,Manhasset,NY,11030.0,(516) 365-2732,1
Tomo Japanese Restaurant,3630 Peachtree Road NE #140,Atlanta ,GA,30326.0,(404) 835-2708,Tomo Japanese Restaurant,3630 Peachtree Rd,Atlanta,GA,30326.0,(404) 835-2708,1
Galata Bistro,827 Santa Cruz Ave,Menlo Park ,CA,94025.0,(650) 325-7900,Galata Bistro,827 Santa Cruz Ave,Menlo Park,CA,94025.0,(650) 325-7900,1
Tamarine Restaurant,546 University Ave,Palo Alto ,CA,94301.0,(650) 325-8500,Tamarine Restaurant,546 University Ave,Palo Alto,CA,94301.0,(650) 325-8500,1
North Star Restaurant,85 Westchester Ave,Pound Ridge ,NY,10576.0,(914) 764-0200,North Star Restaurant,85 Westchester Ave,Pound Ridge,NY,10576.0,(914) 764-0200,1
Yip Yick Ming Inc,18 Beaver St,New York ,NY,10004.0,(212) 480-9010,Yip Yick Ming Inc,18 Beaver St,New York,NY,10004.0,(212) 480-9010,1
Osteria - Palo Alto,247 Hamilton Ave,Palo Alto ,CA,94301.0,(650) 328-5700,Osteria,247 Hamilton Ave,Palo Alto,CA,94301.0,(650) 328-5700,1
Chez Jean-Pierre Bistro,132 N County Rd,Palm Beach ,FL,33480.0,(561) 833-1171,Chez Jean-Pierre,132 N County Rd,Palm Beach,FL,33480.0,(561) 833-1171,1
Sushi Sai,123 N Wacker Dr,Chicago ,IL,60606.0,(312) 332-8822,Sushi Sai,123 N Wacker Dr,Chicago,IL,60606.0,(312) 332-8822,1
Portola Valley Alpine Inn,3915 Alpine Rd,Portola Valley ,CA,94028.0,(650) 530-2817,Alpine Inn,3915 Alpine Rd,Portola Valley,CA,94028.0,(650) 854-4004,1
Desert Moon Cafe Inc,89 Oak Hill Rd,Chappaqua ,NY,10514.0,(914) 238-4812,Desert Moon Cafe,89 Oak Hill Rd,Chappaqua,NY,10514.0,,1
Mango Gardens,111 E 4th Ave,San Mateo ,CA,94401.0,(650) 315-2061,Mango Garden,111 E 4th Ave,San Mateo,CA,94401.0,(650) 315-2061,1
Waterfront Pizza,969 Edgewater Blvd,Foster City ,CA,94404.0,(650) 573-6634,Waterfront,969 D Edgewater Blvd,Foster City,CA,94404.0,(650) 573-6634,1
Sushi O Sushi Japanese Cuisine,2789 El Camino Real,Santa Clara ,CA,95051.0,(408) 241-1677,Sushi O Sushi,2789 El Camino Real,Santa Clara,CA,95051.0,(408) 241-1677,1
Sweetie Pies On Main,181 Main St # A,Cold Spring Harbor ,NY,11724.0,(631) 367-9500,Sweetie Pies on Main,181 Main St,Cold Spring Harbor,NY,11724.0,(631) 367-9500,1
Urasawa Restaurant,218 N Rodeo Dr,Beverly Hills ,CA,90210.0,(310) 247-8939,Urasawa,218 N Rodeo Dr,Beverly Hills,CA,90210.0,(310) 247-8939,1
Naomi Sushi,1328 El Camino Real,Menlo Park ,CA,94025.0,(650) 321-6902,Naomi Sushi,1328 El Camino Real,Menlo Park,CA,94025.0,(650) 321-6902,1
La Madeleine,8687 N Central Expy Ste 628,Dallas ,TX,75225.0,(214) 696-2398,La Madeleine,University Park,8319 Preston Rd,,75225.0,Phone number,1
Juban Yakiniku House Japanese BBQ,712 Santa Cruz Ave,Menlo Park ,CA,94025.0,(650) 473-6458,Juban Yakiniku House,712 Santa Cruz Ave,Menlo Park,CA,94025.0,(650) 473-6458,1
Chantilly Restaurant,3001 El Camino Real,Redwood City ,CA,94061.0,(650) 321-4080,Chantilly Restaurant,3001 El Camino Real,Redwood City,CA,94061.0,(650) 321-4080,1
Foodlife,835 N Michigan Ave,Chicago ,IL,60611.0,(312) 335-3663,Foodlife,835 N Michigan Ave,Chicago,IL,60611.0,(312) 335-3663,1
Tamarine Restaurant,546 University Ave,Palo Alto ,CA,94301.0,(650) 325-8500,Tamarine Restaurant,546 University Ave,Palo Alto,CA,94301.0,(650) 325-8500,1
Barn Thai Restaurant,921 E Duane Ave,Sunnyvale ,CA,94085.0,(408) 732-3319,Barn Thai Restaurant,921 E Duane Ave,Sunnyvale,CA,94085.0,(408) 732-3319,1
Imoto,350 S County Rd,Palm Beach ,FL,33480.0,(561) 833-5522,Imoto,350 S County Rd,Palm Beach,FL,33480.0,(561) 833-5522,1
Il Fornaio,520 Cowper Street (At The Garden Court Hotel),Palo Alto ,CA,94301.0,(650) 853-3888,Il Fornaio,520 Cowper Street,Palo Alto,CA,94301.0,(650) 853-3888,1
Tamarine Restaurant,546 University Ave,Palo Alto ,CA,94301.0,(650) 325-8500,Tamarine Restaurant,546 University Ave,Palo Alto,CA,94301.0,(650) 325-8500,1
South End Restaurant,36 Pine St,New Canaan ,CT,6840.0,(203) 594-7364,South End,36 Pine St,New Canaan,CT,6840.0,(203) 966-5200,1
Scarpetta,225 N Canon Dr,Beverly Hills ,CA,90210.0,(310) 499-4199,Scarpetta,225 N Canon Dr,Beverly Hills,CA,90210.0,(310) 860-7970,1
Chick-Fil-A,3500 Peachtree Rd NE,Atlanta ,GA,30326.0,(404) 848-9550,Chick-fil-A,3393 Peachtree Rd NE,Atlanta,GA,30326.0,(404) 231-7972,1
Thai Bay Restaurant,1000 Okeechobee Rd,West Palm Beach ,FL,33401.0,(561) 832-6091,Thai Bay Restaurant,1000 Okeechobee Rd,West Palm Beach,FL,33401.0,(561) 832-6091,1
The Melting Pot,2 N B St,San Mateo ,CA,94401.0,(650) 342-6358,Melting Pot,2 N B St,San Mateo,CA,94401.0,(650) 342-6358,1
Stacks,600 Santa Cruz Ave,Menlo Park ,CA,94025.0,(650) 838-0066,Stacks,600 Santa Cruz Ave,Menlo Park,CA,94025.0,(650) 838-0066,1
The Capital Grille,633 N Saint Clair St,Chicago ,IL,60611.0,(312) 337-9400,The Capital Grille,633 N Saint Clair St,Chicago,IL,60611.0,(312) 337-9400,1
Starbucks Coffee,150 N Wacker Dr,Chicago ,IL,60606.0,(312) 704-0655,Starbucks,150 N Wacker Dr,Chicago,IL,60606.0,(312) 704-0655,1
Jing-Jing Szechwan Hunan Gourmet,443 Emerson St,Palo Alto ,CA,94301.0,(650) 328-6885,Jing-Jing Szechwan Hunan Gourmet,443 Emerson St,Palo Alto,CA,94301.0,(650) 328-6885,1
Starbucks Coffee,1066 Foster City Blvd,Foster City ,CA,94404.0,(650) 341-4419,Starbucks,1066 Foster City Blvd,Foster City,CA,94404.0,(650) 341-4419,1
LB Steak,898 Santa Cruz Ave,Menlo Park ,CA,94025.0,(650) 321-8980,LB Steak,898 Santa Cruz Ave,Menlo Park,CA,94025.0,(650) 321-8980,1
Stacks,600 Santa Cruz Ave,Menlo Park ,CA,94025.0,(650) 838-0066,Stacks,600 Santa Cruz Ave,Menlo Park,CA,94025.0,(650) 838-0066,1
Chantilly Restaurant,3001 El Camino Real,Redwood City ,CA,94061.0,(650) 321-4080,Chantilly Restaurant,3001 El Camino Real,Redwood City,CA,94061.0,(650) 321-4080,1
Guo Bin Chinese Restaurant,8600 Delmar Blvd Ste 1300,Saint Louis ,MO,63124.0,(314) 997-0906,Guo Bin Chinese Restaurant,8600 Delmar Blvd,Saint Louis,MO,63124.0,(314) 997-0906,1
Mariposa,15900 La Cantera Pkwy,San Antonio ,TX,78256.0,(210) 694-3550,Mariposa Restaurant,15900 La Cantera Pkwy,San Antonio,TX,78256.0,(210) 694-3550,1
Cipollini,2110C Northern Blvd,Manhasset ,NY,11030.0,(516) 627-7172,Cipollini Pronto Caffe,2060 Northern Blvd,Manhasset,NY,11030.0,(516) 627-6270,1
Ruby Tuesday,8777 Tamiami Trl N,Naples ,FL,34108.0,(239) 514-1350,Ruby Tuesday,8777 Tamiami Trail North,Naples,FL,34108.0,(239) 514-1350,1
Naomi Sushi,1328 El Camino Real,Menlo Park ,CA,94025.0,(650) 321-6902,Naomi Sushi,1328 El Camino Real,Menlo Park,CA,94025.0,(650) 321-6902,1
Bravo Taqueria,980 Woodside Rd,Redwood City ,CA,94061.0,(650) 364-3511,Bravo Taqueria,980 Woodside Rd,Redwood City,CA,94061.0,(650) 364-3511,1
Round Table Pizza,1225 El Camino Real,Menlo Park ,CA,94025.0,(650) 321-6861,Round Table Pizza,1225 El Camino Real,Menlo Park,CA,94025.0,(650) 321-6861,1
Nola Restaurant & Bar,535 Ramona St,Palo Alto ,CA,94301.0,(650) 328-2722,NOLA Restaurant & Bar,535 Ramona St,Palo Alto,CA,94301.0,(650) 328-2722,1
Chipotle Mexican Grill,2019 Chess Dr,Foster City ,CA,94404.0,(650) 539-3638,Chipotle Mexican Grill,2019 Chess Dr,San Mateo,CA,94404.0,,1
Sneha South & North Indian Restaurant,1214 Apollo Way # 404-B,Sunnyvale ,CA,94085.0,(408) 481-0700,Sneha,1214 Apollo Way,Sunnyvale,CA,94085.0,(408) 481-0700,1
MH Fish House,670 N Bank Ln,Lake Forest ,IL,60045.0,(847) 234-8802,MH Fish House,670 Bank Lane,Lake Forest,IL,60045.0,(847) 234-8802,1
Pizza Hut,1141 Triton Dr,Foster City ,CA,94404.0,(650) 345-3511,Pizza Hut,1141 Triton Ave,Foster City,CA,94404.0,(650) 345-3511,1
CUCINA enoteca Del Mar,2730 Via De La Valle,Del Mar ,CA,92014.0,(858) 704-4500,Cucina Enoteca,2730 Via de la Valle,Del Mar,CA,92014.0,(858) 704-4500,1
Luca Bella,206 Mamaroneck Ave,White Plains ,NY,10601.0,(914) 358-1500,Luca Bella Restaurant & Pizzeria,206 Mamaroneck Ave,White Plains,NY,10601.0,(914) 358-1500,1
Stacks,600 Santa Cruz Ave,Menlo Park ,CA,94025.0,(650) 838-0066,Stacks,600 Santa Cruz Ave,Menlo Park,CA,94025.0,(650) 838-0066,1
Pho Long Restaurant,8627 Olive Blvd,Saint Louis ,MO,63132.0,(314) 997-1218,Pho Long,8627-8629 Olive Blvd,Saint Louis,MO,63132.0,(314) 997-1218,1
Round Table Pizza,1225 El Camino Real,Menlo Park ,CA,94025.0,(650) 321-6861,Round Table Pizza,1225 El Camino Real,Menlo Park,CA,94025.0,(650) 321-6861,1
Toku Modern Asian,2014 Northern Blvd,Manhasset ,NY,11030.0,(516) 627-8658,Toku Modern Asian,2014C Northern Blvd,Manhasset,NY,11030.0,(516) 627-8658,1
Round Table Pizza,1225 El Camino Real,Menlo Park ,CA,94025.0,(650) 321-6861,Round Table Pizza,1225 El Camino Real,Menlo Park,CA,94025.0,(650) 321-6861,1
Chantilly Restaurant,3001 El Camino Real,Redwood City ,CA,94061.0,(650) 321-4080,Chantilly Restaurant,3001 El Camino Real,Redwood City,CA,94061.0,(650) 321-4080,1
A Taste Of China,55 King St,Chappaqua ,NY,10514.0,(800) 734-6995,A Taste Of China,55 King St,Chappaqua,NY,10514.0,(800) 734-6995,1
Chantilly Restaurant,3001 El Camino Real,Redwood City ,CA,94061.0,(650) 321-4080,Chantilly Restaurant,3001 El Camino Real,Redwood City,CA,94061.0,(650) 321-4080,1
Madera,2825 Sand Hill Rd,Menlo Park ,CA,94025.0,(650) 561-1540,Madera,2825 Sand Hill Rd,Menlo Park,CA,94025.0,(650) 561-1540,1
Starbucks Coffee,2952 N Beverly Glen Cir,Los Angeles ,CA,90077.0,(310) 470-8121,Starbucks,2952 N Beverly Glen Cir,Los Angeles,CA,90077.0,(310) 470-8121,1
Il Pastaio,400 N Canon Dr,Beverly Hills ,CA,90210.0,(310) 205-5444,Il Pastaio,400 N Canon Dr,Beverly Hills,CA,90210.0,(310) 205-5444,1
Old Port Lobster Shack,3130 Alpine Rd,Portola Valley ,CA,94028.0,(650) 561-9500,Old Port Lobster Shack,3130 Alpine Rd,Portola Valley,CA,94028.0,(650) 561-9500,1
La Madeleine,8319 Preston Rd,Dallas ,TX,75225.0,(214) 346-9733,La Madeleine,University Park,8319 Preston Rd,,75225.0,Phone number,1
Flavors,27 Whitehall St,New York ,NY,10004.0,(212) 269-6100,Flavors,27 Whitehall St,New York,NY,10004.0,(212) 269-6100,1
Cosi,17503 La Cantera Pkwy Ste 108,San Antonio ,TX,78257.0,(210) 558-1040,Cosi,17503 La Cantera Pkwy,San Antonio,TX,78257.0,(210) 558-1040,1
China Village Seafood Restaurant,600 Ralston Ave,Belmont ,CA,94002.0,(650) 593-1831,China Village Seafood Restaurant,600 Ralston Ave,Belmont,CA,94002.0,(650) 593-1831,1
Chalet Ticino,1058A Shell Blvd,Foster City ,CA,94404.0,(650) 571-0507,Chalet Ticino,1058 Shell Blvd,Foster City,CA,94404.0,(650) 571-0507,1
Amigos Grill,3130 Alpine Rd,Portola Valley ,CA,94028.0,(650) 851-3997,Amigos Grill Cocina Mexicana Y Cantina,3130 Alpine Rd,Portola Valley,CA,94028.0,(650) 851-3997,1
Kingfish Restaurant,201 S B St,San Mateo ,CA,94401.0,(650) 343-1226,Kingfish Restaurant,201 S B St,San Mateo,CA,94401.0,(650) 343-1226,1
The Quiet Woman,3224 E Coast Hwy,Corona Del Mar ,CA,92625.0,(949) 640-7440,The Quiet Woman,3224 E Coast Hwy,Corona Del Mar,CA,92625.0,(949) 640-7440,1
Curry Up Now,129 S B St,San Mateo ,CA,94401.0,(650) 931-6333,Curry Up Now,129 S B St,San Mateo,CA,94401.0,(650) 316-8648,1
Veladora,5921 Valencia Cir,Rancho Santa Fe ,CA,92067.0,(858) 759-6216,Veladora,5921 Valencia Cir,Rancho Santa Fe,CA,92067.0,(858) 759-6216,1
Izakaya Mai Restaurant,212 2nd Ave,San Mateo ,CA,94401.0,(650) 347-2511,Izakaya Mai,212 2nd Ave,San Mateo,CA,94401.0,(650) 347-2511,1
Farm of Beverly Hills,439 N Beverly Dr,Beverly Hills ,CA,90210.0,(310) 273-5578,The Farm of Beverly Hills,439 N Beverly Dr,Beverly Hills,CA,90210.0,(310) 273-5578,1
Da Pasquale,9749 Santa Monica Blvd,Beverly Hills ,CA,90210.0,(310) 859-3884,Da Pasquale Restaurant,9749 S Santa Monica Blvd,Beverly Hills,CA,90210.0,(310) 859-3884,1
David King Chinese Restrnt Inc,128 Mamaroneck Ave,White Plains ,NY,10601.0,(914) 948-9290,David King,128 Mamaroneck Ave,White Plains,NY,10601.0,(914) 948-9290,1
Viognier,222 E 4th Ave,San Mateo ,CA,94401.0,(650) 685-3727,Viognier,222 E 4th Ave,San Mateo,CA,94401.0,(650) 685-3727,1
Red Lobster,5815 N Loop 1604 W,San Antonio ,TX,78249.0,(210) 694-5912,Red Lobster,5815 N. Loop 1604 West,San Antonio,TX,78249.0,(210) 694-5912,1
Starbucks Coffee,840 S Waukegan Rd,Lake Forest ,IL,60045.0,(847) 295-4769,Starbucks,840 S Waukegan Rd,Lake Forest,IL,60045.0,(847) 295-4769,1
Coliseum Pool & Grill,22701 Pelican Hill Rd S,Newport Coast ,CA,92657.0,(949) 467-6800,Coliseum Pool & Grill,22701 Pelican Hill Rd S,Newport Coast,CA,92657.0,(844) 443-0020,1
Sushi 25,25 Elm St,New Canaan ,CT,6840.0,(203) 966-1009,Sushi 25,25 Elm St,New Canaan,CT,6840.0,(203) 966-1009,1
Coconuts Caribbean Restaurant & Bar,642 Ramona St,Palo Alto ,CA,94301.0,(650) 329-9533,Coconuts Caribbean Restaurant & Bar,642 Ramona St,Palo Alto,CA,94301.0,(650) 329-9533,1
LB Steak,898 Santa Cruz Ave,Menlo Park ,CA,94025.0,(650) 321-8980,LB Steak,898 Santa Cruz Ave,Menlo Park,CA,94025.0,(650) 321-8980,1
The Counter,41 W Hillsdale Blvd,San Mateo ,CA,94403.0,(650) 212-3200,The Counter - San Mateo,41 W Hillsdale Blvd,San Mateo,CA,94403.0,(650) 212-3200,1
Siam Royal Authentic Thai Cuisine,338 University Ave,Palo Alto ,CA,94301.0,(650) 329-8129,Siam Royal Authentic Thai Cuisine,338 University Ave,Palo Alto,CA,94301.0,(650) 329-8129,1
Ristorante Lucia,454 Old Post Rd,Bedford ,NY,10506.0,(914) 234-7600,Ristorante Lucia,454 Old Post Rd,Bedford,NY,10506.0,(914) 234-7600,1
Urasawa Restaurant,218 N Rodeo Dr,Beverly Hills ,CA,90210.0,(310) 247-8939,Urasawa,218 N Rodeo Dr,Beverly Hills,CA,90210.0,(310) 247-8939,1
Tarragon Restaurant,140 S Murphy Ave,Sunnyvale ,CA,94086.0,(408) 737-8003,Tarragon Restaurant,140 S Murphy Ave,Sunnyvale,CA,94086.0,(408) 737-8003,1
Starbucks Coffee,2952 N Beverly Glen Cir,Los Angeles ,CA,90077.0,(310) 470-8121,Starbucks,2952 N Beverly Glen Cir,Los Angeles,CA,90077.0,(310) 470-8121,1
The Breakers,1 S County Rd,Palm Beach ,FL,33480.0,(561) 655-6611,The Circle At The Breakers,1 S County Rd,Palm Beach,FL,33480.0,(855) 435-5744,1
Kim Tai Restaurant,2602 Fannin St,Houston ,TX,77002.0,(713) 652-0644,Kim Tai Restaurant,2602 Fannin St,Houston,TX,77002.0,(713) 652-0644,1
Stacks,600 Santa Cruz Ave,Menlo Park ,CA,94025.0,(650) 838-0066,Stacks,600 Santa Cruz Ave,Menlo Park,CA,94025.0,(650) 838-0066,1
Round Table Pizza,1225 El Camino Real,Menlo Park ,CA,94025.0,(650) 321-6861,Round Table Pizza,1225 El Camino Real,Menlo Park,CA,94025.0,(650) 321-6861,1
Shiok Singapore Kitchen,1137 Chestnut St,Menlo Park ,CA,94025.0,(650) 838-9448,Shiok Singapore Kitchen,1137 Chestnut St,Menlo Park,CA,94025.0,(650) 838-9448,1
The Capital Grille,9005 Mercato Dr,Naples ,FL,34108.0,(239) 254-0640,The Capital Grille,9005 Mercato Dr,Naples,FL,34108.0,(239) 254-0640,1
BreadBar,10250 Santa Monica Blvd,Los Angeles ,CA,90067.0,(310) 277-3770,BreadBar,10250 Santa Monica Blvd,Los Angeles,CA,90067.0,(310) 277-3770,1
Pranzo,34 Water St,New York ,NY,10004.0,(212) 344-8068,Pranzo,34 Water St,New York,NY,10004.0,(212) 344-8068,1
House of Egg Roll,1686 Lafayette St,Santa Clara ,CA,95050.0,(408) 246-6849,House of Egg Roll,1686 Lafayette St,Santa Clara,CA,95050.0,(408) 246-6849,1
Munsey Park Bagels,1661 Northern Blvd,Manhasset ,NY,11030.0,(516) 869-8077,Munsey Park Bagels,1661 Northern Blvd,Manhasset,NY,11030.0,(516) 869-8077,1
Olive Garden Italian Restaurant,5945 20th St,Vero Beach ,FL,32966.0,(772) 494-1391,Olive Garden Italian Restaurant,5995 20th Street,Vero Beach,FL,32966.0,(772) 567-3223,1
Jing-Jing Szechwan Hunan Gourmet,443 Emerson St,Palo Alto ,CA,94301.0,(650) 328-6885,Jing-Jing Szechwan Hunan Gourmet,443 Emerson St,Palo Alto,CA,94301.0,(650) 328-6885,1
Trevi Ristorante,11 Taylor Sq,West Harrison ,NY,10604.0,(914) 949-5810,Trevi Ristorante,11 Taylor Sq,West Harrison,NY,10604.0,(914) 949-5810,1
Jing-Jing Szechwan Hunan Gourmet,443 Emerson St,Palo Alto ,CA,94301.0,(650) 328-6885,Jing-Jing Szechwan Hunan Gourmet,443 Emerson St,Palo Alto,CA,94301.0,(650) 328-6885,1
Siam Royal Authentic Thai Cuisine,338 University Ave,Palo Alto ,CA,94301.0,(650) 329-8129,Siam Royal Authentic Thai Cuisine,338 University Ave,Palo Alto,CA,94301.0,(650) 329-8129,1
Arte Ristorante,473 University Ave,Palo Alto ,CA,94301.0,(650) 329-8300,Arte Ristorante,473 University Ave,Palo Alto,CA,94301.0,(650) 329-8300,1
Everyday Beijing,637 S B St,San Mateo ,CA,94401.0,(650) 373-7878,Everyday Beijing,637 S B St,San Mateo,CA,94401.0,(650) 373-7878,1
Parkside Grille,884 Portola Rd Ste A1,Portola Valley ,CA,94028.0,(650) 529-9007,Parkside Grille,884 Portola Rd,Portola Valley,CA,94028.0,(650) 529-9007,1
Choice Saint Louis,7807 Clayton Rd,Saint Louis ,MO,63105.0,(314) 932-1230,Choice Saint Louis,7807 Clayton Rd,Clayton,MO,63105.0,(314) 932-1230,1
India House,1 Hanover Sq,New York ,NY,10004.0,(212) 269-2323,Blue Bar At India House,1 Hanover Square,New York,NY,10004.0,(212) 269-2323,1
First Watch Restaurant,8001 Forsyth Blvd,Saint Louis ,MO,63105.0,(314) 863-7330,First Watch,8001 Forsyth Blvd.,Clayton,MO,63105.0,(314) 863-7330,1
Choice Saint Louis,7807 Clayton Rd,Saint Louis ,MO,63105.0,(314) 932-1230,Choice Saint Louis,7807 Clayton Rd,Clayton,MO,63105.0,(314) 932-1230,1
Cafe Bliss,2039 Ralston Ave,Belmont ,CA,94002.0,(650) 595-1520,Cafe Bliss,2039 Ralston Ave,Belmont,CA,94002.0,(650) 595-1520,1
North Star Restaurant,85 Westchester Ave,Pound Ridge ,NY,10576.0,(914) 764-0200,North Star Restaurant,85 Westchester Ave,Pound Ridge,NY,10576.0,(914) 764-0200,1
Chantilly Restaurant,3001 El Camino Real,Redwood City ,CA,94061.0,(650) 321-4080,Chantilly Restaurant,3001 El Camino Real,Redwood City,CA,94061.0,(650) 321-4080,1
Woodside Delicatessen,1453 Woodside Rd,Redwood City ,CA,94061.0,(650) 369-4235,Woodside Delicatessen,1453 Woodside Rd,Redwood City,CA,94061.0,(650) 369-4235,1
The Original Pancake House,160 S Rancho Santa Fe Rd,Encinitas ,CA,92024.0,(760) 943-1939,The Original Pancake House,160 S Rancho Santa Fe Rd,Encinitas,CA,92024.0,(760) 943-1939,1
Bedford Gourmet,652 Old Post Rd,Bedford ,NY,10506.0,(914) 234-9409,Bedford Gourmet,460 Old Post Rd,Bedford,NY,10506.0,(914) 234-9409,1
Chappaqua Restaurant & Cafe,10 S Greeley Ave,Chappaqua ,NY,10514.0,(914) 238-3869,Chappaqua Restaurant & Cafe,10 S Greeley Ave,Chappaqua,NY,10514.0,(914) 238-3869,1
Topgolf San Antonio,5539 North Loop 1604 W,San Antonio ,TX,78257.0,(210) 641-1303,Topgolf,5539 North Loop 1604 W,San Antonio,TX,78257.0,(210) 202-2694,1
Panevino Ristorante Inc,8853 Tamiami Trl N,Naples ,FL,34108.0,(239) 514-8655,Panevino Ristorante,8853  N TAMIAMI TRAIL,Naples,FL,34108.0,(239) 514-8655,1
Grill,280 Vanderbilt Beach Rd,Naples ,FL,34108.0,(239) 598-6644,The Grill,280 Vanderbilt Beach Rd.,Naples,FL,34108.0,(239) 598-6644,1
801 Chophouse,137 Carondelet Plz,Saint Louis ,MO,63105.0,(314) 875-9900,801 Chophouse St. Louis,137 Carondelet Plz,Saint Louis,MO,63105.0,(314) 875-9900,1
Century Grill,1901 Avenue Of The Stars Ste A1,Los Angeles ,CA,90067.0,(310) 553-6650,Century Grill,1901 Avenue of the Stars,Los Angeles,CA,90067.0,(310) 553-6650,1
Avanzare Ristorante,1932 14th Ave,Vero Beach ,FL,32960.0,(772) 978-9789,Avanzare Ristorante,1932 14th Ave,Vero Beach,FL,32960.0,(772) 978-9789,1
Iberia Restaurant,1026 Alma St,Menlo Park ,CA,94025.0,(650) 325-8981,Iberia Restaurant,1026 Alma St,Menlo Park,CA,94025.0,(650) 325-8981,1
CLEMATIS PIZZA,523 Clematis St,West Palm Beach ,FL,33401.0,(561) 655-6656,Clematis Pizza,523 Clematis St,West Palm Beach,FL,33401.0,(561) 655-6656,1
South Beach Pizzeria,1621 Ocean Dr,Vero Beach ,FL,32963.0,(772) 231-1110,South Beach Pizzeria,1621 Ocean Dr,Vero Beach,FL,32963.0,(772) 231-1110,1
The Cheesecake Factory,701 S Rosemary Ave,West Palm Beach ,FL,33401.0,(561) 802-3838,The Cheesecake Factory,701 South Rosemary Avenue,West Palm Beach,FL,33401.0,(561) 802-3838,1
Inn At Pound Ridge,258 Westchester Ave,Pound Ridge ,NY,10576.0,(914) 764-1400,The Inn At Pound Ridge,258 Westchester Ave,Pound Ridge,NY,10576.0,(914) 764-1400,1
The Horse & Hound,94 Spring St,South Salem ,NY,10590.0,(914) 763-3108,The Horse & Hound,94 Spring St,South Salem,NY,10590.0,(914) 763-3108,1
El Grullense E & E,999 El Camino Real,Redwood City ,CA,94063.0,(650) 568-3242,El Grullense E & E,2401 Middlefield Rd,Redwood City,CA,94063.0,(650) 369-9013,1
Osteria - Palo Alto,247 Hamilton Ave,Palo Alto ,CA,94301.0,(650) 328-5700,Osteria,247 Hamilton Ave,Palo Alto,CA,94301.0,(650) 328-5700,1
The Ravioli House,505 S B St,San Mateo ,CA,94401.0,(650) 344-7433,The Ravioli House,505 S B St,San Mateo,CA,94401.0,(650) 344-7433,1
Starbucks Coffee,3500 Peachtree Rd NE,Atlanta ,GA,30326.0,(404) 949-5971,Starbucks,3500 Peachtree Rd NE,Atlanta,GA,30326.0,(404) 949-5971,1
Nola Restaurant & Bar,535 Ramona St,Palo Alto ,CA,94301.0,(650) 328-2722,NOLA Restaurant & Bar,535 Ramona St,Palo Alto,CA,94301.0,(650) 328-2722,1
The Counter,9110 Strada Pl Ste 6130,Naples ,FL,34108.0,(239) 566-0644,The Counter,9110 Strada Place,Naples,FL,34108.0,(239) 566-0644,1
Va Bene,15900 La Cantera Pkwy,San Antonio ,TX,78256.0,(210) 641-1511,Va Bene,15900 Cantera Pkwy,San Antonio,TX,78256.0,(210) 641-1511,1
Crouching Tiger Restaurant,2644 Broadway St,Redwood City ,CA,94063.0,(650) 298-8881,Crouching Tiger Restaurant,2644 Broadway St,Redwood City,CA,94063.0,(650) 298-8881,1
House Of Peking,846 Sheridan Rd,Highwood ,IL,60040.0,(847) 432-8117,House of Peking,846 Sheridan Rd,Highwood,IL,60040.0,(847) 432-8117,1
Stone Werks Big Rock Grille,5807 Worth Pkwy,San Antonio ,TX,78257.0,(210) 558-9898,Stone Werks Big Rock Grille,5807 Worth Pkwy,San Antonio,TX,78257.0,(210) 558-9898,1
NoMI,800 N Michigan Ave (Park Hyatt Hotel),Chicago ,IL,60611.0,(312) 239-4030,Nomi Lounge,800 N Michigan Ave,Chicago,IL,60611.0,(312) 239-4030,1
La Madeleine,628 Northpark Ctr,Dallas ,TX,75225.0,(214) 696-2398,La Madeleine,University Park,8319 Preston Rd,,75225.0,Phone number,1
Katana Sushi & Sake,411 E El Camino Real,Sunnyvale ,CA,94087.0,(408) 746-3000,Katana Sushi & Sake,411 E El Camino Real,Sunnyvale,CA,94087.0,(408) 746-3000,1
Round Table Pizza,1225 El Camino Real,Menlo Park ,CA,94025.0,(650) 321-6861,Round Table Pizza,1225 El Camino Real,Menlo Park,CA,94025.0,(650) 321-6861,1
Tasty Indian Pizza,528 Lawrence Expy,Sunnyvale ,CA,94085.0,(408) 738-8761,Tasty Indian Pizza,528 Lawrence Expy,Sunnyvale,CA,94085.0,(408) 642-7672,1
Cipollini,2110C Northern Blvd,Manhasset ,NY,11030.0,(516) 627-7172,Cipollini Restaurant,"2110 Northern Blvd, Ste C",Manhasset,NY,11030.0,(516) 627-7172,1
Subway,23535 W Interstate 10,San Antonio ,TX,78257.0,(210) 698-3696,Subway,23535 W Ih 10,San Antonio,TX,78257.0,(210) 698-3696,1
LB Steak,898 Santa Cruz Ave,Menlo Park ,CA,94025.0,(650) 321-8980,LB Steak,898 Santa Cruz Ave,Menlo Park,CA,94025.0,(650) 321-8980,1
Lighthouse Restaurant,9180 Gulf Shore Dr,Naples ,FL,34108.0,(239) 597-2551,Lighthouse Restaurant,9180 Gulf Shore Dr,Naples,FL,34108.0,(239) 597-2551,1
Iberia Restaurant,1026 Alma St,Menlo Park ,CA,94025.0,(650) 325-8981,Iberia Restaurant,1026 Alma St,Menlo Park,CA,94025.0,(650) 325-8981,1
Left Bank Menlo Park Brasserie,635 Santa Cruz Ave,Menlo Park ,CA,94025.0,(650) 473-6543,Left Bank Menlo Park Brasserie,635 Santa Cruz Ave,Menlo Park,CA,94025.0,(650) 473-6543,1
Au Bon Pain,300 Community Dr,Manhasset ,NY,11030.0,(516) 365-7057,Au Bon Pain,300 Community Dr,Manhasset,NY,11030.0,(516) 365-7057,1
Chantilly Restaurant,3001 El Camino Real,Redwood City ,CA,94061.0,(650) 321-4080,Chantilly Restaurant,3001 El Camino Real,Redwood City,CA,94061.0,(650) 321-4080,1
J & J Hawaiian BBQ,1170 Alma St,Menlo Park ,CA,94025.0,(650) 323-6137,J & J Hawaiian BBQ,1170 Alma St,Menlo Park,CA,94025.0,(650) 323-6137,1
Jing-Jing Szechwan Hunan Gourmet,443 Emerson St,Palo Alto ,CA,94301.0,(650) 328-6885,Jing-Jing Szechwan Hunan Gourmet,443 Emerson St,Palo Alto,CA,94301.0,(650) 328-6885,1
Gombei Japanese Restaurant,1438 El Camino Real,Menlo Park ,CA,94025.0,(650) 329-1799,Gombei Japanese Restaurant,1438 El Camino Real,Menlo Park,CA,94025.0,(650) 329-1799,1
Truck,391 Old Post Rd,Bedford ,NY,10506.0,(914) 234-8900,TRUCK,391 Old Post Rd,Bedford,NY,10506.0,(914) 234-8900,1
Thaibodia,910 Woodside Rd,Redwood City ,CA,94061.0,(650) 365-2288,Thaibodia,910 Woodside Rd,Redwood City,CA,94061.0,(650) 365-2288,1
Pei Wei,8885 Ladue Rd,Saint Louis ,MO,63124.0,(314) 656-5980,Pei Wei,8885 Ladue Road,Saint Louis,MO,63124.0,(314) 656-5980,1
Famous Wok,2200 Northwoods Mall,Peoria ,IL,61613.0,(309) 686-0663,Piggie Pies Pizza & Pasta,5315 Greenville Ave,Dallas,TX,75206.0,(214) 821-6465,0
Round Table Pizza,,,,,,Joint Effort Chiropractic,222 Westchester Ave,White Plains,NY,10604.0,(914) 368-7668,0
Haynes On Main,108 S Main St,Mackinaw ,IL,61755.0,(309) 359-6246,Nail Passion,5201 Tamiami Trl N,Naples,FL,34103.0,(239) 261-1998,0
Mad Dog & Beans,83 Pearl St,New York ,NY,10004.0,(212) 269-1177,Catamaran Park,Catamaran & Shell Blvd,San Mateo,CA,94404.0,,0
Nino's Cafe,1006 Easter Lily Ln,Vero Beach ,FL,32963.0,(772) 231-9311,Vibrato Grill Jazz,2930 N Beverly Glen Cir,Los Angeles,CA,90077.0,(310) 474-9400,0
Round Table Pizza,1225 El Camino Real,Menlo Park ,CA,94025.0,(650) 321-6861,Gordon Biersch Brewery Restaurant,8060 Park Ln,Dallas,TX,75231.0,(214) 369-2739,0
El Chalateco,2323 The Alameda,Santa Clara ,CA,95050.0,(408) 243-1357,Leonidas,3 Hanover Sq,New York,NY,10004.0,(212) 422-9600,0
Olive Garden Italian Restaurant,,,,,,Wolfe Construction,Serving Sunnyvale and the Surrounding Area,Phone number,,,,0
Vault 164,164 S B St,San Mateo ,CA,94401.0,(650) 348-8164,Bazille,8687 N Central Expy,Dallas,TX,75225.0,(214) 231-3819,0
Chevys Fresh Mex,2907 El Camino Real,Redwood City ,CA,94061.0,(650) 367-6892,Julia Ideson Building,500 McKinney St,Houston,TX,77002.0,(713) 660-0772,0
La Fortuna Restaurant,6 State St,Danbury ,CT,6810.0,(203) 797-0909,Starbucks,8411 Preston Rd,Dallas,TX,75225.0,(214) 987-3291,0
Panini Cafe,9601 Santa Monica Blvd,Beverly Hills ,CA,90210.0,(310) 247-8300,Di Mare Vero Beach,1517 Ocean Dr,Vero Beach,FL,32963.0,(772) 234-2809,0
T & L Hot Dogs,614 Rosebud Plz,Clarksburg ,WV,26301.0,(304) 622-3404,San Mateo Center for Cosmetic Dentistry - Dr. Michael Wong,256 N San Mateo Dr,San Mateo,CA,94401.0,(650) 342-9016,0
Olive Garden Italian Restaurant,,,,,,Cosmos Roofing,Serving Palo Alto and the Surrounding Area,Phone number,,,,0
Roadside Grill,3130 Alpine Rd,Portola Valley ,CA,94028.0,(650) 600-8046,Olectric,Serving Reno and the Surrounding Area,Phone number,,,,0
The Mad Crab,348 Warrenton Rd,Fredericksburg ,VA,22405.0,(540) 899-2722,"Priya Setty, DDS",223 W Jackson Blvd,Chicago,IL,60606.0,(312) 880-1400,0
Jade Lee Kitchen,96 Franklin Rd,Fitchburg ,MA,1420.0,(978) 343-8249,Cuppencake,22211 IH 10 W,San Antonio,TX,78257.0,(210) 892-3010,0
BLT Steak White Plains,221 Main St,White Plains ,NY,10601.0,(914) 467-5500,Neil Adams Construction,Serving Reno and the Surrounding Area,Phone number,,,,0
Gourmet To Go,9828 Clayton Rd,Saint Louis ,MO,63124.0,(314) 993-5442,Big Apple Pizza,2311 S 35th St,Fort Pierce,FL,34981.0,(772) 466-8303,0
El Grullense Grill,768 Woodside Rd,Redwood City ,CA,94061.0,(650) 368-3325,Walkow Orthodontics + Pediatric Dentistry,360 San Miguel Dr,Newport Beach,CA,92660.0,(949) 644-1281,0
Chun Gee Wa,1203 Kirkwood Hwy,Wilmington ,DE,19805.0,(302) 998-4340,Panini Cafe Corona Del Mar,2333 E Coast Hwy,Corona Del Mar,CA,92625.0,(949) 675-8101,0
Burger King,620 SE 36th St,Newton ,KS,67114.0,(316) 282-9269,Fumare Meats & Deli,131 N Clinton St,Chicago,IL,60661.0,(312) 930-4220,0
Una Mas,683 Santa Cruz Ave,Menlo Park ,CA,94025.0,(650) 853-1200,Carpaccio,1120 Crane St,Menlo Park,CA,94025.0,(650) 322-1211,0
Poor Gary's Pizza,427 Chestnut St,Virginia ,MN,55792.0,(218) 741-8232,LongHorn Steakhouse,5803 N Loop 1604 W,San Antonio,TX,78249.0,(210) 696-4025,0
Good Fortune Cafe Restaurant,235 Kentlands Blvd,Gaithersburg ,MD,20878.0,(301) 216-2828,Village Cobbler,913 Villa Avenue,Belmont,CA,94002.0,(650) 591-8090,0
Sportsman's Park Restaurant,9901 Clayton Rd,Saint Louis ,MO,63124.0,(314) 991-3381,Van Loveren Roger,6 Spruce Pond Ln,Bedford,NY,10506.0,(914) 234-7823,0
Straight 8 Bar,594 US Highway 8,Amery ,WI,54001.0,(715) 268-8926,Pho Kitchen,8687 N Central Expressway,Dallas,TX,75225.0,(214) 706-3595,0
Black Bear Diner,6699 Highway 169,Tower ,MN,55790.0,(218) 749-2460,Beverly Hills Cardiology,2080 Century Park E,Los Angeles,CA,90067.0,(310) 858-6500,0
County Seat Saloon & Steakhouse,439 N 7th St,Barron ,WI,54812.0,(715) 637-1890,Burlingame Independent,850 S Amphlett Blvd,San Mateo,CA,94402.0,(650) 342-5889,0
Ramen Parlor,901 S B St,San Mateo ,CA,94401.0,(650) 344-9728,Lightning Press,1085 Memorex Dr,Santa Clara,CA,95050.0,(408) 243-6253,0
Crescent Hotel Cafe,403 N Crescent Dr,Beverly Hills ,CA,90210.0,(310) 247-0505,Saks Fifth Avenue OFF 5th,5819 Worth Pkwy,San Antonio,TX,78257.0,(210) 641-8299,0
King House Buffet,122 Broadway N,Fargo ,ND,58102.0,(701) 271-8989,Burlingame Independent,850 S Amphlett Blvd,San Mateo,CA,94402.0,(650) 342-5889,0
Uva,1040 2nd Street Pike,Richboro ,PA,18954.0,(215) 355-4454,The Law Office of Liora Moreh,1875 Century Park E,Los Angeles,CA,90067.0,(424) 488-3068,0
Casablanca Morracan Restaurant,111 Easton Rd,Warrington ,PA,18976.0,(215) 343-7715,Fox Communication,3 Harbor Rd,Cold Spring Harbor,NY,11724.0,(631) 659-3442,0
AAA Coney Island,9853 Tamiami Trl N Ste 106,Naples ,FL,34108.0,(239) 593-5195,Lululemon Athletica,1950 Northern Blvd,Manhasset,NY,11030.0,(516) 627-1514,0
John P Fields Restaurant,26 N Central Ave,Saint Louis ,MO,63105.0,(314) 862-1886,"Elina Brusilovsky, CPA",950 Tower Ln,Foster City,CA,94404.0,(650) 837-9898,0
China Wok,114 New River Town Ctr,Beckley ,WV,25801.0,(304) 252-2168,Stacy Park,Olivette,9750 Old Bonhomme Rd,,63132.0,Phone number,0
Evvia Estiatorio,420 Emerson St,Palo Alto ,CA,94301.0,(650) 326-0983,Project Pie,6030 Luther Ln,Dallas,TX,75225.0,(469) 547-1257,0
Plaza Seafood Of Rockville Center,140 gardeners avenue levitown newyork1576,Rockville Centre ,NY,11570.0,(516) 678-3008,Precision Builders,Serving Mountain View and the Surrounding Area,Phone number,,,,0
Tiny's Restaurant,2 Groton School Rd,Ayer ,MA,1432.0,(978) 772-2917,Great Clips,929 E Hillsdale Blvd,Foster City,CA,94404.0,(650) 522-8433,0
A M Donut & Croissants,425 Interstate 20 E,Baird ,TX,79504.0,(325) 854-9999,The Crust Pizza,875 Vanderbilt Beach Rd,Naples,FL,34108.0,(239) 244-8488,0
Polo Steakhouse,155 Hammon Ave,Palm Beach ,FL,33480.0,(561) 655-5430,Automotive Buying Specialist,734 Niantic Dr,Foster City,CA,94404.0,(650) 520-9884,0
All-American BBQ & Picnic Co.,,Palo Alto ,CA,94301.0,(650) 326-4663,Tajin,85 Greenwich St,New York,NY,10006.0,(212) 509-5017,0
King's New York,499 Rosebud Plz,Clarksburg ,WV,26301.0,(304) 326-0080,The Cheesecake Factory,1062 St Louis Galleria,Saint Louis,MO,63117.0,(314) 721-0505,0
Bobby Simon's,52 E State St # K,Doylestown ,PA,18901.0,(215) 340-1414,Palmer Course at La Cantera,17865 Babcock Rd,San Antonio,TX,78255.0,(210) 558-2365,0
The New Taiwan Buffet,"1221 N Grand Ave, Gainesville TX, 76240",Gainesville ,TX,76240.0,(940) 665-8919,La Nasa Laura Phd,3 Harbor Rd,Cold Spring Harbor,NY,11724.0,(631) 659-3711,0
Olive Garden Italian Restaurant,,,,,,The Grill,280 Vanderbilt Beach Rd.,Naples,FL,34108.0,(239) 598-6644,0
Campespre Mexican Restaurant II,1914 Harper Rd,Beckley ,WV,25801.0,(304) 255-1181,Gusto,619 Laurel St,San Carlos,CA,94070.0,(650) 591-5700,0
Marks American Cuisine,1658 Westheimer Rd,Houston ,TX,77006.0,(713) 523-3800,Brighter Minds Tutoring,Serving Beverly Hills and the Surrounding Area,Phone number,,90210.0,,0
Rincon Tarasco,3200 Middlefield Rd,Menlo Park ,CA,94025.0,(650) 216-9212,Sofrito,175 Main Street,White Plains,NY,10601.0,(914) 428-5500,0
Damian's Cucina Italiana,,Houston ,TX,77027.0,(713) 522-0439,Sushi Bar Yu-ka,3330 Piedmont Rd NE,Atlanta,GA,30305.0,(404) 233-6700,0
Porretta's Banquets & Catering,3718 N Central Ave,Chicago ,IL,60634.0,(773) 219-0439,Split Step Tennis,"Foster City, CA 94404",Phone number,,94404.0,,0
The Smokin Cantina,1017 N Hwy 377,Pilot Point ,TX,76258.0,(940) 202-2100,Le French Park Ave Cleaners Inc,573 Plandome Rd,Manhasset,NY,11030.0,(516) 627-0500,0
El Palenque Taqueria,15 N Kingston St,San Mateo ,CA,94401.0,(650) 342-4040,Sushi Nanase,522 Mamaroneck Ave,White Plains,NY,10605.0,(914) 285-5351,0
Bay Cafe Restaurant & Banquets,1875 Embarcadero Rd,Palo Alto ,CA,94303.0,(650) 600-3454,Jorquera Sarah,460 Old Post Rd,Bedford,NY,10506.0,(914) 234-4720,0
The Colony,155 Hammon Ave,Palm Beach ,FL,33480.0,(561) 655-5431,Wendy S Closet,621 Old Post Rd,Bedford,NY,10506.0,(914) 234-7242,0
Tijuana Mexican Grill,37 S Moger Ave,Mount Kisco ,NY,10549.0,(914) 218-8510,Heirlooms,495 Lagunita Dr,Stanford,CA,94305.0,(650) 725-2098,0
Angelicas,863 Main St,Redwood City ,CA,94063.0,(650) 679-8184,The Peninsula Beverly Hills,9882 S Santa Monica Blvd,Beverly Hills,CA,90212.0,(310) 551-2888,0
Doghouse Deli,637 Washington St,Eden ,NC,27288.0,(336) 612-2763,Kim Tai Restaurant,2602 Fannin St,Houston,TX,77002.0,(713) 652-0644,0
Ritz-Carlton Golf Resort,280 Vanderbilt Beach Rd,Naples ,FL,34108.0,(239) 593-2000,Coral Tree Express,10250 Santa Monica Blvd,Los Angeles,CA,90067.0,(310) 553-8733,0
Pappasito's Cantina,7050 Fm 1960 Rd W,Houston ,TX,77069.0,(281) 893-5030,Hendrickx Belgian Bread Crafter,100 E Walton St,Chicago,IL,60611.0,(312) 649-6717,0
Applewood,989 El Camino Real,Menlo Park ,CA,94025.0,(650) 328-1556,Joint Effort Chiropractic,222 Westchester Ave,White Plains,NY,10604.0,(914) 368-7668,0
Timbers Edge Grill & Bar,HIGHWAY 53 & Cnty Rd 16,Eveleth ,MN,55734.0,(218) 744-2627,Stone Street Tavern,52 Stone St,New York,NY,10004.0,(212) 785-5658,0
Lahmacun Pizzeria Medtrranean,35 Laurie Meadows Dr,San Mateo ,CA,94403.0,(650) 574-0107,Cold Spring Harbor,3 Harbor Rd Ste B,Cold Spring Harbor,NY,11724.0,(631) 367-1206,0
The Bagel Restaurant & Deli,3107 N Broadway St,Chicago ,IL,60657.0,(773) 997-2333,Bean Scene,186 S Murphy Ave,Sunnyvale,CA,94086.0,(408) 738-4523,0
Harry's Seafood Grill,1 S Orange St,Wilmington ,DE,19801.0,(302) 777-1500,Ranch at The Rim,18007 W Ih 10,San Antonio,TX,78257.0,(210) 319-3001,0
Vermilion Motel,320 S Highway 53,Cook ,MN,55723.0,(218) 666-2272,Lux Beauty Bar,16085 San Dieguito Rd,Rancho Santa Fe,CA,92014.0,(858) 756-2220,0
Ginny's Restaurant,1026 Main St,Berlin ,PA,15530.0,(814) 267-3033,Clubhouse Bistro,1221 Chess Dr,Foster City,CA,94404.0,(650) 570-5700,0
Olde Towne Bar & Grille,410 Locust St,Delavan ,IL,61734.0,(309) 244-9488,Lomas Santa Fe Executive Golf Course,1580 Sun Valley Road,Solana Beach,,,(858) 755-0195,0
Big Skennys,1173 W El Camino Real Ste 2,Sunnyvale ,CA,94087.0,(408) 462-9533,Serenity Day Spa,1900 El Camino Real,Atherton,CA,94027.0,(650) 838-0111,0
The Willows Restaurant,920 Oakridge Cmns,South Salem ,NY,10590.0,(914) 533-5100,ShopHouse,1059 Broxton Ave,Los Angeles,CA,90024.0,(424) 442-1171,0
Every Ting Nice Catering Service,,,,,(617) 780-6386,Chung Tai Zen Center,750 E Arques Ave,Sunnyvale,CA,94085.0,(408) 733-0750,0
Jan's Family Restaurant,407 Hudson St,Three Springs ,PA,17264.0,(814) 448-3918,Empire Carpet Care,Serving Sparks and the Surrounding Area,Phone number,,,,0
Top's Diner,"Mill Creek, 17060",Mill Creek ,PA,17060.0,(814) 643-4169,Le Pain Quotidien - Beverly Hills,9630 S Santa Monica Blvd,Beverly Hills,CA,90210.0,(310) 859-1100,0
Linda's Little General,6453 Raystown Rd,Hopewell ,PA,16650.0,(814) 928-5330,G Lynette Sargentini,859 Oak Grove Ave,Menlo Park,CA,94025.0,(650) 468-4450,0
Hoagies,1114 E Voorhees St,Danville ,IL,61832.0,(217) 431-8660,Ron Blacks Beer Hall,181 Mamaroneck Ave,White Plains,NY,10601.0,(914) 358-5811,0
Ann's Coffee Shop,772 Santa Cruz Ave,Menlo Park ,CA,94025.0,(650) 322-0043,Craft,10100 Constellation Blvd,Los Angeles,CA,90067.0,(310) 279-4180,0
Perkins Restaurant & Bakery,167 Post House Rd,Breezewood ,PA,15533.0,(814) 735-4076,Bagel Street Cafe,746 Santa Cruz Ave,Menlo Park,CA,94025.0,(650) 328-8809,0
New Millenium Seafood Inc,200 S Service Rd Ste 207,Roslyn Heights ,NY,11577.0,(516) 626-2300,Nomi Lounge,800 N Michigan Ave,Chicago,IL,60611.0,(312) 239-4030,0
Traditions Restaurant,2329 Curryville Rd,Martinsburg ,PA,16662.0,(814) 793-1234,Old Europe Bistro,2464 Vanderbilt Beach Rd,Naples,FL,34109.0,(239) 254-9690,0
Panera Bread,2001 Indian River Blvd,Vero Beach ,FL,32960.0,(772) 794-0188,Lake Forest Food & Wine Specialties,272 E Deerpath Rd,Lake Forest,IL,60045.0,(847) 234-0620,0
Perkins Restaurant & Bakery,2023 Cenex Dr,Rice Lake ,WI,54868.0,(715) 736-0282,Broadway Masala,2397 Broadway St,Redwood City,CA,94063.0,(650) 369-9000,0
The Stand,2000 Avenue Of The Stars,Los Angeles ,CA,90067.0,(310) 785-0400,Oasis Restaurant,5945 Greenville Ave,Dallas,TX,75206.0,(214) 361-8120,0
Simple Simon's Pizza,512 E Highway 62,Verden ,OK,73092.0,(405) 453-7007,Savvy Bike,61 Nueva Ave,Redwood City,CA,94061.0,(650) 773-3914,0
Brunetti's Express Restaurant,9167 Atlee Rd,Mechanicsville ,VA,23116.0,(804) 730-2339,Harbor Teachers Assn,Turkey Ln,Cold Spring Harbor,NY,11724.0,(631) 367-4720,0
Edison's Ale House,550 Plandome Rd,Manhasset ,NY,11030.0,(516) 627-7722,Tomo Japanese Restaurant,3630 Peachtree Rd,Atlanta,GA,30326.0,(404) 835-2708,0
Hobees Restaurant,67 El Camino Real,Palo Alto ,CA,94301.0,(650) 327-4111,Gulfstream,10250 Santa Monica Blvd,Los Angeles,CA,90067.0,(310) 553-3636,0
Irma's Restaurant,22 N Chenevert St,Houston ,TX,77002.0,(713) 222-0767,The Point Park & Eats,24188 Boerne Stage Rd,San Antonio,TX,78255.0,(210) 251-3380,0
First Wok,382 2nd Street Pike,Southampton ,PA,18966.0,(215) 355-5518,Moffett Exchange Beauty Salon,Westcoast Rd,Moffett Field,CA,94035.0,(650) 603-9916,0
Peter Piper Pizza,120 S New Rd,Waco ,TX,76710.0,(254) 751-1212,Red Morton Community Park,1120 Roosevelt Ave,Redwood City,CA,94061.0,,0
Olive Garden Italian Restaurant,,,,,,Dent Discount Mobile,Serving San Jose and the Surrounding Area,Phone number,,,,0
NYC Bagel Deli,300 S Wacker Dr,Chicago ,IL,60606.0,(312) 922-7500,Wolfgang Puck Express,308 Westwood Plz,Los Angeles,CA,90095.0,(310) 825-3000,0
Shakers,267 Mineola Blvd,Mineola ,NY,11501.0,(516) 294-0441,Integral Chiropractic,951 Edgewater Blvd,Foster City,CA,94404.0,(650) 212-1414,0
Lorenzo's Trattoria,1933 Edwards St,Saint Louis ,MO,63110.0,(314) 773-2223,Near and Natural,1 Court Rd,Bedford,NY,10506.0,(914) 205-3545,0
Cobble Stone,620 Anderson Hill Rd,Purchase ,NY,10577.0,(914) 253-9678,Shanghai Flavor Shop,888 Old San Francisco Rd,Sunnyvale,CA,94086.0,(408) 738-3003,0
Desert Moon Cafe Inc,89 Oak Hill Rd,Chappaqua ,NY,10514.0,(914) 238-4812,Feast At Rieber,"Westwood, UCLA",310 de Neve Dr,,90049.0,Phone number,0
Katonah Restaurant,63 Katonah Ave,Katonah ,NY,10536.0,(914) 232-9241,DASH Japanese Tapas & Sushi,220 Main St,San Mateo,CA,94401.0,(650) 340-1508,0
Neapolitan,6 Celano Ct,Newport Coast ,CA,92657.0,(949) 499-4531,Makeup and Eyebrows by Kerry,2600 E Coast Hwy,Corona Del Mar,CA,92625.0,(818) 915-5676,0
Kendrick's Barbeque,1221 Pennsylvania Ave,Dallas ,TX,75215.0,(214) 565-5550,Stript Wax Bar,524 Bryant St,Palo Alto,CA,94301.0,(650) 323-2929,0
The Counter,41 W Hillsdale Blvd,San Mateo ,CA,94403.0,(650) 212-3200,Best 1 TV Repair,1900 Old Middlefield Way,Mountain View,CA,94043.0,(650) 965-9400,0
Bugger Burgers,,Millerton ,OK,74750.0,(580) 746-2899,Happy Choice Nails Ii Incorporated,22 Village Grn,Bedford,NY,10506.0,(914) 234-8000,0
Pappasito's Cantina,10433 Lombardy Ln,Dallas ,TX,75220.0,(214) 350-1970,Hanna House,737 Frenchmans Rd,Stanford,CA,94305.0,(650) 725-8352,0
Perkins Restaurant & Bakery,4319 W Swamp Rd,Doylestown ,PA,18902.0,(215) 348-2133,Total Wine & More,17530 La Cantera Pkwy,San Antonio,TX,78257.0,(210) 877-9155,0
Nico's Pizzeria,441 State St,Schenectady ,NY,12305.0,(518) 372-6024,MasterCard International,2000 Purchase Street,Purchase,NY,10577.0,(516) 358-9525,0
Bamboo Cuisine,14010 Ventura Blvd,Sherman Oaks ,CA,91423.0,(818) 788-0202,Wedding Salon of Manhasset,1468 Northern Blvd,Manhasset,NY,11030.0,(516) 869-8455,0
Iron Gate Restaurant,1360 El Camino Real,Belmont ,CA,94002.0,(650) 592-7893,Nico Osteria,1015 N Rush St,Chicago,IL,60611.0,(312) 994-7100,0
Ann's Coffee Shop,772 Santa Cruz Ave,Menlo Park ,CA,94025.0,(650) 322-0043,Pizzeria Due,619 N Wabash Ave,Chicago,IL,60611.0,(312) 943-2400,0
Skydive Deland Inc,1600 Flight Line Blvd,Deland ,FL,32724.0,(386) 738-3539,Panera Bread,7839 Park Ln,Dallas,TX,75225.0,(214) 692-1299,0
Thai Cuisine,914 Main St,Houston ,TX,77002.0,(713) 659-1600,Williams-Sonoma,271 Market Sq,Lake Forest,IL,60045.0,(847) 295-8453,0
Smashburger,4712 N University St,Peoria ,IL,61614.0,(309) 693-3700,World Cup Gymnastics,170 Hunts Ln,Chappaqua,NY,10514.0,(914) 238-4967,0
Mazzios Italian Eatery,632 N W 37th,Newcastle ,OK,73065.0,(405) 387-5550,The Peninsula Beverly Hills,9882 S Santa Monica Blvd,Beverly Hills,CA,90212.0,(310) 551-2888,0
Bellinis Italian Eatery,19 Clifton Country Rd Ste 1,Clifton Park ,NY,12065.0,(518) 348-2090,Bookasaurus,125 S Murphy Ave,Sunnyvale,CA,94086.0,(408) 733-1305,0
The River Roadhouse Inc,30573 State Route 9,Mackinaw ,IL,61755.0,(309) 359-3344,Frontera Grill,445 N Clark St,Chicago,IL,60654.0,(312) 661-1434,0
Trelawni Place Seafood Bar,1440 Utica Ave,Brooklyn ,NY,11203.0,(347) 779-2091,Sozai Corner,71 E 4th Ave,San Mateo,CA,94401.0,(650) 342-6748,0
China Wok,104 Nc 54 Ste C,Carrboro ,NC,27510.0,(919) 929-9988,Chatime,969A Edgewater Blvd,Foster City,CA,94404.0,(650) 393-4090,0
Big Momma Soul Foods,3611 W Harmon Hwy,Peoria ,IL,61604.0,(309) 713-3488,In-N-Out Burger,604 E El Camino Real,Sunnyvale,CA,94087.0,(800) 786-1000,0
Azteca Restaurant,125 E Main St Ste 2,Mount Kisco ,NY,10549.0,(914) 242-9313,Bruin Plate,"Westwood, UCLA",350 De Neve Dr,,90077.0,Phone number,0
Pita Pit,2401 E 10th St,Sioux Falls ,SD,57103.0,(605) 275-4755,Cisco Grill,6630 Snider Plz,Dallas,TX,75205.0,(214) 363-9506,0
Panera Bread,285 Kentlands Blvd,Gaithersburg ,MD,20878.0,(301) 926-0510,Auto Image Window Tinting,188 Old County Rd,Belmont,CA,94002.0,(650) 631-0559,0
Pizza Mark,330 Fisher St,Moran ,TX,76464.0,(325) 945-3663,Angelo Mio,820 Santa Cruz Ave,Menlo Park,CA,94025.0,(650) 323-3665,0
Summit Coffee,2137 Roosevelt Ave,Redwood City ,CA,94061.0,(650) 474-2210,LongHorn Steakhouse,5803 N Loop 1604 W,San Antonio,TX,78249.0,(210) 696-4025,0
LaGondola Spaghetti House,700 E War Memorial Dr,Peoria ,IL,61614.0,(309) 688-0800,Mehta Plastic Surgery,3351 El Camino Real,Atherton,CA,94027.0,(650) 363-1500,0
Brownfield's Dairy Barn,402 S Minier Ave,Minier ,IL,61759.0,(309) 392-2914,Douglas Andrew Gonzalez,Serving Menlo Park and the Surrounding Area,Phone number,,,,0
China Garden,260 Main St,White Plains ,NY,10601.0,(914) 686-1505,True Food Kitchen,"8383 Preston Ctr Plz, Ste 100",Dallas,TX,75225.0,(214) 377-3333,0
Yoyogi Sushi,328 Main St Ste 100,Gaithersburg ,MD,20878.0,(301) 963-0001,Cold Spring Harbor Fire Dept,2 Main St,Cold Spring Harbor,NY,11724.0,(631) 692-6772,0
Paganini Ristorante,81 W State St,Doylestown ,PA,18901.0,(215) 348-5922,Chicken Planet,177 W Van Buren St,Chicago,IL,60605.0,(312) 360-1409,0
Pope's Monica T'Afia,3701 Travis St,Houston ,TX,77002.0,(713) 524-6922,Mei Hua Chinese Restaurant,9626 Olive Blvd,Saint Louis,MO,63132.0,(314) 569-3575,0
Joy Restaurant,1489 Beach Park Blvd,Foster City ,CA,94404.0,(650) 345-1762,Original Tiki Bar,2 Ave A,Fort Pierce,FL,34950.0,(772) 461-0880,0
Nachitos Mexican Amer Grill,427 Highway 81,Minco ,OK,73059.0,(405) 352-5970,Middle East Bakery & Grocery,327 5th St,West Palm Beach,FL,33401.0,(561) 659-7322,0
Bangkok Chef,914 Main St,Houston ,TX,77002.0,(713) 659-1600,101 Collision Center,319 Brokaw Rd,Santa Clara,CA,95050.0,(408) 727-6811,0
Franco's Italian Restaurant,7225 Bell Creek Rd,Mechanicsville ,VA,23111.0,(804) 730-2220,Pawfection Pet Care,Serving Mountain View and the Surrounding Area,Phone number,,,,0
Sunco Enterprises,167 Post House Rd,Breezewood ,PA,15533.0,(814) 735-4076,Flying Biscuit,3280 Peachtree Rd NE,Atlanta,GA,30305.0,(404) 477-0013,0
Pizza Ranch,1504 Center Ave W,Dilworth ,MN,56529.0,(218) 287-6001,Emme Nailspa,17803 La Cantera Terrace,San Antonio,TX,78256.0,(210) 562-3643,0
Bistro,403 Village Way,Martinsburg ,PA,16662.0,(814) 793-5234,Enhanced Electrical Services Inc,Serving Reno and the Surrounding Area,Phone number,,,,0
CLEMATIS PIZZA,523 Clematis St,West Palm Beach ,FL,33401.0,(561) 655-6656,"Gregory Becker, DC",215 N San Mateo Dr,San Mateo,CA,94401.0,(650) 340-1110,0
Cassidy's Irish Pub & Restaurant,65 W 55th St,New York ,NY,10019.0,(201) 977-1797,Amigos Grill Cocina Mexicana Y Cantina,3130 Alpine Rd,Portola Valley,CA,94028.0,(650) 851-3997,0
Ben Lee's Cafe,2630 Broadway Ave,Slayton ,MN,56172.0,(507) 836-8805,Orphaned Objects,6525 Helen Woodward Way,Rancho Santa Fe,CA,92067.0,(858) 756-4117,0
Oceano Bistro,44 N Brentwood Blvd,Saint Louis ,MO,63105.0,(314) 721-9400,Life Time Fitness,5639 Worth Pkwy,San Antonio,TX,78257.0,(210) 222-1984,0
King House Buffet,122 Broadway N,Fargo ,ND,58102.0,(701) 271-8989,Formula,136 Long Ridge Rd,Bedford,NY,10506.0,(914) 234-9303,0
El Mezquite Taqueria,2323 The Alameda,Santa Clara ,CA,95050.0,(408) 243-1357,Peninsula BJJ Brazilian Jiu-Jitsu,1175 Chess Dr,Foster City,CA,94404.0,(650) 638-1795,0
Legends,3319 W Walker St,Breckenridge ,TX,76424.0,(254) 559-2779,Amber Dhara,150 University Ave,Palo Alto,CA,94301.0,(650) 329-9644,0
Boyd's Good Eats,256 Hill Top Ln,Salem ,WV,26426.0,(304) 782-9955,Osteria,247 Hamilton Ave,Palo Alto,CA,94301.0,(650) 328-5700,0
Hard Rock Cafe,451 Newport Center Dr,Newport Beach ,CA,92660.0,(949) 640-8844,Tin Fish Clematis,118 S Clematis St,West Palm Beach,FL,33401.0,(561) 223-2497,0
Redwood Shores,1111 Shoreway Rd,Belmont ,CA,94002.0,(650) 596-0400,Powell Septic Svce,442 Old Post Rd,Bedford,NY,10506.0,(914) 234-7455,0
Landmark Ii Cafe,100 N Field Dr,Lake Forest ,IL,60045.0,(847) 735-9332,Wraps On the Run,"San Mateo, CA 94404",Phone number,,,,0
Jimmy John's,3120 N. Vermilion St,Danville ,IL,61832.0,(217) 443-2863,"Jordan Geller, MD",2080 Century Park E,Los Angeles,CA,90067.0,(310) 277-1812,0
Peet's Coffee & Tea,3649 N Vermilion St,Danville ,IL,61832.0,(217) 442-2096,Chappaqua Electrical Contractors,Serving Chappaqua and the Surrounding Area,Phone number,,10514.0,,0
Pappas Burger,7800 Airport Blvd Space C14,Houston ,TX,77061.0,(281) 657-6168,Shabuway Japanese Style Hot Pot,145 E 3rd Ave,San Mateo,CA,94401.0,(650) 548-2483,0
Skytop Restaurant,,White Plains ,NY,10601.0,(914) 428-0251,"Odom Electric, Inc.",Serving Mountain View and the Surrounding Area,Phone number,,,,0
Marketplace Cafe - Nordstrom The Westchester,135 Westchester Ave,White Plains ,NY,10601.0,(914) 946-1122,Preferred Auto Repair,Serving Santa Clara and the Surrounding Area,Phone number,,,,0
Ryan's,1780 Carl D Silver Pkwy,Fredericksburg ,VA,22401.0,(540) 548-0051,Jorquera Sarah,460 Old Post Rd,Bedford,NY,10506.0,(914) 234-4720,0
Lahmacun Pizzeria Medtrranean,35 Laurie Meadows Dr,San Mateo ,CA,94403.0,(650) 574-0107,Prescriptions For Fitness,255 King St,Chappaqua,NY,10514.0,(914) 238-0500,0
Olive Garden Italian Restaurant,,,,,,Farmers Table,12 Forest St,New Canaan,CT,6840.0,(203) 594-7890,0
Paisano's Pizza,824 Muddy Branch Rd,Gaithersburg ,MD,20878.0,(301) 926-0100,Mykonos Restaurant,172 Plandome Rd,Manhasset,NY,11030.0,(516) 365-0113,0
Round Table Pizza,399 1st St,Los Altos ,CA,94022.0,(650) 941-0237,Bar On 4,9700 Wilshire Blvd,Beverly Hills,CA,90212.0,(310) 550-5900,0
Family House of Chapel Hill,7323 Crescent Ridge Dr,Chapel Hill ,NC,27516.0,(919) 968-9113,Charisma Salon,203 El Camino Real,Menlo Park,CA,94025.0,(650) 289-0711,0
Pamfila Restaurant INC,1006 Broadway,Thornwood ,NY,10594.0,(914) 747-2122,Main Movers,Serving Mountain View and the Surrounding Area,Phone number,,,,0
Augies Numero #1 Restaurant & Pizza,30 Germantown Rd,Danbury ,CT,6810.0,(203) 617-0646,Bacio,12 N Salem Rd,Cross River,NY,10518.0,(914) 763-2233,0
Lourdes Mexican Food,2113 San Elijo Ave,Cardiff By The Sea ,CA,92007.0,(760) 230-2610,The Grove,1611 Lamar St,Houston,TX,77010.0,(713) 337-7321,0
Kims,2600 W Waco Dr,Waco ,TX,76710.0,(254) 753-1118,Picks,4519 N Loop 1604 W,San Antonio,TX,78249.0,,0
Starbucks Coffee,100 S Wacker Dr Ste 100,Chicago ,IL,60606.0,(312) 759-5559,LB Steak,898 Santa Cruz Ave,Menlo Park,CA,94025.0,(650) 321-8980,0
Krause's Restaurant & Grove,2 Beach Rd,Clifton Park ,NY,12065.0,(518) 371-8033,The Salon Ltd,588 N Western Ave,Lake Forest,IL,60045.0,(847) 295-6565,0
Frank's Dixie Meat Center & Catering,636 Dixie Dr,Clute ,TX,77531.0,(979) 297-3449,Cliff Quality Cleaning,Serving Foster City and the Surrounding Area,Phone number,,94403.0,,0
Iron Works Barbeque,,,,,(512) 478-4856,Bedford Law Group,1925 Century Park E,Los Angeles,CA,90067.0,(310) 507-7900,0
Arigato Japanese Steak & Seafood House,1200 S Holden Rd,Greensboro ,NC,27407.0,(336) 299-1003,Pain Du Monde,561 Newport Ctr Dr,Newport Beach,CA,92660.0,(949) 644-4835,0
Lourdes Mexican Food,2113 San Elijo Ave,Cardiff By The Sea ,CA,92007.0,(760) 230-2610,Araras Coffee & More,406 C Mamaroneck Ave,White Plains,NY,10605.0,(914) 831-5439,0
Pappasito's Cantina,1600 Lamar St Hilton Americas,Houston ,TX,77010.0,(713) 353-4400,Top of the Market,1855 S Norfolk St,San Mateo,CA,94403.0,(650) 349-1845,0
Bledsoe's Diner,219 N Mississippi Ave,Atoka ,OK,74525.0,(580) 889-5139,Cafe Manhattan,511 S Hanley Rd,Saint Louis,MO,63105.0,(314) 863-5695,0
Peggy's Liberty Plaza Restaurant,3512 Liberty St,Erie ,PA,16508.0,(814) 866-3216,Aloha Maids,Serving Newport Beach and the Surrounding Area,Phone number,,92660.0,,0
Lombardo's Trattoria,,,,,(314) 621-0666,Baltica,33 W 25th Ave,San Mateo,CA,94403.0,(650) 525-1488,0
Fire Rock Pizza,1 N Clematis St,West Palm Beach ,FL,33401.0,(561) 837-9050,Oidon,71 E 4th Ave,San Mateo,CA,94401.0,(650) 342-6748,0
Mongolian Hot Pot & Grill,215 S Ellsworth Ave,San Mateo ,CA,94401.0,(650) 343-2566,Palm Sugar,340 Clematis St,West Palm Beach,FL,33401.0,(561) 820-9206,0
Sam's Hotdog Stand,2046 Harper Rd,Beckley ,WV,25801.0,(304) 253-9619,Hobby Lobby,17903 La Cantera Pkwy,San Antonio,TX,78257.0,(210) 561-5630,0
Three Seasons,518 Bryant St,Palo Alto ,CA,94301.0,(650) 838-0353,Patriot National Bank,432 Old Post Rd,Bedford,NY,10506.0,(914) 234-9780,0
Cafe Groppi,32 Water St,New York ,NY,10004.0,(212) 785-4321,Estetica Skin Care By Kasia,846 Oak Grove Ave,Menlo Park,CA,94025.0,(650) 326-2200,0
Pizza Hut,730 Linden Drive,Eden ,NC,27288.0,(336) 623-3333,Riverside Cafe,1 Beachland Blvd,Vero Beach,FL,32963.0,(772) 234-5550,0
Arby's,8860 Ladue Rd Ste 210,Saint Louis ,MO,63124.0,(314) 727-9701,Five Guys Burgers and Fries,1410 Pine Ridge Rd,Naples,FL,34109.0,(239) 261-5603,0
Lucky Chinese Restaurant Mountain View,1040 Grant Rd Ste 100,Mountain View ,CA,94040.0,(650) 988-8998,Salon Republic,9911 W Pico Blvd,Beverly Hills,CA,90035.0,(310) 277-8288,0
Anton's Restaurant,2001 Frontage Rd N,Saint Cloud ,MN,56301.0,(320) 227-2382,Dent Discount Mobile,Serving San Jose and the Surrounding Area,Phone number,,,,0
LongHorn Steakhouse,6750 Peach St,Erie ,PA,16509.0,(814) 866-7003,Coastal Peak Park,20403 E Coastal Peak,Newport Coast,CA,92657.0,,0
The Shanty,,Encinitas ,CA,92024.0,(760) 753-1548,Pedego - Corona Del Mar,Serving Corona Del Mar and the Surrounding Area,Phone number,,92660.0,,0
McCarty's,50 Cocoanut Row,Palm Beach ,FL,33480.0,(561) 659-1899,Koreana Beauty Salon,1998 Homestead Rd,Santa Clara,CA,95050.0,(408) 246-3300,0
Tamarind of London,7862 E Coast Hwy,Newport Coast ,CA,92657.0,(949) 715-8338,Lake Forest Health & Fitness Center,1200 N Westmoreland Rd,Lake Forest,IL,60045.0,(847) 535-7000,0
Pasta Pomodoro,490 El Camino Real,Redwood City ,CA,94062.0,(650) 474-2400,Results 22,222 E Wisconsin Ave,Lake Forest,IL,60045.0,(847) 295-5422,0
Cafe 100,10100 Santa Monica Blvd Ste A105,Los Angeles ,CA,90067.0,(310) 553-6331,25 Degrees,736 N Clark St,Chicago,IL,60654.0,(312) 943-9700,0
Dakota Slim Food's,1919 19th St S,Fargo ,ND,58103.0,(701) 239-0242,Manatee Island Bar and Grill,1640 Seaway Dr,Fort Pierce,FL,34949.0,(772) 242-8460,0
The Original Pancake House,8817 Ladue Rd,Saint Louis ,MO,63124.0,(314) 932-1340,National Museum of the American Indian,1 Bowling Grn,New York,NY,10004.0,(212) 514-3700,0
Deangelos Restaurant,1510 Chrisler Ave,Schenectady ,NY,12303.0,(518) 393-1364,Devon Seafood Grill,39 E Chicago Ave,Chicago,IL,60611.0,(312) 440-8660,0
Starbucks Coffee,3744 N Hess Rd,Waterfall ,PA,16689.0,(717) 485-4254,Express El Camino Locksmith,Serving Sunnyvale and the Surrounding Area,Phone number,,94087.0,,0
King 's Pizzeria & Restaurant,2212 Victory Blvd,Staten Island ,NY,10314.0,(347) 625-1017,Cafe Del Sol Restaurant,1010 Doyle St,Menlo Park,CA,94025.0,(650) 326-2501,0
Daddy Dough Bake Shop,907 E Duane Ave,Sunnyvale ,CA,94085.0,(408) 720-0270,American Car Wash,1035 Northern Blvd,Roslyn,NY,11576.0,(516) 627-5555,0
Nothing But Noodles,22 Clifton Country Rd,Clifton Park ,NY,12065.0,(518) 371-1999,Nu Touch Therapy,3 Harbor Rd,Cold Spring Harbor,NY,11724.0,(516) 305-2999,0
Bistro 412 Restaurant & Bar,412 Emerson St,Palo Alto ,CA,94301.0,(650) 326-7183,The Bay Fish & Chips,826 W El Camino Real,Sunnyvale,CA,94087.0,(408) 732-5665,0
Siena Restaurant & Bar,105 Main St,Newport Beach ,CA,92661.0,(949) 675-6400,Haru Sushi,1 Wall St Ct,New York,NY,10005.0,(212) 785-6850,0
Trevi Ristorante,11 Taylor Sq,West Harrison ,NY,10604.0,(914) 949-5810,The Rug Expert,Serving Mountain View and the Surrounding Area,Phone number,,94035.0,,0
Ray's,750 Escondido Rd,Stanford ,CA,94305.0,(650) 724-7851,Pancho Villa Taqueria,365 S B St,San Mateo,CA,94401.0,(650) 343-4123,0
Taco Bar,10003 Fields Rd Ste B,Gaithersburg ,MD,20878.0,(301) 569-6130,Stresa Italian Restaurant,1524 Northern Blvd,Manhasset,NY,11030.0,(516) 365-6956,0
Tai Wu Restaurant,1080 Foster City Blvd,Foster City ,CA,94404.0,(650) 638-0168,Residence Inn by Marriott,2000 Winward Way,San Mateo,CA,94404.0,(650) 574-4700,0
La Famiglia,90 W Main St,Babylon ,NY,11702.0,(631) 938-7166,Verizon,1530 Northern Boulevard,Manhasset,NY,11030.0,(516) 627-5620,0
Lone Star Steakhouse,808 W Diamond Ave,Gaithersburg ,MD,20878.0,(301) 548-0867,Ilbunjee #1,2325 El Camino Real,Santa Clara,CA,95050.0,(408) 241-9658,0
Cassidy's Irish Pub & Restaurant,65 W 55th St,New York ,NY,10019.0,(201) 977-1797,Taqueria La Veracruzana,1510 Jackson St,Santa Clara,CA,95050.0,(408) 261-2108,0
Antonia's Pizzaria,1529 Crescent Rd,Rexford ,NY,12148.0,(518) 631-6445,Massage Felax,8611 Hillcrest Ave,Dallas,TX,75225.0,(214) 363-3529,0
Sushi Kushi Toyo,825 S Waukegan Rd Ste A5,Lake Forest ,IL,60045.0,(847) 234-9950,Magic Key Locksmith,Serving Santa Clara and the Surrounding Area,Phone number,,95050.0,,0
Orange Julius,13783 W Oasis Service Rd,Lake Forest ,IL,60045.0,(847) 400-4609,Kratzer Plumbing,Serving Los Altos and the Surrounding Area,Phone number,,,,0
Perkins Restaurant & Bakery,2023 Cenex Dr,Rice Lake ,WI,54868.0,(715) 736-0282,Love to Live Spa,3790 Via De La Valle,Del Mar,CA,92014.0,(858) 876-7525,0
Renegade Chicken,,,,,(713) 981-7880,Chappaqua Hand Car Wash,33 Bedford Rd,Chappaqua,NY,10514.0,(914) 238-0209,0
Pad Thai,12676 Lamplighter Square Shpg Ctr,Saint Louis ,MO,63128.0,(314) 843-0999,Garden Court Hotel,520 Cowper St,Palo Alto,CA,94301.0,(800) 824-9028,0
Purchase Country Market,630 Anderson Hill Rd,Purchase ,NY,10577.0,(914) 481-4422,Haiku Asian Bistro & Sushi Bar,1 Cross River Shopping Ctr,Cross River,NY,10518.0,(914) 763-9120,0
Umi Japanese Fine Dining,1500 Jefferson Davis Hwy,Fredericksburg ,VA,22401.0,(540) 373-3881,Natural Pilates & Bodyworks,9869 S Santa Monica Blvd,Beverly Hills,CA,90212.0,(310) 277-6386,0
Fingers & Claws Restaurant,802 Muddy Branch Rd,Gaithersburg ,MD,20878.0,(301) 990-9600,Academy for Salon Professionals,2238 El Camino Real,Santa Clara,CA,95050.0,(408) 261-9201,0
A M Donut & Croissants,425 Interstate 20 E,Baird ,TX,79504.0,(325) 854-9999,Portola Valley Hardware,112 Portola Rd,Portola Valley,CA,94028.0,(650) 851-0116,0
La Familia Katonah,280 Katonah Ave,Katonah ,NY,10536.0,(914) 232-8027,The Continental Club,3700 Main St,Houston,TX,77002.0,(713) 529-9899,0
Roberto's Trattoria,145 Concord Plaza Shopping Ctr,Saint Louis ,MO,63128.0,(314) 842-9998,Piccolo Ristorante Italiano,651 Oak Grove Ave,Menlo Park,CA,94025.0,(650) 326-1314,0
Candicci's,100 Holloway Rd,Ballwin ,MO,63011.0,(636) 923-8124,Valley Garden Park,418 Campbell Rd,Wilmington,DE,19807.0,(302) 576-3810,0
Brandon Steakhouse & Lounge,1308 E Rushmore Dr,Brandon ,SD,57005.0,(605) 582-6387,Bel Air Foods,2323 Roscomare Rd,Bel Air,CA,90077.0,(310) 472-5010,0
Pasta Pomodoro,21133 Newport Coast Dr,Newport Coast ,CA,92657.0,(949) 759-1303,Menlo BBQ,555 Willow Rd,Menlo Park,CA,94025.0,(650) 321-6188,0
Jing-Jing Szechwan Hunan Gourmet,443 Emerson St,Palo Alto ,CA,94301.0,(650) 328-6885,Madison Street Bed & Breakfast Inn,1390 Madison St,Santa Clara,CA,95050.0,(408) 249-5541,0
Ahoy's Bar-B-Que,2367 El Camino Real,Santa Clara ,CA,95050.0,(408) 378-2838,Viognier,222 E 4th Ave,San Mateo,CA,94401.0,(650) 685-3727,0
Hotshots Sports Bar & Grill,1236 S Laclede Station Rd,Saint Louis ,MO,63119.0,(314) 888-9674,New York Cares,65 Broadway,New York,NY,10006.0,(212) 228-5000,0
Bill Miller Bar-B-Q,7273 N Loop 1604 W,San Antonio ,TX,78249.0,(210) 699-8849,El Palenque Taqueria,15 N Kingston St,San Mateo,CA,94401.0,(650) 342-4040,0
Lucky Garden Chinese Rstrnt,905 Highway 65 S,Mc Gehee ,AR,71654.0,(870) 222-5687,Bistronomic,840 N Wabash Ave,Chicago,IL,60611.0,(312) 944-8400,0
The Willows Restaurant,920 Oakridge Cmns,South Salem ,NY,10590.0,(914) 533-5100,Chipotle Mexican Grill,9100 Mercato Dr,Naples,FL,34108.0,(239) 254-1292,0
Sushi Main St,696 Mill St,Half Moon Bay ,CA,94019.0,(650) 276-3808,The Indian Garden,247 E Ontario St,Chicago,IL,60611.0,(312) 280-4910,0
Casey's Carryout Pizza,421 4th St,Holdingford ,MN,56340.0,(320) 363-4918,Chiladas,4448 Lovers Ln,Dallas,TX,75225.0,(214) 365-9900,0
Lorie's Wildridge Restaurant,5901 W Ridge Rd,Erie ,PA,16506.0,(814) 838-3402,Viva Taqueria,444 N Winchester Blvd,Santa Clara,CA,95050.0,(408) 615-1126,0
Rock Bottom In Naples,871 Vanderbilt Beach Rd,Naples ,FL,34108.0,(239) 431-5953,Amm Tech Solutions,Serving Sunnyvale and the Surrounding Area,Phone number,,,,0
Kay's Restaurant And Bar,8010 N Stemmons Fwy,Dallas ,TX,75247.0,(214) 453-5808,California Loyal Movers,Serving Palo Alto and the Surrounding Area,Phone number,,,,0
Buca Italian Restaurant,,,,,,Chatime,969A Edgewater Blvd,Foster City,CA,94404.0,(650) 393-4090,0
Sharky's Seafood and BBQ,301 Lancaster St,Leominster ,MA,1453.0,(978) 534-5554,One Twenty Three Restaurant & Bar,407 Smith Ridge Rd,South Salem,NY,10590.0,(914) 533-2570,0
The Melting Pot,213 Burlington Rd,Bedford ,MA,1730.0,(781) 271-0111,Dim Sum King,824 W El Camino Real,Sunnyvale,CA,94087.0,(408) 739-1551,0
The Cheesecake Factory,7 Backus Ave,Danbury ,CT,6810.0,(203) 743-6000,Diamond Boutique,2710 Via De La Valle,Del Mar,CA,92014.0,(858) 720-1800,0
Midstate Restaurant Service Inc.,4700 Dougherty Pl Ste A,Oklahoma City ,OK,73179.0,(405) 265-7111,Empire Carpet Care,Serving Sparks and the Surrounding Area,Phone number,,,,0
Thornwood Pizza & Pasta,808 Commerce St,Thornwood ,NY,10594.0,(914) 741-0707,Home Energy Experts,Serving Reno and the Surrounding Area,Phone number,,,,0
Brett's BBQ,10550 Craftsman Way,San Diego ,CA,92127.0,(858) 487-7427,The Breakers News & Gourmet,1 S County Rd,Palm Beach,FL,33480.0,(561) 653-6370,0
Miyabi Asian Bistro,25 Wheeler Ave,Pleasantville ,NY,10570.0,(914) 769-8811,NorthPark Center,8687 N Central Expy,Dallas,TX,75225.0,(214) 363-7441,0
Space Aliens Grill & Bar,1304 E Century Ave,Bismarck ,ND,58503.0,(701) 516-8954,NB Beauty,405 N San Mateo Dr,San Mateo,CA,94401.0,(650) 393-5634,0
Butch's Place,3330 W 26th St Ste 25,Erie ,PA,16506.0,(814) 835-3372,Swimming Lessons with Mersiha,3249 Alpine Rd,Portola Valley,CA,94028.0,(408) 306-3466,0
Lumpia Pansit Atbp Filipino Restaurant and Cafe,213 Muddy Branch Rd,Gaithersburg ,MD,20878.0,(301) 527-7788,Rancho Santa Fe Farmers Market,16079 San Dieguito Rd,Rancho Santa Fe,CA,92091.0,(619) 743-4263,0
Carmines II,10463 Santa Monica Blvd,Los Angeles ,CA,90025.0,(310) 441-4706,Purebread Deli,4001 Kennett Pike,Wilmington,DE,19807.0,(302) 426-9866,0
Bangkok House,1316 El Camino Real,Belmont ,CA,94002.0,(650) 726-5247,Country Corner,3207 Alameda de Las Pulgas,Menlo Park,CA,94025.0,(650) 854-4260,0
Grind and Grape,925 Bougainvillea Ln,Vero Beach ,FL,32963.0,(772) 999-5671,Dr. Tattoff,3637 Peachtree Rd,Atlanta,GA,30326.0,(888) 828-8633,0
Hoots BBQ,2008 Highway 65 N,Mc Gehee ,AR,71654.0,(870) 222-1234,Mabble Media Creative Agency,Serving Reno and the Surrounding Area,Phone number,,,,0
Peet's Coffee & Tea,510 S Route 36,Roaring Spring ,PA,16673.0,(814) 224-5128,Shoreline Parks,1701 J Hart Clinton Dr,San Mateo,CA,94497.0,,0
China Wok,114 Value City Ctr,Beckley ,WV,25801.0,(304) 252-2168,Revitalize Integrated Body Systems,1618 El Camino Real,Menlo Park,CA,94025.0,(650) 323-7427,0
Ray's Crab Shack,5989 Mowry Ave,Newark ,CA,94560.0,(510) 648-3069,Bouchon Bistro,235 N Canon Dr,Beverly Hills,CA,90210.0,(310) 271-9910,0
Graziella's Restaurant,95 S Broadway,White Plains ,NY,10601.0,(914) 761-5721,In-N-Out Burger,922 Gayley Ave,Los Angeles,CA,90024.0,(800) 786-1000,0
Rojoz Gourmet Wraps,60 El Camino Real,Palo Alto ,CA,94301.0,(650) 324-9727,Mo-Bay Grill,1401 Indian River Dr,Sebastian,FL,32958.0,(772) 589-4223,0
Gino's Pizza,1334 Harper Rd,Beckley ,WV,25801.0,(304) 253-3137,Kozy Korner Restaurant,906 N Union St,Wilmington,DE,19805.0,(302) 658-0812,0
Blue Fin Sushi Bar,257 N El Camino Real Suite D & E,Encinitas ,CA,92024.0,(760) 479-1555,Espresso Bar,"130 Hillsdale Shopping Center,",San Mateo,CA,94497.0,(650) 570-5111,0
Starbucks Coffee,9844 Wilshire Blvd,Beverly Hills ,CA,90210.0,(310) 552-3133,The Delicious Cook,Serving Los Angeles and the Surrounding Area,Phone number,,90024.0,,0
Lin's Buffet,"756 W Jackson St, Morton IL, 61550",Morton ,IL,61550.0,(309) 263-4747,Coldwell Banker Residential Brokerage,Village Grn,Bedford,NY,10506.0,(914) 234-3647,0
Cheeburger Cheeburger,9853 Tamiami Trl N Ste 109,Naples ,FL,34108.0,(239) 592-5555,Fresh Brothers,250 S Beverly Dr,Beverly Hills,CA,90212.0,(310) 860-9400,0
Blaggards Pub & Restaurant,8 W 38th St,New York ,NY,10018.0,(718) 619-4991,Up Your Exposure,"Rancho Santa Fe, CA 92067",Phone number,,92130.0,,0
New Great Wall Chinese,454 E Main St # 1,Mount Kisco ,NY,10549.0,(914) 241-8018,Oriental Express,32 Cedar St,New York,NY,10005.0,(212) 797-9477,0
Olive Garden Italian Restaurant,,,,,,CH Distillery,564 W Randolph St,Chicago,IL,60661.0,(312) 707-8780,0
Sahara Restaurant,2337 Coney Island Ave,Brooklyn ,NY,11223.0,(718) 717-8561,Oak Lane Child Care Center,49 Memorial Dr,Chappaqua,NY,10514.0,(914) 238-3756,0
Adriana's Little Italy,573 Durham Rd,Newtown ,PA,18940.0,(267) 888-2565,GoRide Bicycles,2755 El Camino Real,Redwood City,CA,94061.0,(650) 366-2453,0
Lupe's Tacos,12333 Ticonderoga Rd,Houston ,TX,77044.0,(281) 458-4949,Van Allen Plumbing,Serving Sun Valley and the Surrounding Area,Phone number,,,,0
Blue Sky Cafe,1625 El Camino Real Ste 9,Belmont ,CA,94002.0,(650) 595-0228,Ronald C Wornick Jewish Day School,800 Foster City Blvd,Foster City,CA,94404.0,(650) 378-2600,0
Thai Express,351 Kentlands Blvd,Gaithersburg ,MD,20878.0,(301) 337-6166,Walmart Distribution Center,2155 USA Pkwy,Sparks,NV,89434.0,(775) 356-5000,0
Gallaway's Restaurant,4 Leonard Ct,Hesston ,KS,67062.0,(620) 327-2447,Mickey Fine Pharmacy & Grill,433 N Roxbury Dr,Beverly Hills,CA,90210.0,(310) 271-4461,0
Bendix Diner,17 State St,New York ,NY,10004.0,(201) 288-0143,Oasis Cleaning Services,Serving Reno and the Surrounding Area,Phone number,,,,0
Grassi's Deli and Ristorante,10450 German Blvd,Saint Louis ,MO,63131.0,(314) 994-1111,University of California Los Angeles - UCLA,405 Hilgard Ave,Los Angeles,CA,90095.0,(310) 825-4321,0
Vasolas Delicatessent Inc,4 Bedford Banksville Rd,Bedford ,NY,10506.0,(914) 205-3699,Broadway Pizza,616 N Broadway,White Plains,NY,10603.0,(914) 428-6218,0
Toscana Restaurant,202 Broadway N,Fargo ,ND,58102.0,(701) 235-9100,Cirrus Air Technologies,60 Main St,Cold Spring Harbor,NY,11724.0,(631) 692-7600,0
El Toro Cafe,314 E 7th St,Newton ,KS,67114.0,(316) 283-4044,Bistro Bistro,506 Northwood Rd,West Palm Beach,FL,33407.0,(561) 228-1081,0
Wingman,104 Nc 54,Carrboro ,NC,27510.0,(919) 928-9200,Paragon Pavilion,833 Vanderbilt Beach Rd,Naples,FL,34108.0,(239) 596-0008,0
Shelly B's,361 E Grand Ave,Memphis ,MO,63555.0,(660) 465-7269,Brook Furniture Rental,100 Frield Drive,Lake Forest,IL,60045.0,,0
Beach Box Cafe,9020 Gulf Shore Dr,Naples ,FL,34108.0,(239) 631-6080,Newport Fusion Sushi,21135 Newport Coast Dr,Newport Beach,CA,92657.0,(949) 721-5884,0
Olive Garden Italian Restaurant,,,,,,Royal Floors,Serving Fernley and the Surrounding Area,Phone number,,,,0
Fenton Olde Towne Donuts,67 Fenton Plz,Fenton ,MO,63026.0,(636) 326-7617,Santa Fe Mexican Grill - Wilmington,2006 Pennsylvania Ave,Wilmington,DE,19806.0,(302) 425-5200,0
Jt's BBQ,1215 E St,Snyder ,OK,73566.0,(580) 569-4692,Nasseri Auto Tech,Serving Santa Clara and the Surrounding Area,Phone number,,95050.0,,0
Ruby Tuesday,8777 Tamiami Trl N,Naples ,FL,34108.0,(239) 514-1350,Yogurtland,7700 W Northwest Hwy,Dallas,TX,75225.0,(214) 750-9950,0
Happy Fish Sushi,1200 W Main St Ste 22,Peoria ,IL,61606.0,(309) 999-4008,Formula,136 Long Ridge Rd,Bedford,NY,10506.0,(914) 234-9303,0
Tonys Pizza,1921 26th St S,Moorhead ,MN,56560.0,(218) 233-7884,Lightning Press,1085 Memorex Dr,Santa Clara,CA,95050.0,(408) 243-6253,0
Cafe Venezia,10250 Santa Monica Blvd,Los Angeles ,CA,90067.0,(310) 843-9592,The Mind Body Whisperer,230 Presidential Dr,Greenville,DE,19807.0,(302) 593-9262,0
Denny's,814 W Ahwanee Ave,Sunnyvale ,CA,94085.0,(408) 747-1449,Crawfish Fusion,401 E 3rd Ave,San Mateo,CA,94401.0,(650) 347-7888,0
Cheddar's,2085 Interchange Rd,Erie ,PA,16509.0,(814) 864-9249,Serenity Garden Tea House & Restaurant,316 Vallette Way,West Palm Beach,FL,33401.0,(561) 655-3911,0
Wing Street,16476 Lincoln Hwy,Breezewood ,PA,15533.0,(814) 735-4091,Reef,2600 Travis St,Houston,TX,77006.0,(713) 526-8282,0
Coco's Crepes & Coffee,218 Gray St,Houston ,TX,77002.0,(713) 521-0700,Juban Yakiniku House,712 Santa Cruz Ave,Menlo Park,CA,94025.0,(650) 473-6458,0
Qdoba Mexican Grill,100 W Franklin St,Chapel Hill ,NC,27516.0,(919) 929-8998,The Cheesecake Factory,701 South Rosemary Avenue,West Palm Beach,FL,33401.0,(561) 802-3838,0
Woodside Delicatessen,1453 Woodside Rd,Redwood City ,CA,94061.0,(650) 369-4235,In-N-Out Burger,604 E El Camino Real,Sunnyvale,CA,94087.0,(800) 786-1000,0
Olive Garden Italian Restaurant,,,,,,Hackett Painting Company,1543 Laurel Place,Menlo Park,CA,94025.0,(650) 322-4287,0
Bk Donuts,14TH & Texas Ave,Abilene ,TX,79605.0,(325) 793-1173,Tacolicious,632 Emerson St,Palo Alto,CA,94301.0,(650) 838-0500,0
China Dragon,1702 Chrisler Ave Ste 10,Schenectady ,NY,12303.0,(518) 346-6102,8th & Union Kitchen,801 N Union St,Wilmington,DE,19805.0,(302) 654-9780,0
Julio's Cafe,501 Baltimore Ave,Clarksburg ,WV,26301.0,(304) 622-2592,Fifth Avenue Salon & Color Group,118 5th Ave,Redwood City,CA,94063.0,(650) 599-9882,0
Round Table Pizza,128 Woodside Plz,Redwood City ,CA,94061.0,(650) 365-2770,Pepsi Gardens,700 Anderson Hill Rd,Purchase,NY,10577.0,(914) 253-2000,0
Illinois Dolce Cafe,1840 Century Park E # 105,Los Angeles ,CA,90067.0,(310) 458-4880,El Grullense,795 5th Ave,Redwood City,CA,94063.0,(650) 363-1368,0
Crowne Plaza Southbury Hotel,,,,,(203) 598-7600,Anytime Locksmith,Serving Reno and the Surrounding Area,Phone number,,,,0
Sunnyvale Cafe,223 E Maude Ave,Sunnyvale ,CA,94085.0,(408) 530-8191,St. Cecilia,3455 Peachtree Rd NE,Atlanta,GA,30326.0,(404) 554-9995,0
Gino's Pizza & Spaghetti House,PO Box 607,Crab Orchard ,WV,25827.0,(304) 683-3296,Asian Box,855 El Camino Real,Palo Alto,CA,94301.0,(650) 391-9305,0
3G's Gourmet Deli,5869 W Atlantic Ave,Delray Beach ,FL,33484.0,(561) 894-3875,The Metropolitan Club,233 S Wacker Dr,Chicago,IL,60606.0,(312) 876-3200,0
Sharky's,435 N Beverly Dr,Beverly Hills ,CA,90210.0,(310) 858-0202,SJ Hair Studio,840 S Waukegan Rd,Lake Forest,IL,60045.0,(847) 604-8890,0
Peggy's Liberty Plaza Restaurant,3512 Liberty St,Erie ,PA,16508.0,(814) 866-3216,NSA Airport Service,200 King ST,Chappaqua,NY,10514.0,(914) 816-3185,0
Hong Kong,1075 Garrisonville Rd Ste 111,Stafford ,VA,22556.0,(540) 288-3999,The Local Chicago,198 E Delaware Pl,Chicago,IL,60611.0,(312) 280-8887,0
China Star,"231 Half S Highland Ave, Briarcliff Manor NY, 10510",Briarcliff Manor ,NY,10510.0,(914) 762-8817,B Bros Hauling,Serving Belmont and the Surrounding Area,Phone number,,94002.0,,0
The Breakfast Place,4108 Peach St,Erie ,PA,16509.0,(814) 864-2727,Cafe DeVita,504 Greenhill Ave,Wilmington,DE,19805.0,(302) 691-5453,0
El Bohio Restaurant,362 Main St,Fitchburg ,MA,1420.0,(978) 342-7510,Yummi Sushi Japanese Restaurant & Sushi Bar,24165 IH 10 W,San Antonio,TX,78257.0,(210) 698-1650,0
California Pizza Kitchen,1493 Saint Louis Galleria,Saint Louis ,MO,63117.0,(314) 863-4500,Copper Face Jacks,166 Mamaroneck Ave,White Plains,NY,10601.0,(914) 821-6211,0
Dario's Brick Oven Ristorante,310 Massachusetts Ave,Lunenburg ,MA,1462.0,(978) 582-4300,Sweet Skin Studio Corona Del Mar,436 Heliotrope Ave,Corona Del Mar,CA,92625.0,(949) 673-6259,0
Pizza Express,701 E St,Snyder ,OK,73566.0,(580) 569-2007,Caputo Cheese Market,231 E Wisconsin Ave,Lake Forest,IL,60045.0,(847) 482-0100,0
Piccolo,22701 Pelican Hill Rd S,Newport Coast ,CA,92657.0,(949) 467-5800,Red Lantern Cycles,640 Menlo  Ave,Menlo Park,CA,94025.0,(650) 853-3051,0
Round Table Pizza,430 S Norfolk St,San Mateo ,CA,94401.0,(650) 375-1300,Sugar Mama Desserts,W Washington Ave & S Murphy Ave,Sunnyvale,CA,94086.0,(650) 678-0495,0
Basta Eastport,2517 N Main St,East Peoria ,IL,61611.0,(309) 699-8792,Brooklyn Meatball Co.,930 Main St,Houston,TX,77002.0,(713) 751-1700,0
Spanky's Pizza & Italiana,7210 J W Peavy Dr,Houston ,TX,77011.0,(713) 581-8403,Iberia Restaurant,1026 Alma St,Menlo Park,CA,94025.0,(650) 325-8981,0
Dinardo's Restaurant,76 Westchester Ave,Pound Ridge ,NY,10576.0,(914) 764-4024,Gould-Jacobson Dermatology,695 Oak Grove Ave,Menlo Park,CA,94025.0,(650) 327-5783,0
Kathy's Country Kitchen,423 Tisdell Ln,Aubrey ,TX,76227.0,(940) 365-1019,Contemporary Dental,105 37th Ave,San Mateo,CA,94403.0,(650) 341-8551,0
Dairy Queen,13009 Sunny Dawn Ct,Saint Louis ,MO,63127.0,(314) 638-9529,Waterfront,969 D Edgewater Blvd,Foster City,CA,94404.0,(650) 573-6634,0
Sixty-Five Restaurant,222 S Canal St,Chicago ,IL,60606.0,(312) 474-0065,Chicago Pizza Tours,Serving Chicago and the Surrounding Area,Phone number,,,,0
Olive Garden Italian Restaurant,,,,,,Nickys Pizzeria & Restaurant,91 Mamaroneck Ave,White Plains,NY,10601.0,(914) 997-6951,0
Happy Fish Sushi,1200 W Main St Ste 22,Peoria ,IL,61606.0,(309) 999-4008,Highland Bakery,3353 Peachtree Rd NE,Atlanta,GA,30326.0,(678) 904-2146,0
Kira Asian Bistro,95 King St,Chappaqua ,NY,10514.0,(914) 861-2727,Roti Mediterranean Grill,200 W Randolph St,Chicago,IL,60606.0,(312) 332-6013,0
Zoni Pies,196 E 6th St Ste 101,Sioux Falls ,SD,57104.0,(605) 335-1700,Infiniti of Manhasset,1225 Northern Blvd,Manhasset,NY,11030.0,(888) 895-6611,0
T.G.I. Friday's,4100 13th Ave S,Fargo ,ND,58103.0,(701) 281-3030,AMC Century City 15,10250 Santa Monica Blvd,Los Angeles,CA,90067.0,(310) 277-2262,0
Panevino Italian restaurante,8853 Tamiami Trl N,Naples ,FL,34108.0,(239) 514-8655,Bay Area Dinner Show,Serving Cupertino and the Surrounding Area,Phone number,,,,0
Outback Steakhouse,2520 York Rd,Jamison ,PA,18929.0,(215) 918-2633,Parasol Beauty Atelier,470 Hamilton Ave,Palo Alto,CA,94301.0,(650) 321-9800,0
Savory Restaurant,267 N El Camino Real,Encinitas ,CA,92024.0,(760) 634-5556,Sushi Sai,123 N Wacker Dr,Chicago,IL,60606.0,(312) 332-8822,0
Joao's Restaurant,57 Washington St,Santa Clara ,CA,95050.0,(408) 244-1299,"BreakThrough Physical Therapy, Inc.",263 N Mathilda Ave,Sunnyvale,CA,94086.0,(408) 736-7600,0
Quinto Sol,2201 Broadway St,Redwood City ,CA,94063.0,(650) 365-5765,Ladera Granola,"Ladera, CA 94028",Phone number,,,,0
Mountaineer Grille Inc,166 Barnetts Run Rd,Bridgeport ,WV,26330.0,(304) 848-7600,Royal Thai,5500 Greenville Ave,Dallas,TX,75206.0,(214) 691-3555,0
The Clubhouse Steakhouse,320 W Jericho Tpke,Huntington ,NY,11743.0,(631) 479-2375,Lake Forest Health & Fitness Center,1200 N Westmoreland Rd,Lake Forest,IL,60045.0,(847) 535-7000,0
Premier Pizza,297 Countryside Ct,Warwick ,PA,18974.0,(215) 672-9971,Caffe Roma,350 N Canon Dr,Beverly Hills,CA,90210.0,(310) 274-7834,0
Villa Milano,168 Plandome Rd,Manhasset ,NY,11030.0,(516) 365-3440,Paris Interiors Incorporated,211 King St,Chappaqua,NY,10514.0,(914) 238-3560,0
The Farmers Table,2001 S Scales St,Reidsville ,NC,27320.0,(336) 342-3003,Su Hong To Go,630 Menlo Ave,Menlo Park,CA,94025.0,(650) 322-4631,0
Kreis' Restaurant,535 S Lindbergh Blvd,Saint Louis ,MO,63131.0,(314) 993-0735,Wakuriya,115 De Anza Blvd,San Mateo,CA,94402.0,(650) 286-0410,0
Tides Restaurants & Pub,2 Wilson Rd,Nahant ,MA,1908.0,(781) 780-6227,Anthropologie,3393 Peachtree Rd NE,Atlanta,GA,30326.0,(404) 237-4175,0
Filippi's Pizza Grotto,9969 Mira Mesa Blvd,San Diego ,CA,92131.0,(858) 877-6890,Bistro Vida,641 Santa Cruz Ave,Menlo Park,CA,94025.0,(650) 462-1686,0
D & J Burger & Bar,7809 Ley Rd,Houston ,TX,77028.0,(713) 635-3063,La Familia Pound Ridge,69 Westchester Ave,Pound Ridge,NY,10576.0,(914) 764-4500,0
Round Table Pizza,,,,,,Starbucks,2370 El Camino Real,Santa Clara,CA,95050.0,(408) 984-7174,0
Phillips Avenue Diner,121 S Phillips Ave,Sioux Falls ,SD,57104.0,(605) 335-4977,JoyRide Cycling Studio,62 Danbury Rd,Ridgefield,CT,6877.0,(203) 403-6874,0
Round Table Pizza,860 Old San Francisco Rd,Sunnyvale ,CA,94086.0,(408) 245-9000,Taco Diner,4011 Villanova St,Dallas,TX,75225.0,(214) 696-4944,0
Mangrum Country Inn Restaurant,,Valliant ,OK,74764.0,(580) 933-4316,Nozawa Bar,212 N Canon Dr,Beverly Hills,CA,90210.0,(424) 216-6158,0
Allgood Cafe,2934 Main St,Dallas ,TX,75226.0,(214) 742-5362,Villa Rustica Pizzeria,261 S Ridge St,Port Chester,NY,10573.0,(914) 939-8888,0
Two Podners Bar-B-Q & Seafood,1441 Robert B.Cullum Blvd,Dallas ,TX,75210.0,(214) 421-5387,Lolli and Pops,15900 La Cantera Pkwy,San Antonio,TX,78256.0,(210) 561-7858,0
Spindletop,1200 Louisiana St,Houston ,TX,77002.0,(713) 375-4775,Fairbanks Ranch Country Club,15150 San Dieguito Rd,Rancho Santa Fe,CA,92067.0,(858) 259-8811,0
Aaron's Barbecue & Grill,403 Harlin Dr,Gainesville ,MO,65655.0,(417) 679-0061,Coaches Pub,2204 Louisiana St,Houston,TX,77002.0,(713) 751-1970,0
Round Table Pizza,2129 Morrill Ave,San Jose ,CA,95132.0,(408) 263-8900,Bowling Green,Financial District,Broadway and Whitehall St,,10041.0,Phone number,0
Round Table Pizza,665 S Bernardo Ave,Sunnyvale ,CA,94087.0,(408) 732-6670,Casa Mia,451 Plandome Rd,Manhasset,NY,11030.0,(516) 365-6655,0
Eminent Kings and Queens Creole Restaurant,1622 W Unversity Drive   Suite 100,Denton ,TX,76201.0,(940) 387-7201,Master Plumbing & Sewer,Serving Mountain View and the Surrounding Area,Phone number,,,,0
Old Port Lobster Shack,2855 Stevens Creek Blvd,Santa Clara ,CA,95050.0,(408) 248-2455,Hoffman Grayson Architects,Serving Huntington and the Surrounding Area,Phone number,,,,0
Olive Garden Italian Restaurant,,,,,,World Cup Nursery School & Kindergarten,160 Hunts Ln,Chappaqua,NY,10514.0,(914) 238-9267,0
Amici's East Coast Pizzeria,790 Castro St,Mountain View ,CA,94041.0,(650) 961-2056,The Resort at Pelican Hill,22701 S Pelican Hill Rd,Newport Coast,CA,92657.0,(855) 315-8214,0
Iron Works Barbeque,,,,,(512) 478-4856,Ridgefield Running Company,88 Danbury Rd,Ridgefield,CT,6877.0,(203) 438-7778,0
Sandwich,407 W Franklin St,Chapel Hill ,NC,27516.0,(919) 929-2114,Vampire Lounge & Tasting Room,9865 S Santa Monica Blvd,Beverly Hills,CA,90212.0,(310) 826-7473,0
Al Biernat's,4217 Oak Lawn Ave,Dallas ,TX,75219.0,(214) 504-3653,California Cuisine,1862 S Norfolk St,San Mateo,CA,94403.0,(650) 574-1112,0
Le's Fast Food,8617 Mesa Dr,Houston ,TX,77028.0,(713) 635-1665,Columbus Inn,2216 Pennsylvania Ave,Wilmington,DE,19806.0,(302) 571-1492,0
Seven's Turkish Grill,158 W 72nd St,New York ,NY,10023.0,(212) 724-4700,Guo Bin Chinese Restaurant,8600 Delmar Blvd,Saint Louis,MO,63124.0,(314) 997-0906,0
Olde Towne Bar & Grille,410 Locust St,Delavan ,IL,61734.0,(309) 244-9488,GAGE Lounge,2600 Travis St,Houston,TX,77006.0,(832) 649-2354,0
Krungtep Thai Bistro,23 S Middle Neck Rd,Great Neck ,NY,11021.0,(516) 498-9889,Industrial Chemical Div of Leo Silfen,136 Long Ridge Rd,Bedford,NY,10506.0,(914) 234-9303,0
Hoss's Steak & Sea House,3302 W 26th St,Erie ,PA,16506.0,(814) 838-6718,Nordstrom,135 Wchester Ave,White Plains,NY,10601.0,(914) 946-1122,0
Dallas Tortilla & Tamale Factory,309 N Marsalis Ave,Dallas ,TX,75203.0,(214) 943-7681,31st Union,5 S Ellsworth St,San Mateo,CA,94401.0,(650) 458-0049,0
Hillsborough BBQ Company,236 S Nash St,Hillsborough ,NC,27278.0,(919) 732-4647,Auto Champs,771 N Mathilda Ave,Sunnyvale,CA,94085.0,(650) 669-0370,0
Iron Works Barbeque,,,,,(512) 478-4856,The Breakers,1 S County Rd,Palm Beach,FL,33480.0,(561) 655-6611,0
Friendly's,259 E Main St,Mount Kisco ,NY,10549.0,(914) 241-1399,California Windsurfing,Serving Foster City and the Surrounding Area,Phone number,,94404.0,,0
Ruby Tuesday,1019 N Center Ave,Somerset ,PA,15501.0,(814) 445-3934,Piccolo Ristorante Italiano,651 Oak Grove Ave,Menlo Park,CA,94025.0,(650) 326-1314,0
Matteo's of Roslyn,88 Mineola Ave,Roslyn ,NY,11576.0,(516) 484-0555,Nachomamas Tex-Mex,9643 Manchester Rd,Saint Louis,MO,63105.0,(314) 961-9110,0
MacArthur Park,27 University Ave,Palo Alto ,CA,94301.0,(650) 321-9990,Village Svce Cntr,193 Pound Ridge Rd,Bedford,NY,10506.0,(914) 234-7851,0
O'Charley's,190 Gravois Bluffs Cir,Fenton ,MO,63026.0,(636) 326-5106,Viking Repair Los Angeles,Beverly Crest,Los Angeles,CA,90210.0,(323) 472-6629,0
King House Buffet,122 Broadway N,Fargo ,ND,58102.0,(701) 271-8989,Corey Murphy,Serving Encinitas and the Surrounding Area,Phone number,,92130.0,,0
Bertucci's,SOLOMON Pond Mall,Marlborough ,MA,1752.0,(508) 485-3636,Louis Vuitton,2120 Northern Blvd,Manhasset,NY,11030.0,(516) 365-4766,0
Pho 21,705 S Western Ave,Los Angeles ,CA,90005.0,(213) 739-7998,Oral & Maxillofacial Surgery of New York,42 Broadway,New York,NY,10004.0,(212) 480-2777,0
Baldwin Coach Diner,SUNRSE Hwy & Cntrl Ave,Baldwin ,NY,11510.0,(516) 223-2161,Marshalls,1380 Northern Blvd,Manhasset,NY,11030.0,(516) 627-5492,0
Lulu B's Grill,8795 Tamiami Trl N,Naples ,FL,34108.0,(239) 594-5330,Ulta,17414 La Cantera Pkwy,San Antonio,TX,78257.0,(210) 877-9908,0
Panella's Deli,78 Westchester Ave,Pound Ridge ,NY,10576.0,(914) 764-3447,University of California Los Angeles - UCLA,405 Hilgard Ave,Los Angeles,CA,90095.0,(310) 825-4321,0
Taormina's Pizza & Panini,130 Almshouse Rd Ste 501,Richboro ,PA,18954.0,(215) 355-8886,LongHorn Steakhouse,8010 Trail Blvd,Naples,FL,34108.0,(239) 592-9487,0
August Moon Chinese Restaurant,108 Garland Ave,West Helena ,AR,72390.0,(870) 572-5523,Horizon Window Fashions,Serving Reno and the Surrounding Area,Phone number,,,,0
Paris Bistro,3390 Peachtree Rd NE # 104,Atlanta ,GA,30326.0,(404) 869-8833,"William L Hines, Electrical Contractor",444 Old Post Rd,Bedford,NY,10506.0,(914) 763-3636,0
Tao Tao Restaurant,175 S Murphy Ave,Sunnyvale ,CA,94086.0,(408) 736-3731,El Camino Mongolian BBQ,3380 El Camino Real,Santa Clara,CA,95051.0,(408) 241-2413,0
Corner Bakery Cafe,444 W Jackson Blvd,Chicago ,IL,60606.0,(312) 575-1410,FNS Training Center,2342 Walsh Ave,Santa Clara,CA,95051.0,(408) 235-7624,0
Lu Lu Chinese Express,8450 Eager Rd,Saint Louis ,MO,63144.0,(314) 962-9009,Nu Touch Therapy,3 Harbor Rd,Cold Spring Harbor,NY,11724.0,(516) 305-2999,0
Della Francesca,35 Lake Ave,Danbury ,CT,6810.0,(203) 791-2068,Don Joe Auto Body,247 East Shore Road,Great Neck,NY,11023.0,(516) 874-2799,0
Cool Cafe At MBP,1525 Obrien Dr,Menlo Park ,CA,94025.0,(650) 325-3665,Taqueria El Metate,120 Harbor Blvd,Belmont,CA,94002.0,(650) 595-1110,0
Marchese Anthony Ten Best Restaurants.Com,476 Pine Ave,Naples ,FL,34108.0,(239) 514-4116,Miele Appliance Repair LA,Serving Los Angeles and the Surrounding Area,Phone number,,90210.0,,0
Round Table Pizza,263 University Ave,Palo Alto ,CA,94301.0,(650) 322-2893,Blackwood BBQ,305 W Lake St,Chicago,IL,60606.0,(312) 621-9663,0
Millie Ko,38 Woodside Plz,Redwood City ,CA,94061.0,(650) 368-8889,Best Of Burma,146 E 3rd Ave,San Mateo,CA,94401.0,(650) 235-9339,0
Dorry's Diner,468 Mamaroneck Ave,White Plains ,NY,10605.0,(914) 682-0005,Milliamp LTD,17503 La Cantera Pkwy,San Antonio,TX,78257.0,(210) 568-7473,0
The Crust Pizza,875 Vanderbilt Beach Rd,Naples ,FL,34108.0,(239) 244-8488,Molly Maid,Serving Mountain View and the Surrounding Area,Phone number,,94086.0,,0
The Fish House,206 N Rodeo Dr,Beverly Hills ,CA,90210.0,(310) 859-0434,Harbor Mist,105 Harbor Rd,Cold Spring Harbor,NY,11724.0,(631) 659-3888,0
Trimana,1800 Avenue Of The Stars,Los Angeles ,CA,90067.0,(310) 785-6635,Cafe 43,2943 SMU Blvd,Dallas,TX,75205.0,(214) 200-4302,0
T.G.I. Friday's,PO Box 612164,Dallas ,TX,75261.0,(972) 574-2728,Pierogi Heaven,169 N Wells St,Chicago,IL,60606.0,(312) 263-9305,0
Legal Sea Foods,301 Great River Rd,Somerville ,MA,2145.0,(617) 337-4088,Savvy Transportation,Serving Corona Del Mar and the Surrounding Area,Phone number,,92625.0,,0
Barry's Pizza,6003 Richmond Ave,Houston ,TX,77057.0,(713) 266-8692,Lake Forest Sports Cars,990 N Shore Dr,Lake Bluff,IL,60044.0,(847) 295-6560,0
Kiowa Casino,STATE Highway 36,Devol ,OK,73531.0,(580) 299-3333,Premier Garage,Serving Foster City and the Surrounding Area,Phone number,,94403.0,,0
Bacci Pizzeria,162 N Franklin St,Chicago ,IL,60606.0,(312) 782-0000,The Point Park & Eats,24188 Boerne Stage Rd,San Antonio,TX,78255.0,(210) 251-3380,0
My Goodness Deli & Cafe,78 Westchester Ave,Pound Ridge ,NY,10576.0,(914) 764-3431,Julius Meinl,211 E Ontario St,Chicago,IL,60611.0,(773) 883-1862,0
Five Crowns,3801 E Coast Hwy,Corona Del Mar ,CA,92625.0,(949) 760-0331,Peter Raney Custom Tailor,1875 Century Park E,Los Angeles,CA,90067.0,(310) 201-5936,0
Tarragon Restaurant,140 S Murphy Ave,Sunnyvale ,CA,94086.0,(408) 737-8003,Sterling Carpet Care,Serving Reno and the Surrounding Area,Phone number,,,,0
Other Dawg,4408 N Prospect Rd,Peoria Heights ,IL,61616.0,(309) 688-3644,Cubberley Cafe,485 Lasuen Mall,Stanford,CA,94305.0,(650) 725-1236,0
Jimbo's Pizza of Celina,402 E Walnut St,Celina ,TX,75009.0,(972) 382-3444,Chez Marie,633 Old Post Rd,Bedford,NY,10506.0,(914) 234-3992,0
Tom's Burgers,6818 Sanger Ave,Waco ,TX,76710.0,(254) 751-0025,Meurice Garment Care,249 Plandone Road,Manhasset,NY,11030.0,(516) 627-6060,0
Super Buffet,1537 Freeway Dr Ste 506,Reidsville ,NC,27320.0,(336) 616-1011,US Post Office,107 N Greeley Ave,Chappaqua,NY,10514.0,(914) 238-7592,0
Beachcomber Cafe,15 Crystal Cv,Newport Coast ,CA,92657.0,(949) 376-6900,Palm Court,140 E Walton Pl,Chicago,IL,60611.0,(312) 787-2200,0
Joao's Restaurant,57 Washington St,Santa Clara ,CA,95050.0,(408) 244-1299,Rib City,9191 Tamiami Trl N,Naples,FL,34108.0,(239) 591-3500,0
Uncle Bill's Pancake And Dinner House,3427 S Kingshighway Blvd,Saint Louis ,MO,63139.0,(314) 832-1973,Eckhoff Adelaide,75 Main St,Cold Spring Harbor,NY,11724.0,(516) 367-7887,0
Paradise Doughnuts,601 S 4th St,Chickasha ,OK,73018.0,(405) 224-2907,NOLA Restaurant & Bar,535 Ramona St,Palo Alto,CA,94301.0,(650) 328-2722,0
Main Street Cafe,131 S Main St,Memphis ,MO,63555.0,(660) 465-2688,Gulzaar Halal,1880 W San Carlos St,San Jose,CA,95128.0,(408) 292-2786,0
Spiedo Restaurant,223 E 4th Ave,San Mateo ,CA,94401.0,(650) 375-0818,21 Studio Nail,21 King St,Chappaqua,NY,10514.0,(914) 238-8688,0
Buca di Beppo,122 Kentlands Blvd,Gaithersburg ,MD,20878.0,(301) 947-7346,Parkside Grille,884 Portola Rd,Portola Valley,CA,94028.0,(650) 529-9007,0
Katana Steak,3345 Lenox Rd NE,Atlanta ,GA,30326.0,(404) 869-1888,La Baguette,170 Stanford Shoppng Ctr,Palo Alto,CA,94304.0,(650) 321-0535,0
Imperial China Buffet,5138 Peach St,Erie ,PA,16509.0,(814) 864-3700,Seasonal Celebrations,Serving Belmont and the Surrounding Area,Phone number,,94403.0,,0
Corner Bakery Cafe,3393 Peachtree Rd NE Ste 4033,Atlanta ,GA,30326.0,(404) 266-8282,Concord Equestrian Center,14550 El Camino Real,Del Mar,CA,92014.0,(858) 259-1148,0
Dougies BBQ Great Neck Inc,105 Middle Neck Rd,Great Neck ,NY,11021.0,(516) 773-3684,Nutrishop Redwood City,1065 El Camino Real,Redwood City,CA,94063.0,(650) 690-8077,0
El Dorado Assembly Restaurant,386 Warrenton Rd,Fredericksburg ,VA,22405.0,(540) 368-3907,Bonsai Japanese Cuisine,3401 W El Camino Real,Atherton,CA,94027.0,(650) 367-6547,0
McDonald's,400 N Main St,Mc Lean ,IL,61754.0,(309) 874-2925,Swank,3400 Around Lenox Rd NE,Atlanta,GA,30326.0,(404) 231-4114,0
Sbarro,3500 Peachtree Rd NE # J11,Atlanta ,GA,30326.0,(404) 923-6267,G&R Pest Control,Serving Reno and the Surrounding Area,Phone number,,,,0
Oriental Garden Gourmet Restaurant,503 W Rosemary St,Chapel Hill ,NC,27516.0,(919) 967-8818,A Deluxe Driving School LLC,Serving Mountain View and the Surrounding Area,Phone number,,95112.0,,0
Asian Temptation,23 Mamaroneck Ave,White Plains ,NY,10601.0,(914) 328-5151,Stresa Italian Restaurant,1524 Northern Blvd,Manhasset,NY,11030.0,(516) 365-6956,0
HomeTown Buffet,460 Huskie Dr,Albany ,MN,56307.0,(320) 845-7898,The Westchester,125 Westchester Ave,White Plains,NY,10601.0,(914) 421-1333,0
Itto Sushi,2616 N Halsted St,Chicago ,IL,60614.0,(773) 938-0395,Weights + Measures,2808 Caroline St,Houston,TX,77004.0,(713) 654-1970,0
Jennerstown Tasty Diner,1302 Pitt St,Jennerstown ,PA,15547.0,(814) 703-8062,Quaker Hill Tavern,61 Bedford Rd,Chappaqua,NY,10514.0,(914) 238-6416,0
La Fiesta Restaurante Mexicano,1824 S Church St,Burlington ,NC,27215.0,(336) 227-0144,Solid Flooring,Serving Palo Alto and the Surrounding Area,Phone number,,,,0
California Pizza Kitchen,1493 Saint Louis Galleria,Saint Louis ,MO,63117.0,(314) 863-4500,Connecticut Sandwich Company,78 Pine St,New Canaan,CT,6840.0,(203) 972-9166,0
Seven's Turkish Grill,158 W 72nd St,New York ,NY,10023.0,(212) 724-4700,Eyeworks of San Mateo,214 S B St,San Mateo,CA,94401.0,(650) 343-2080,0
Ruby Tuesday,2535 23rd Ave S,Fargo ,ND,58103.0,(701) 232-2012,Cheriefoto,Serving Los Angeles and the Surrounding Area,Phone number,,90210.0,,0
Franklin Tap,325 S Franklin St,Chicago ,IL,60606.0,(312) 212-3262,Beautyful Lashes,415 N Crescent Dr,Beverly Hills,CA,90210.0,(310) 880-8932,0
Bandera Restaurant,3201 E Coast Hwy,Corona Del Mar ,CA,92625.0,(949) 673-3524,House of 29,39 S Greeley Ave,Chappaqua,NY,10514.0,(914) 861-2928,0
Cook's Seafood Restaurant & Market,751 El Camino Real,Menlo Park ,CA,94025.0,(650) 600-3490,Sushi 25,25 Elm St,New Canaan,CT,6840.0,(203) 966-1009,0
The Cheesecake Factory,3393 Peachtree Rd NE Suite 3076A,Atlanta ,GA,30326.0,(404) 816-2555,To Bang,1052 Kiely Blvd,Santa Clara,CA,95051.0,(408) 615-7540,0
Villa Pizza,6200 20th St Ste 470,Vero Beach ,FL,32966.0,(772) 567-9780,Saffron,230 S Beverly Dr,Beverly Hills,CA,90212.0,(310) 248-5211,0
Polo Deli,2916 Cardinal Dr,Vero Beach ,FL,32963.0,(772) 231-4091,Diddy Riese,926 Broxton Ave,Los Angeles,CA,90024.0,(310) 208-0448,0
Zodiac Restaurant,3393 Peachtree Rd NE,Atlanta ,GA,30326.0,(404) 266-8200,Prima Deli & Catering,31 Lake St,White Plains,NY,10603.0,(914) 328-0904,0
Bissell Mansion Restaurant And Dinner Theatre,4426 Randall Pl,Saint Louis ,MO,63107.0,(314) 533-9830,Gruber Painting,Serving Mountain View and the Surrounding Area,Phone number,,,,0
Round Table Pizza,1084 Foster City Blvd,Foster City ,CA,94404.0,(650) 341-7457,Take a Bao,10250 Santa Monica Blvd,Los Angeles,CA,90067.0,(310) 551-1100,0
Harvey B's,4506 Columbia Ave,Dallas ,TX,75226.0,(469) 334-0980,Koreana Beauty Salon,1998 Homestead Rd,Santa Clara,CA,95050.0,(408) 246-3300,0
HuHot Mongolian Grill,5430 E Arrowhead Pkwy,Sioux Falls ,SD,57110.0,(605) 221-1200,Olives,969-J Edgewater Blvd,Foster City,CA,94404.0,(650) 312-1515,0
The Bagel Restaurant & Deli,3107 N Broadway St,Chicago ,IL,60657.0,(773) 997-2333,Bellagio Spas & Salons,21165 Newport Coast Dr,Newport Beach,CA,92657.0,(949) 720-9277,0
Kinzie Chophouse,400 N Wells St,Chicago ,IL,60654.0,(312) 822-0191,JIMMY,610 N Rush St,Chicago,IL,60611.0,(312) 660-7191,0
Vitek's Bar B Q Inc,3428 Franklin Ave,Waco ,TX,76710.0,(254) 235-2415,"NEX II, Home and Garden Center",Edquiba Rd,Moffett Field,CA,94035.0,(650) 603-9927,0
Backyard Bar,213 S Rosemary Ave,West Palm Beach ,FL,33401.0,(561) 339-2444,Salon ZEN AVEDA,9100 Strada Place,Naples,FL,34108.0,(239) 260-8301,0
Casa Bianca Pizza Pie,1650 Colorado Blvd,Los Angeles ,CA,90041.0,(323) 505-4961,Kilted Mermaid,1937 Old Dixie Hwy,Vero Beach,FL,32960.0,(772) 569-5533,0
Mamie's Cafe & Homemade,110 E Allegheny St,Martinsburg ,PA,16662.0,(814) 793-9122,Tazza Cafe,408 Main St,Ridgefield,CT,6877.0,(203) 403-3332,0
Splendid Diner,106 Mamaroneck Ave,White Plains ,NY,10601.0,(914) 288-0000,St. Louis Smoothie,9914 Clayton Rd,Saint Louis,MO,63124.0,(314) 432-7009,0
Ruben's Empanadas,15 Bridge St,New York ,NY,10004.0,(212) 509-3825,Nordstrom,1453 Saint Louis Galleria,St Louis,MO,63117.0,(314) 884-4900,0
Fifth Street Saloon,48 S 5th St,Barron ,WI,54812.0,(715) 418-2038,Express Power Lunch,Financial District,Wall St & Pearl St,,10005.0,Phone number,0
Buffalo Wild Wings,4999 Old Orchard Ctr Unit D-150,Skokie ,IL,60077.0,(847) 570-0333,Pilates on the Green,26 Village Grn,Bedford,NY,10506.0,(914) 205-3406,0
Cafe Muse By Mosaic Foods,704 1st Ave N,Fargo ,ND,58102.0,(701) 232-3821,Taj Palace,95 S Broadway,White Plains,NY,10601.0,(914) 437-5900,0
Las Islas Marias,4770 W Grand Ave,Chicago ,IL,60639.0,(773) 920-3896,Falafel Bite,500 Lawrence Expy,Sunnyvale,CA,94085.0,(408) 736-2411,0
Lucky Wok,1810 Van Vranken Ave,Schenectady ,NY,12308.0,(518) 381-9888,The Atrium,975 Anderson Hill Rd,Rye Brook,NY,10573.0,(914) 935-6600,0
Fishermen's Grotto,9 Fishermans Wharf,San Francisco ,CA,94133.0,(415) 673-7025,Makebs,401 S Olive Ave,West Palm Beach,FL,33401.0,(561) 651-7444,0
Umami Burger,,,,,(650) 321-8626,Jan Pearce Training,1545 Portola Rd,Woodside,CA,94062.0,(650) 464-6483,0
McNally's Irish Pub,6211 S Old Village Pl,Sioux Falls ,SD,57108.0,(605) 271-7170,Vespucci Ristorante Italiano,147 E 3rd Ave,San Mateo,CA,94401.0,(650) 685-6151,0
Pelago,201 E Delaware Pl,Chicago ,IL,60611.0,(312) 280-0700,Balayage - Dallas,"8411 Preston Rd, Ste 102",Dallas,TX,75225.0,(904) 477-5778,0
Lomeli's Restaurant,2223 W Redondo Beach Blvd,Gardena ,CA,90247.0,(310) 464-4330,"Elizabeth Christensen, OD","6037 La Granada, Ste A",Rancho Santa Fe,CA,92067.0,(858) 756-3210,0
Mariela's Wine & Expresso Bar,71 Westchester Ave,Pound Ridge ,NY,10576.0,(914) 764-3488,CH Distillery,564 W Randolph St,Chicago,IL,60661.0,(312) 707-8780,0
Jim's Steak House,110 SW Jefferson Ave,Peoria ,IL,61602.0,(309) 673-5300,iDeviceMD,3330 Piedmont Rd NE,Atlanta,GA,30305.0,(678) 203-5994,0
Clarke's Charcoal Broiler,615 W El Camino Real,Mountain View ,CA,94040.0,(650) 967-0851,Studio One Eleven,"1051 Glendon Ave, Ste 111",Westwood Village,CA,90024.0,(310) 251-6177,0
Golden Corral Restaurants,7500 Peach St,Erie ,PA,16509.0,(814) 864-3488,Blue Dot Water,Serving Reno and the Surrounding Area,Phone number,,,,0
Gallaway's Restaurant,4 Leonard Ct,Hesston ,KS,67062.0,(620) 327-2447,Men Haircuts by Lilian,593 Woodside Rd,Redwood City,CA,94061.0,(650) 365-3563,0
Nola Restaurant & Bar,535 Ramona St,Palo Alto ,CA,94301.0,(650) 328-2722,Bangkok Bay Thai Cuisine,825 El Camino Real,Redwood City,CA,94063.0,(650) 365-5369,0
China Super Buffett,512 N Main St,Newton ,KS,67114.0,(316) 283-8088,"Boyarsky Harvey, DMD",888 Middlefield Rd,Palo Alto,CA,94301.0,(650) 327-3172,0
Duffy's of West Palm Beach,225 Clematis St,West Palm Beach ,FL,33401.0,(561) 249-1682,Autobahn Motorsport Haus,Serving Mountain View and the Surrounding Area,Phone number,,,,0
China Inn,3249 Jefferson Davis Hwy Ste 103,Stafford ,VA,22554.0,(540) 659-1700,Burger House,6913 Hillcrest Ave,Dallas,TX,75205.0,(214) 361-0370,0
Savannah's,1103 Scalp Ave,Johnstown ,PA,15904.0,(814) 266-4790,Mandarin House Restaurant,9150 Overland Plz,Overland,MO,63114.0,(314) 427-8070,0
Nick's Restaurant & Catering,4 Starr St,Danbury ,CT,6810.0,(203) 617-0647,DSW Designer Shoe Warehouse,1 Buckhead Loop Northeast,East Atlanta,GA,30326.0,(404) 869-4166,0
Wing Street,304 W Washington St,East Peoria ,IL,61611.0,(309) 699-6832,Kona Grill,8687 N Central Exwy,Dallas,TX,75225.0,(214) 369-7600,0
Sky Port Diner,35 Freemans Bridge Rd,Schenectady ,NY,12302.0,(518) 382-9773,Bill Cohen - State Farm Insurance Agent,325 Sharon Park Dr,Menlo Park,CA,94025.0,(650) 854-0500,0
Lupe's Tacos,12333 Ticonderoga Rd,Houston ,TX,77044.0,(281) 458-4949,Avenue Restaurant,12 N Meramec,Clayton,MO,63105.0,(314) 727-4141,0
On The Border Mexican Grill & Cantina,1770 Camino De La Reina,San Diego ,CA,92108.0,(619) 573-4589,Copia Home and Garden,475 Smith Ridge Rd,Vista,NY,10590.0,(914) 533-7242,0
Blue Front BBQ,1132 N Dixie Hwy,West Palm Beach ,FL,33401.0,(561) 833-6651,The Mac Shop,21A Trolley Sq,Wilmington,DE,19806.0,(888) 947-6227,0
Pappadeaux Seafood Kitchen,3950 Trailmobile Dr,Houston ,TX,77013.0,(281) 821-7684,At Leisure Travel,"Portola Valley, CA",Phone number,,94025.0,,0
Outback Steakhouse,66 31st Ave,San Mateo ,CA,94403.0,(650) 287-4329,Finger Nail,519 Plandome Rd,Manhasset,NY,11030.0,(516) 365-5115,0
Wang's Chinese Cafe,6033 Luther Ln,Dallas ,TX,75225.0,(214) 265-1688,Glazed & Infused,30 E Hubbard St,Chicago,IL,60611.0,(312) 226-5556,0
Chappaqua Restaurant & Cafe,10 S Greeley Ave,Chappaqua ,NY,10514.0,(914) 238-3869,M Waterfront Grille,4300 Gulf Shore Blvd N,Naples,FL,34103.0,(239) 263-4421,0
Pizza Inn,3207 Highway 65 N,Mc Gehee ,AR,71654.0,(870) 222-5292,Dixie Grill & Bar,5101 S Dixie Hwy,West Palm Beach,FL,33405.0,(561) 586-3189,0
Brendas Corner Restaurant,2055 E State Route K,West Plains ,MO,65775.0,(417) 256-5017,Michelle Damas Photography,Serving Mountain View and the Surrounding Area,Phone number,,,,0
Round Table Pizza,,,,,,Kostas Cafe,4914 Greenville Ave,Dallas,TX,75206.0,(214) 987-3225,0
Pizza Corner Frozen Pizza,PO Box 369,Saint Cloud ,MN,56302.0,(800) 666-9455,Sea Jasmine Thai Cuisine,971 Sebastian Blvd,Sebastian,FL,32958.0,(772) 589-6393,0
Porterhouse,60 E 3rd Ave,San Mateo ,CA,94401.0,(650) 579-5911,Bellissima Hair Salon,4060 S El Camino Real,San Mateo,CA,94403.0,(650) 784-5664,0
Taqueria Las Cazuelas,517 E 4th Ave,San Mateo ,CA,94401.0,(650) 685-2602,The Resort at Pelican Hill,22701 S Pelican Hill Rd,Newport Coast,CA,92657.0,(855) 315-8214,0
Fishermen's Grotto,9 Fishermans Wharf,San Francisco ,CA,94133.0,(415) 673-7025,"Michelle Boscia, Long Term Care Insurance Specialist",7 Oliver Rd,Bedford,NY,10506.0,(914) 589-8074,0
B Street & Vine,320 S B St,San Mateo ,CA,94401.0,(650) 347-8463,Pizza by Elizabeths,3801 Kennett Pike,Wilmington,DE,19807.0,(302) 654-4478,0
Oklahoma Boy's BBQ,,,,,(316) 452-5535,First Professional Dry Cleaners,16 Bedford Rd,Chappaqua,NY,10514.0,(914) 238-1645,0
Sadie's Bar and Grill,1420 Old Main,Newton ,KS,67114.0,(316) 841-9424,Settebello Pizzeria Napoletana,7864 East Coast Hwy,Newport Coast,CA,92657.0,(949) 715-2072,0
Serapio's Mexican Restaurant,1637 E US Highway 66,El Reno ,OK,73036.0,(405) 262-7744,Nadoz Bakery Cafe,12 the Blvd,St. Louis,MO,63117.0,(314) 726-3100,0
Workshop Burgers,233 University Ave,Palo Alto ,CA,94301.0,(650) 328-7437,River Street Sweets,3500 Peachtree St,Atlanta,GA,30326.0,(404) 364-0810,0
Clayton's Bakery & Deli,11744 Manchester Rd,Saint Louis ,MO,63131.0,(314) 690-2765,Darbar Indian Cuisine,129 Lytton Ave,Palo Alto,CA,94301.0,(650) 321-6688,0
Obika Mozzarella Bar,10250 Santa Monica Blvd,Los Angeles ,CA,90067.0,(310) 556-2452,Tory Electric,Serving Bedford and the Surrounding Area,Phone number,,10506.0,,0
Sky Harbor Steak House,1321 N Park Rd,Peoria ,IL,61604.0,(309) 674-5532,Evolution Motorcycles,2385 De La Cruz Blvd,Santa Clara,CA,95050.0,(408) 453-6386,0
Ham's Restaurant,310 W Franklin St,Chapel Hill ,NC,27516.0,(919) 933-3767,Tanta,118 W Grand Ave,Chicago,IL,60654.0,(312) 222-9700,0
Villarina's Pasta,22 Shelter Rock Ln # 34,Danbury ,CT,6810.0,(203) 917-4463,The Art of Shaving,"3393 Peachtree Rd, Ne",Atlanta ,GA,30326.0,(404) 841-8665,0
IHOP,510 El Camino Real,Belmont ,CA,94002.0,(650) 610-8887,Primebar,155 N Wacker Dr,Chicago,IL,60606.0,(312) 884-0000,0
Hardee's,1702 Freeway Dr,Reidsville ,NC,27320.0,(336) 342-2838,Coffee & More,100 S Murphy Ave,Sunnyvale,CA,94086.0,(408) 245-1900,0
Gino's Pizza,1334 Harper Rd,Beckley ,WV,25801.0,(304) 253-3137,SUGARED + BRONZED,9873 S Santa Monica Blvd,Beverly Hills,CA,90212.0,(424) 625-3969,0
Russian Family Restaurant,2086 Broadway St,Redwood City ,CA,94063.0,(650) 369-2950,Cherry Bomb Catering,Serving Reno and the Surrounding Area,Phone number,,,,0
Wingman,104 Nc 54,Carrboro ,NC,27510.0,(919) 928-9200,Anchor Auto Body,1028 W Evelyn Ave,Sunnyvale,CA,94086.0,(408) 737-8673,0
Olive Garden Italian Restaurant,,,,,,Starbucks,820 Woodside Rd,Redwood City,CA,94061.0,(650) 299-0327,0
Double B Bar-B-Que,2800 Fm 455 W,Sanger ,TX,76266.0,(940) 458-3321,Gyu-Kaku Japanese BBQ,169 Main St,White Plains,NY,10601.0,(914) 358-5206,0
Beef 'O' Bradys,782 S US Highway 1,Vero Beach ,FL,32962.0,(772) 794-2059,Starbucks,88 Park St,New Canaan,CT,6840.0,(203) 972-8110,0
Marvin's Place,529 W Choctaw St,Dumas ,AR,71639.0,(870) 382-3155,The Sandwich Spot,121 S Francis St,Sunnyvale,CA,94086.0,(408) 962-0463,0
Cracker Barrel Old Country Store,2112 Harper Rd,Beckley ,WV,25801.0,(304) 256-3820,Douglas Andrew Gonzalez,Serving Menlo Park and the Surrounding Area,Phone number,,,,0
Palms Grill,110 SW Arch St,Atlanta ,IL,61723.0,(217) 648-2233,Pawfection Pet Care,Serving Mountain View and the Surrounding Area,Phone number,,,,0
Gourmet To Go,9828 Clayton Rd,Saint Louis ,MO,63124.0,(314) 993-5442,"Lahijani Saul Soheil, MD","2080 Century Park E, Ste 501",Los Angeles,CA,90067.0,(310) 550-6886,0
Bagel Street Cafe,346 W Maude Ave,Sunnyvale ,CA,94085.0,(408) 738-1856,Brickwell Cycling & Multisports,1463 Northern Blvd,Manhasset,NY,11030.0,(516) 439-5553,0
Bodrum Cafe,383 Castro St,Mountain View ,CA,94041.0,(650) 396-7010,Yip Yick Ming Inc,18 Beaver St,New York,NY,10004.0,(212) 480-9010,0
Short Sugars Drive In,1328 S Scales St,Reidsville ,NC,27320.0,(336) 342-7487,"Winston Vaughan, MD","3351 El Camino Real, Ste 200",Atherton,CA,94027.0,(650) 399-4630,0
Brunetti's Express Restaurant,9167 Atlee Rd,Mechanicsville ,VA,23116.0,(804) 730-2339,Joint Effort Chiropractic,222 Westchester Ave,White Plains,NY,10604.0,(914) 368-7668,0
Hunan Garden 88 Inc,86 N State Rd,Briarcliff Manor ,NY,10510.0,(914) 923-1628,Southeast Kitchen,1901 Delaware Ave,Wilmington,DE,19806.0,(302) 691-7728,0
To Chau,853 Villa St,Mountain View ,CA,94041.0,(650) 961-8069,21 Studio Nail,21 King St,Chappaqua,NY,10514.0,(914) 238-8688,0
Peet's Coffee & Tea,899 Santa Cruz Ave,Menlo Park ,CA,94025.0,(650) 325-8989,Grand Cru Wine Merchants,840 S Waukegan Rd,Lake Forest,IL,60045.0,(847) 295-9463,0
Manucci's,,Montauk ,NY,11954.0,(631) 668-4455,Eastern Currents Acupuncture PC,8 Hillcrest Ave,Manhasset,NY,11030.0,(201) 210-9553,0
