ID_A,ID_B,Flag,Name_A,Name_B,Zipcode_A,Zipcode_B,Address_A,Address_B
4066,2165,,Spindletop,Fairbanks Ranch Country Club,77002,92067,1200 Louisiana St,15150 San Dieguito Rd
1261,4197,,Tam's Cuisine of China,District 7 Pizzeria,94044,77003,494 Manor Plz,2117 Chenevert St
4906,341,,Rock Bottom In Naples,Amm Tech Solutions,34108,,871 Vanderbilt Beach Rd,Serving Sunnyvale and the Surrounding Area
3930,4561,,Grind and Grape,Dr. Tattoff,32963,30326,925 Bougainvillea Ln,3637 Peachtree Rd
9641,2810,,Oliver's Pizza & Pub,Ise Japanese Restaurant,61616,10005,1231 E Samuel Ave,56 Pine St
11607,1546,,Thai Express,Walmart Distribution Center,20878,89434,351 Kentlands Blvd,2155 USA Pkwy
660,954,,Millie Ko,Best Of Burma,94061,94401,38 Woodside Plz,146 E 3rd Ave
5822,2963,,California Pizza Kitchen,Copper Face Jacks,63117,10601,1493 Saint Louis Galleria,166 Mamaroneck Ave
720,3473,,Prima Deli,Red Window Coffee,94061,90210,2115 Roosevelt Ave,Studio City
1861,5540,,Cafe Venezia,The Mind Body Whisperer,90067,19807,10250 Santa Monica Blvd,230 Presidential Dr
811,2015,,Angelicas,The Peninsula Beverly Hills,94063,90212,863 Main St,9882 S Santa Monica Blvd
10973,1946,,Gino's Pizza,SUGARED + BRONZED,25801,90212,1334 Harper Rd,9873 S Santa Monica Blvd
7897,2903,,Cafe Muse By Mosaic Foods,Taj Palace,58102,10601,704 1st Ave N,95 S Broadway
2019,5461,,Fresco Trattoria,Oddity Bar,92009,19805,3263 Camino De Los Coches,500 Greenhill Ave
7995,3391,,Good Luck Chicken & Seafood,Chicago Locksmiths,75215,,2642 Malcolm X Blvd,Serving Chicago and the Surrounding Area
4569,3347,,Delight,Sixty Five Chinese Restaurant,30326,60606,3393 Peachtree Rd NE Ste 1005,201 W Madison St
3074,3290,,McCarty's,Lyric Opera of Chicago,33480,60606,50 Cocoanut Row,20 N Wacker Dr
10069,2264,,Pie Five Pizza Co,Webb Ranch Farmers Market,67207,94028,"2755 New Maze rd, Wichita KS, 67207",2720 Alpine Rd
4449,2998,,Zodiac Restaurant,Prima Deli & Catering,30326,10603,3393 Peachtree Rd NE,31 Lake St
1422,5828,,Shiok Singapore Kitchen,World Cup Gymnastics,94025,10514,1137 Chestnut St,170 Hunts Ln
8448,3350,,Pappasito's Cantina,Potbelly Sandwich Shop,77069,60604,7050 Fm 1960 Rd W,175 W Jackson Blvd
2130,1840,,Flea Street Cafe,El Grullense II,94025,94063,3607 Alameda De Las Pulgas,2940 Middlefield Rd
5757,5837,,Haveli Indian Restaurant,Cosmetic Boutique,63132,10514,9720 Page Ave,18 S Greeley Ave
735,3689,,Bay Cafe Restaurant & Banquets,Jorquera Sarah,94303,10506,1875 Embarcadero Rd,460 Old Post Rd
4514,2130,,Corner Bakery Cafe,Concord Equestrian Center,30326,92014,3393 Peachtree Rd NE Ste 4033,14550 El Camino Real
7847,3727,,King House Buffet,Formula,58102,10506,122 Broadway N,136 Long Ridge Rd
4080,1188,,Luling City Market,The Love Institute,77027,94301,4726 Richmond Ave,705 Cowper St
5529,4060,,La Casa Pasta,2nd Street Bistro,19702,34950,120 Four Seasons Pkwy,122 N 2nd St
8688,1629,,August Moon Chinese Restaurant,Horizon Window Fashions,72390,,108 Garland Ave,Serving Reno and the Surrounding Area
2755,175,,Cassidy's Irish Pub & Restaurant,Taqueria La Veracruzana,10019,95050,65 W 55th St,1510 Jackson St
3085,3628,,The Colony,Wendy S Closet,33480,10506,155 Hammon Ave,621 Old Post Rd
11276,946,,Space Aliens Grill & Bar,NB Beauty,58503,94401,1304 E Century Ave,405 N San Mateo Dr
5442,1011,,Magic Wok Restaurant,Revelry Indoor Cycling & Fitness,6840,94401,73 Elm St,10 E 3rd Ave
6002,4366,,Miyabi Asian Bistro,NorthPark Center,10570,75225,25 Wheeler Ave,8687 N Central Expy
642,344,,Tapioca Express,Aris Helicopters,94403,94035,2986 S Norfolk St,"Moffett Field, CA 94035"
11671,4021,,Cava Grill,Brain Freeze,20878,32960,213 Kentlands Blvd,2217 8th Ave
5278,5855,,Dave's Goldmine Mexican Grill,Luther Electric corp,11743,10514,"233-B  Broadway Greenlawn, Huntington NY, 11743",Serving Chappaqua and the Surrounding Area
11762,5195,,Brock Convenience Station,Lily And Max Pet Boutique,63555,11724,RR 2 Box 138,147 Main St
2768,4622,,China Chalet,Brickwell Cycling & Multisports,10004,11030,90 Broad St,1463 Northern Blvd
7514,1421,,Perkins Restaurant & Bakery,Bagel Street Cafe,15533,94025,167 Post House Rd,746 Santa Cruz Ave
3788,3082,,Subway,Darbster Bistro,78257,33405,23535 W Interstate 10,8020 S Dixie Hwy
2478,5015,,Beachcomber Cafe,Palm Court,92657,60611,15 Crystal Cv,140 E Walton Pl
9434,2939,,Double B Bar-B-Que,Gyu-Kaku Japanese BBQ,76266,10601,2800 Fm 455 W,169 Main St
4809,748,,Olive Garden Italian Restaurant,Starbucks,,94061,,820 Woodside Rd
10733,1098,,Legends,Amber Dhara,76424,94301,3319 W Walker St,150 University Ave
2509,2539,,Modo Mio Restaurant Cucina Restica,SUGARED + BRONZED,92657,90212,7946 E Coast Hwy,9873 S Santa Monica Blvd
4752,5265,,Kasumi Sushi,Cold Spring Harbor Laboratory,11021,11724,25 Cuttermill Rd Ste 5,"Cold Spring Harbor, NY 11724"
7109,5696,,Taco Bell,Shaw Park,73018,63117,1782 S 4th St,Clayton
10188,4801,,El Paso,Fuji Sushi Bar & Asian Bistro,56375,34109,200 2nd St NE,6355 Naples Blvd
10309,4305,,Casey's Carryout Pizza,Chiladas,56340,75225,421 4th St,4448 Lovers Ln
10034,2678,,Applebee's,Marque Urgent Care,67114,92660,601 N Manchester Ave,2075 San Joaquin Hills Rd
4999,4144,,Itto Sushi,Weights + Measures,60614,77004,2616 N Halsted St,2808 Caroline St
711,646,,Rack and Roll BBQ Shaq,Great American Grill,94061,94404,20 Woodside Plz,2000 Bridgepointe Cir
8880,5999,,Mi Tierra Restaurant,Meatheads,18976,60045,111 Easton Rd,955 Rockland Rd
1700,2992,,Applewood,Joint Effort Chiropractic,94025,10604,989 El Camino Real,222 Westchester Ave
2697,2219,,Cassidy's Irish Pub & Restaurant,Amigos Grill Cocina Mexicana Y Cantina,10019,94028,65 W 55th St,3130 Alpine Rd
11730,275,,Main Street Cafe,Gulzaar Halal,63555,95128,131 S Main St,1880 W San Carlos St
4648,5106,,Pearl East,Cold Spring Harbor Library,11030,11724,1191 Northern Blvd,95 Harbor Rd
9624,4985,,Lariat Steakhouse & Grill,Signature Lounge,61614,60611,2232 W Glen Ave,875 N Michigan Ave
7755,667,,Tiny's Restaurant,Great Clips,1432,94404,2 Groton School Rd,929 E Hillsdale Blvd
2072,4202,,Lourdes Mexican Food,The Grove,92007,77010,2113 San Elijo Ave,1611 Lamar St
11459,348,,Vitek's Bar B Q Inc,"NEX II, Home and Garden Center",76710,94035,3428 Franklin Ave,Edquiba Rd
1002,2711,,Bella Mangiata Caffe,The Place,94401,92625,233 Baldwin Ave,2920 E Coast Hwy
8064,1082,,Kendrick's Barbeque,Stript Wax Bar,75215,94301,1221 Pennsylvania Ave,524 Bryant St
9312,2146,,Pellegrino's Italian Restaurant,Floral Palette,76258,92067,212 S Washington St,16079 San Dieguito Rd
10751,2256,,A M Donut & Croissants,Portola Valley Hardware,79504,94028,425 Interstate 20 E,112 Portola Rd
8913,724,,Perkins Restaurant & Bakery,Broadway Masala,54868,94063,2023 Cenex Dr,2397 Broadway St
7094,773,,Simple Simon's Pizza,Savvy Bike,73092,94061,512 E Highway 62,61 Nueva Ave
1443,5945,,Koma Sushi Restaurant,Martin Stankiewicz Gallery,94025,10514,211 El Camino Real,142 King St
3616,594,,Friendly's,California Windsurfing,10549,94404,259 E Main St,Serving Foster City and the Surrounding Area
9284,2189,,Olde Towne Bar & Grille,Lomas Santa Fe Executive Golf Course,61734,,410 Locust St,1580 Sun Valley Road
7291,3039,,Cousin Larry's Cafe,Martine Gourmet Deli,6810,10601,1 Elm St,168 Martine Ave
410,550,,El Mezquite Taqueria,Peninsula BJJ Brazilian Jiu-Jitsu,95050,94404,2323 The Alameda,1175 Chess Dr
2383,5103,,The Fish House,Harbor Mist,90210,11724,206 N Rodeo Dr,105 Harbor Rd
1396,4705,,Outback Steakhouse,Finger Nail,94403,11030,66 31st Ave,519 Plandome Rd
8273,5790,,Sakura,Serenity Spa,27288,10514,640 S Van Buren Rd,20 King St
2407,3955,,Panini Cafe,Di Mare Vero Beach,90210,32963,9601 Santa Monica Blvd,1517 Ocean Dr
10940,5481,,Gino's Pizza,Kozy Korner Restaurant,25801,19805,1334 Harper Rd,906 N Union St
11547,191,,Lone Star Steakhouse,Ilbunjee #1,20878,95050,808 W Diamond Ave,2325 El Camino Real
5314,6079,,The Clubhouse Steakhouse,Lake Forest Health & Fitness Center,11743,60045,320 W Jericho Tpke,1200 N Westmoreland Rd
6218,4254,,Love's Yogurt & Salads,Project Pie,60035,75225,585 Elm Pl,6030 Luther Ln
7487,4099,,Wing Street,Reef,15533,77006,16476 Lincoln Hwy,2600 Travis St
9204,3655,,Lin's Buffet,Coldwell Banker Residential Brokerage,61550,10506,"756 W Jackson St, Morton IL, 61550",Village Grn
3250,4986,,Kinzie Chophouse,JIMMY,60654,60611,400 N Wells St,610 N Rush St
1961,1306,,Blue Fin Sushi Bar,Espresso Bar,92024,94497,257 N El Camino Real Suite D & E,"130 Hillsdale Shopping Center,"
2644,3950,,Bella Luna Cafe,Big Apple Pizza,92661,34981,707 E Oceanfront,2311 S 35th St
11223,532,,China Wok,Chatime,27510,94404,104 Nc 54 Ste C,969A Edgewater Blvd
3301,2093,,Halsted Street Deli,Studio Felando,60606,92067,133 N Wells St,6012 Paseo Delicias
2525,2712,,Neapolitan,Makeup and Eyebrows by Kerry,92657,92625,6 Celano Ct,2600 E Coast Hwy
7052,5683,,Serapio's Mexican Restaurant,Nadoz Bakery Cafe,73036,63117,1637 E US Highway 66,12 the Blvd
4733,3726,,Krungtep Thai Bistro,Industrial Chemical Div of Leo Silfen,11021,10506,23 S Middle Neck Rd,136 Long Ridge Rd
3501,1054,,Bedford Village Pastry,The Stanford Theatre,10506,94301,426 Old Post Rd,221 University Ave
9990,5908,,Oklahoma Boy's BBQ,First Professional Dry Cleaners,,10514,,16 Bedford Rd
5033,3622,,Carmine's,Long Term Care Insurance,60611,10506,1043 N Rush St,14 East Way
8239,27,,Hardee's,Coffee & More,27320,94086,1702 Freeway Dr,100 S Murphy Ave
9242,4981,,Subway,Osteria Via Stato,61568,60654,600 W Pearl St,620 N State St
3086,676,,Polo Steakhouse,Automotive Buying Specialist,33480,94404,155 Hammon Ave,734 Niantic Dr
5814,3465,,Grassi's Deli and Ristorante,University of California Los Angeles - UCLA,63131,90095,10450 German Blvd,405 Hilgard Ave
11057,2457,,Perseco,The Nosh Of Beverly Hills,25801,90210,4072 Robert C Byrd Dr,9689 Santa Monica Blvd
934,4162,,Round Table Pizza,Treebeards,94401,77002,430 S Norfolk St,711 Louisiana St
456,2857,,Bodrum Cafe,Yip Yick Ming Inc,94041,10004,383 Castro St,18 Beaver St
9014,4289,,Straight 8 Bar,Pho Kitchen,54001,75225,594 US Highway 8,8687 N Central Expressway
302,1567,,Giorgio's Italian Food & Pizzeria,Reno iPhone & iPod Repair,95118,89434,1445 Foxworthy Ave,Serving Reno and the Surrounding Area
11796,1001,,El Charro,Bay Area iPhone Repair,65775,,1409 Mitchell Rd,Serving San Mateo and the Surrounding Area
3388,4360,,Round Table Pizza,Kostas Cafe,,75206,,4914 Greenville Ave
2785,6037,,Joseph's Restaurant,Jos A Bank,10004,60045,3 Hanover Sq,240 E Deerpath Rd
11438,1776,,Chuck E. Cheese's,"Fong Remington, MD",76710,94025,5106 W Waco Dr,1300 Crane St
3555,3560,,The Willows Restaurant,ShopHouse,10590,90024,920 Oakridge Cmns,1059 Broxton Ave
6384,5173,,Uncle Bill's Pancake And Dinner House,Eckhoff Adelaide,63139,11724,3427 S Kingshighway Blvd,75 Main St
2944,3437,,Graziella's Restaurant,In-N-Out Burger,10601,90024,95 S Broadway,922 Gayley Ave
10956,3877,,Sam's Hotdog Stand,Hobby Lobby,25801,78257,2046 Harper Rd,17903 La Cantera Pkwy
6222,378,,Ruby of Siam,Legacy Property Group,60035,,1849 2nd St,Serving Mountain View and the Surrounding Area
710,1807,,Sushi Plus,James Steele - Alain Pinel Realtors,94061,94025,30 Woodside Plz,Serving Menlo Park and the Surrounding Area
4273,5005,,Wang's Chinese Cafe,Glazed & Infused,75225,60611,6033 Luther Ln,30 E Hubbard St
10157,4075,,Pizza Corner Frozen Pizza,Sea Jasmine Thai Cuisine,56302,32958,PO Box 369,971 Sebastian Blvd
767,4124,,De Carlos Place,District 7 Grill,94061,77003,2139 Roosevelt Ave,1508 Hutchins St
9883,3466,,Lorie's Wildridge Restaurant,Franklin Canyon Park,16506,90210,5901 W Ridge Rd,2600 Franklin Canyon Dr
6190,2126,,Khayat Lake House,28 West,60044,92091,525 Rockland Rd,5690 Cancha de Golf
10643,270,,Jt's BBQ,Nasseri Auto Tech,73566,95050,1215 E St,Serving Santa Clara and the Surrounding Area
4070,5261,,Sake Lounge,Primo TV Installation/ Primo Home Automation,77002,,550 Texas St,Serving Manhattan and the Surrounding Area
6242,2088,,Ben Lee's Cafe,Orphaned Objects,56172,92067,2630 Broadway Ave,6525 Helen Woodward Way
1259,3710,,Iron Gate Restaurant,"William L Hines, Electrical Contractor",94002,10506,1360 El Camino Real,444 Old Post Rd
3419,5391,,EMC Seafood & Raw Bar,Albano Appliance & Service LLC,90020,10576,3500 W 6th St #101,83 Westchester Ave
11092,1566,,Amedeos Italian Restaurant,"D & S Tow, Inc",27606,89434,3905 Western Blvd,Serving Sparks and the Surrounding Area
5991,2116,,Ossobuco Restaurant,Rancho Santa Fe Estate and Fine Jewelers,10549,92091,213 E Main St,6024 Paseo Delicias
11158,1887,,Sandwich,Vampire Lounge & Tasting Room,27516,90212,407 W Franklin St,9865 S Santa Monica Blvd
8216,1182,,El Caporal Mexican Grill,Yogurtland,27320,94301,104 Turner Dr,494 University Ave
11191,4146,,Quinn's,Piola,27516,77006,100 Westgreen Dr,3201 Louisiana St
6260,4148,,Genadori's Pizza,Baoz Dumpling,56151,77002,650 College Ave,1001 Fannin St
6262,2461,,Leota Cafe,Il Cielo,56153,90211,11768 110th St,9018 Burton Way
8355,3492,,Luling City Market,DesignBySig,77027,91403,4726 Richmond Ave,15228 Hartsook St
4728,5732,,Matteo's of Roslyn,Nachomamas Tex-Mex,11576,63105,88 Mineola Ave,9643 Manchester Rd
9639,2380,,Other Dawg,Cubberley Cafe,61616,94305,4408 N Prospect Rd,485 Lasuen Mall
9736,5437,,Phillips Avenue Diner,JoyRide Cycling Studio,57104,6877,121 S Phillips Ave,62 Danbury Rd
1135,3225,,Lulu's Mexican Food,Allora,94301,33407,855 El Camino Real,402 Northwood Rd
4827,3900,,Lulu B's Grill,Ulta,34108,78257,8795 Tamiami Trl N,17414 La Cantera Pkwy
716,4239,,Chevys Fresh Mex,Julia Ideson Building,94061,77002,2907 El Camino Real,500 McKinney St
7857,3991,,Dakota Slim Food's,Manatee Island Bar and Grill,58103,34949,1919 19th St S,1640 Seaway Dr
10850,1631,,Tommy's Rainy Lake Saloon,Overhead Door Co. of Sierra Nevada-Reno Inc.,55792,,407 Chestnut St,Serving Reno and the Surrounding Area
7847,1004,,King House Buffet,Burlingame Independent,58102,94402,122 Broadway N,850 S Amphlett Blvd
4873,3489,,Marchese Anthony Ten Best Restaurants.Com,Miele Appliance Repair LA,34108,90210,476 Pine Ave,Serving Los Angeles and the Surrounding Area
5428,4213,,La Familia Katonah,The Continental Club,10536,77002,280 Katonah Ave,3700 Main St
7312,2705,,Lago Cucini Italiana,Savory Spice Shop,6811,92660,45 Hayestown Rd,928 Avocado Ave
7461,1073,,Rey Azteca,The Chocolate Garage,15904,94301,736 Scalp Ave,654 Gilman St
7602,4713,,Bertucci's,Louis Vuitton,1752,11030,SOLOMON Pond Mall,2120 Northern Blvd
8351,6041,,Barry's Pizza,Lake Forest Sports Cars,77057,60044,6003 Richmond Ave,990 N Shore Dr
5765,1310,,Uncle Bill's Pancake And Dinner House,Carlmont Ace Hardware,63139,94002,3427 S Kingshighway Blvd,1029 Alameda de las Pulgas
3460,4013,,The Cheesecake Factory,The Twisted Pickle,91403,32960,15301 Ventura Blvd,8180 US Hwy 1
8864,2489,,Premier Pizza,Caffe Roma,18974,90210,297 Countryside Ct,350 N Canon Dr
6768,6050,,High Plains Camping,The Salon Ltd,67748,60045,462 US Highway 83,588 N Western Ave
7235,718,,Dragon Cheng,Lockworks Unlimited,6810,94061,132 West St,Serving Redwood City and the Surrounding Area
650,1776,,Lucias,"Fong Remington, MD",94061,94025,1725 Woodside Rd,1300 Crane St
2713,1483,,Harry's Cafe & Steak,Dolly and Shyama Threading Salon,10004,94025,1 Hanover Sq,1155 Chestnut St
10662,5475,,Mel's Diner,8th & Union Kitchen,73566,19805,801 13th St,801 N Union St
329,138,,House of Egg Roll,Sweet Tomatoes,95050,94086,1686 Lafayette St,1210 Kifer Rd.
7698,2623,,Dario's Brick Oven Ristorante,Sweet Skin Studio Corona Del Mar,1462,92625,310 Massachusetts Ave,436 Heliotrope Ave
6753,3826,,Aiimans Bar-B-Que,The Lion & Rose,22401,78541,2022 Plank Rd,17627 La Cantara Pkwy
5030,993,,The Cheesecake Factory,"Chrystle Cu, DDS",60611,94401,875 N Michigan Ave,"126 2nd Ave, Ste 102"
1390,5941,,Lahmacun Pizzeria Medtrranean,Prescriptions For Fitness,94403,10514,35 Laurie Meadows Dr,255 King St
9675,801,,Hot Stuff,Five Points Tire Imports,57104,94063,3700 N Potsdam Ave,2115 El Camino Real
7796,3383,,Great Wall Chinese Restaurant,"Priya Setty, DDS",58103,60606,1617 University Dr S,223 W Jackson Blvd
9860,4542,,B W's Grill,Buckhead Club,16415,30326,6467 Sterrettania Rd,3344 Peachtree Rd NE
3808,3537,,General Public,Bel Air Presbyterian Church,78257,90049,17619 La Cantera Pkwy # 102,16221 Mulholland Dr
7219,4564,,Nick's Restaurant & Catering,DSW Designer Shoe Warehouse,6810,30326,4 Starr St,1 Buckhead Loop Northeast
8846,4790,,Taormina's Pizza & Panini,LongHorn Steakhouse,18954,34108,130 Almshouse Rd Ste 501,8010 Trail Blvd
5782,1140,,Pad Thai,Garden Court Hotel,63128,94301,12676 Lamplighter Square Shpg Ctr,520 Cowper St
2145,5533,,Cha Cha Cha,Fabrizio Salon & Spa,94117,19806,1801 Haight St,1604 W 16th St
10359,20,,Marvin's Place,The Sandwich Spot,71639,94086,529 W Choctaw St,121 S Francis St
4139,6056,,Thai Cuisine,Williams-Sonoma,77002,60045,914 Main St,271 Market Sq
7232,4692,,Della Francesca,Don Joe Auto Body,6810,11023,35 Lake Ave,247 East Shore Road
1483,2139,,Flea Street Cafe,PLUSH Sunless Tanning Service,94025,92067,3607 Alameda De Las Pulgas,"San Diego, CA 92067"
1624,2890,,Hayward Design Center,Clipper City - Manhattan by Sail,94025,10004,1158 Chestnut St,Slip 2 at Battery Park
10999,5439,,Iron Works Barbeque,Ridgefield Running Company,,6877,,88 Danbury Rd
1089,3248,,Round Table Pizza,Blackwood BBQ,94301,60606,263 University Ave,305 W Lake St
10094,3238,,Burger King,Fumare Meats & Deli,67114,60661,620 SE 36th St,131 N Clinton St
1767,2338,,Akasaka Sushi,Russo Cafe,94025,94305,925 El Camino Real,555 Salvatierra Walk
10046,704,,Gallaway's Restaurant,Men Haircuts by Lilian,67062,94061,4 Leonard Ct,593 Woodside Rd
7364,3186,,J B's Roadhouse,Mellow Mushroom,15501,33401,1830 N Center Ave,700 S Rosemary Ave
9039,2992,,Brunetti's Express Restaurant,Joint Effort Chiropractic,23116,10604,9167 Atlee Rd,222 Westchester Ave
788,1625,,Little India Restaurant,Preferred Auto Care,94063,,917 Main St,Serving Sparks and the Surrounding Area
5685,2150,,Lombardo's Trattoria,Lomas Santa Fe Country Club,,92075,,1505 Lomas Santa Fe Drive
7976,873,,Dallas Tortilla & Tamale Factory,31st Union,75203,94401,309 N Marsalis Ave,5 S Ellsworth St
5010,55,,Las Islas Marias,Falafel Bite,60639,94085,4770 W Grand Ave,500 Lawrence Expy
5886,4024,,Lobo's Cafe,Tiki Bar & Grill,10514,32958,59 King St,1130 Indian River Dr
6018,3417,,Azteca Restaurant,Bruin Plate,10549,90077,125 E Main St Ste 2,"Westwood, UCLA"
8180,5856,,Super Buffet,US Post Office,27320,10514,1537 Freeway Dr Ste 506,107 N Greeley Ave
11052,4129,,Felton Co,"CoCo Crepes, Waffles & Coffee - Midtown",25801,77002,1104 N Eisenhower Dr,218 Gray St
3490,4518,,Peet's Coffee & Tea,Shux,10506,30305,422 Old Post Rd,3330 Piedmont Rd NE
11475,1424,,Logan's Roadhouse,El Grullense,76711,94063,2806 W Loop 340,795 5th Ave
8474,4466,,Crawfish Inn,Sushi Bar Yu-ka,77044,30305,8237 C E King Pkwy,3330 Piedmont Rd NE
9536,1475,,River 1000,Namesake Cheesecake,61611,94025,1000 Riverside Dr,425 El Camino Real
11628,572,,Pho Bistro Vietnamese Noodles,Akisu Sushi Bar & Grill,20878,94404,239 Muddy Branch Rd,1457 Beach Park Blvd
1912,5442,,Carmines II,Purebread Deli,90025,19807,10463 Santa Monica Blvd,4001 Kennett Pike
1,339,,Tao Tao Restaurant,El Camino Mongolian BBQ,94086,95051,175 S Murphy Ave,3380 El Camino Real
9194,1218,,Woody's Groveland Family Restaurant6am,Gin Mon Restaurant,61535,94002,18706 Springfield Rd,1079 Alameda de Las Pulgas
2865,5876,,Olive Garden Italian Restaurant,Serge Dore Selections,,10514,,59 S Greeley Ave
31,956,,Denny's,Crawfish Fusion,94085,94401,814 W Ahwanee Ave,401 E 3rd Ave
8330,695,,Harris Drive Inn,Connoisseur Coffee Company,77026,94063,5517 Caplin St,2801 Middlefield Rd
5691,534,,John P Fields Restaurant,"Elina Brusilovsky, CPA",63105,94404,26 N Central Ave,950 Tower Ln
2637,2828,,Siena Restaurant & Bar,Haru Sushi,92661,10005,105 Main St,1 Wall St Ct
8569,3568,,Mama's Kitchen,E Appliance Repair Company,61832,90210,1228 Perrysville Ave,Serving Los Angeles and the Surrounding Area
843,436,,Round Table Pizza,Cooper & Gamble Real Estate,94401,,430 S Norfolk St,Serving Mountain View and the Surrounding Area
5302,3238,,Ralph's Italian Ices,Fumare Meats & Deli,11743,60661,362 New York Ave Unit A,131 N Clinton St
5097,3443,,Mariposa,Carpet Genie,60611,90024,737 N Michigan Ave,Serving Los Angeles and the Surrounding Area
10351,1603,,Hoots BBQ,Mabble Media Creative Agency,71654,,2008 Highway 65 N,Serving Reno and the Surrounding Area
7906,985,,Nine Dragons Restaurant / Slapshot Pizza & Subs,Dent Artist Paintless Dent Removal,58104,94402,4615 23rd Ave S,50 W 3rd Ave
7569,273,,Wendy's,International Auto Center Body Shop,15533,95050,135 N Breezewood Rd,1499 Lincoln St
3808,1900,,General Public,Beverly Hills Orthodontics,78257,90067,17619 La Cantera Pkwy # 102,2080 Century Park E
593,672,,Tai Wu Restaurant,Residence Inn by Marriott,94404,94404,1080 Foster City Blvd,2000 Winward Way
1390,5212,,Lahmacun Pizzeria Medtrranean,Cold Spring Harbor,94403,11724,35 Laurie Meadows Dr,3 Harbor Rd Ste B
11557,1263,,Good Fortune Cafe Restaurant,Village Cobbler,20878,94002,235 Kentlands Blvd,913 Villa Avenue
10618,5475,,China Dragon,8th & Union Kitchen,12303,19805,1702 Chrisler Ave Ste 10,801 N Union St
6590,4320,,Mountaineer Grille Inc,Royal Thai,26330,75206,166 Barnetts Run Rd,5500 Greenville Ave
2905,346,,Trevi Ristorante,The Rug Expert,10604,94035,11 Taylor Sq,Serving Mountain View and the Surrounding Area
4875,5900,,Rib City Grill,New Castle Auto Center,34108,10514,9191 Tamiami Trl N,25 S Bedford Rd
5688,3815,,Oceano Bistro,Life Time Fitness,63105,78257,44 N Brentwood Blvd,5639 Worth Pkwy
8861,477,,Osaka Sushi Cuisine Restaurant,Bay Area Beebusters,18966,,504 2nd Street Pike,Serving Mountain View and the Surrounding Area
6365,3404,,Chick-Fil-A,SHU Sushi House Unico,63127,90077,10722 Sunset Hills Plz,2932 1/2 Beverly Glen Circle
6326,3579,,Lorenzo's Trattoria,Near and Natural,63110,10506,1933 Edwards St,1 Court Rd
7772,1283,,Lucky Dragon II,Wat Po Thai Spa,1430,94002,2 S Pleasant St,2100 Carlmont Dr
5330,4984,,My Goodness Deli & Cafe,Julius Meinl,10576,60611,78 Westchester Ave,211 E Ontario St
8299,4109,,Doghouse Deli,Kim Tai Restaurant,27288,77002,637 Washington St,2602 Fannin St
4350,994,,Hibashi Teppan Grill & Sushi Bar,Jougert Bar,75244,94010,13465 Inwood Rd Suite 100,1115 Burlingame Ave
9779,877,,McNally's Irish Pub,Vespucci Ristorante Italiano,57108,94401,6211 S Old Village Pl,147 E 3rd Ave
4775,1288,,Vespa Cibobuono,Visible Changes,11021,94403,,15 43rd Ave
4066,73,,Spindletop,Beauty Fusion Studio,77002,94086,1200 Louisiana St,217 E Washington Ave
7753,819,,The Devens Grill,Autostrada Motorsport,1434,94063,4 Ryans Way,2480 Middlefield Rd
5940,1564,,Crowne Plaza Southbury Hotel,Anytime Locksmith,,,,Serving Reno and the Surrounding Area
1996,3355,,Savory Restaurant,Sushi Sai,92024,60606,267 N El Camino Real,123 N Wacker Dr
8042,2776,,Taco Joint,Robusta Espresso Bar,75204,10004,911 N Peak St,7 Hanover Sq
9179,4367,,Joe's Station House Pizzeria,Elevate Fitness,61764,75225,721 RR 2,8411 Preston Rd
9896,2244,,Butch's Place,Swimming Lessons with Mersiha,16506,94028,3330 W 26th St Ste 25,3249 Alpine Rd
8208,1556,,Elizabeth Pizza,Dirty Plumber,27288,89434,640 S Van Buren Rd,Serving Reno and the Surrounding Area
10801,1620,,Range Restaurant Inc,Spicer Photography,55741,,101 N Broadway Ave,Serving Reno and the Surrounding Area
3294,3778,,Bacci Pizzeria,The Point Park & Eats,60606,78255,162 N Franklin St,24188 Boerne Stage Rd
5721,3669,,Sportsman's Park Restaurant,Van Loveren Roger,63124,10506,9901 Clayton Rd,6 Spruce Pond Ln
11025,2378,,Peking China Super Buffet,Village Barber,25801,94028,4050 Robert C Byrd Dr,3140 Alpine Rd
11595,5164,,Yoyogi Sushi,Cold Spring Harbor Fire Dept,20878,11724,328 Main St Ste 100,2 Main St
7607,2618,,Legal Sea Foods,Savvy Transportation,2145,92625,301 Great River Rd,Serving Corona Del Mar and the Surrounding Area
10457,1794,,Olive Garden Italian Restaurant,Hackett Painting Company,,94025,,1543 Laurel Place
6533,3447,,Big Frank's Bar-B-Que,Sprinklesmobile,26301,90210,211 Milford St,9635 Little Santa Monica Blvd
1172,1738,,Bistro 412 Restaurant & Bar,Applewood Pizza,94301,94025,412 Emerson St,1001 El Camino Real
106,5113,,Cha Cha Cha,Heritage Candle & Home,94117,11724,1801 Haight St,29 Main St
10096,1088,,DeFazios,Pizza My Heart,67204,94301,2706 N Amidon Ave,220 University Ave
4175,907,,Pappas Burger,Shabuway Japanese Style Hot Pot,77061,94401,7800 Airport Blvd Space C14,145 E 3rd Ave
11372,5979,,Boomer's Pub,Ub Nails,74525,60045,354 W Highway 7,709 Forest Ave
2782,2622,,Caruso's Italian Restaurant,Crystal Cove State Beach,10004,92657,42 Broadway,"Newport Beach, CA 92663"
6482,1063,,Boyd's Good Eats,Osteria,26426,94301,256 Hill Top Ln,247 Hamilton Ave
9578,4294,,Wing Street,Kona Grill,61611,75225,304 W Washington St,8687 N Central Exwy
291,892,,Ahoy's Bar-B-Que,Viognier,95050,94401,2367 El Camino Real,222 E 4th Ave
9573,3727,,Happy Fish Sushi,Formula,61606,10506,1200 W Main St Ste 22,136 Long Ridge Rd
5531,5901,,Olive Garden Italian Restaurant,Chappaqua Animal Hospital,,10514,,495 King St
935,4720,,Round Table Pizza,Rochester Clothing,94401,11030,844 N Delaware St,1625 Northern Blvd
8147,4075,,Market Street Studio & Bistro,Sea Jasmine Thai Cuisine,27320,32958,231 S Scales St,971 Sebastian Blvd
5681,4826,,Arby's,Five Guys Burgers and Fries,63124,34109,8860 Ladue Rd Ste 210,1410 Pine Ridge Rd
5364,5331,,Burkes Restaurant and Bar,Venice Restaurant & Pizza,10704,6877,645 Bronx River Rd,125 Danbury Rd
10556,3050,,Nico's Pizzeria,MasterCard International,12305,10577,441 State St,2000 Purchase Street
6375,4651,,Candicci's,Wedding Salon of Manhasset,63011,11030,100 Holloway Rd,1468 Northern Blvd
164,4553,,Antojitos Salvadorenos Restaurant,Cyc Fitness,94085,30326,911 E Duane Ave Ste A,3393 Peachtree Road NE
524,1960,,Lucky Chinese Restaurant Mountain View,Salon Republic,94040,90035,1040 Grant Rd Ste 100,9911 W Pico Blvd
2979,4255,,China Garden,True Food Kitchen,10601,75225,260 Main St,"8383 Preston Ctr Plz, Ste 100"
9361,4693,,The Smokin Cantina,Le French Park Ave Cleaners Inc,76258,11030,1017 N Hwy 377,573 Plandome Rd
6019,1694,,La Camelia Restaurant,Scudders Performance,10549,,234 N Bedford Rd,Serving Sparks and the Surrounding Area
11063,3667,,Starbucks Coffee,Banksville Market,25801,10506,308 Galleria Plz,16 Greenwich Rd
7854,3566,,Ruby Tuesday,Cheriefoto,58103,90210,2535 23rd Ave S,Serving Los Angeles and the Surrounding Area
7866,3838,,Pizza Ranch,Emme Nailspa,56529,78256,1504 Center Ave W,17803 La Cantera Terrace
3497,3049,,Vasolas Delicatessent Inc,Broadway Pizza,10506,10603,4 Bedford Banksville Rd,616 N Broadway
6220,6002,,Moderno,Animal Hospital of West Lake Forest,60035,60045,1850 2nd St,1089 Conway Rd
4746,3196,,Green Cactus,Mother Earth Sanctuary Cafe,11577,33460,215 Mineola Ave,410 2nd Ave N
10230,860,,China Restaurant,El Palenque Taqueria,56301,94401,3520 W Division St,15 N Kingston St
10269,132,,Number One Wok,Asia Village,56303,94086,2104 8th St N,747 S Wolfe Rd
1791,47,,The Cellar,Off The Stick Kabob Grill,90067,94085,1880 Century Park E Ste 102,927 E Arques Ave
3404,3911,,Casa Bianca Pizza Pie,Kilted Mermaid,90041,32960,1650 Colorado Blvd,1937 Old Dixie Hwy
10396,4284,,Sam & Louie's New York Pizzeria,Penne Pomodoro,66749,75205,2150 N State St,6815 Snider Plz
11244,120,,Hillsborough BBQ Company,Auto Champs,27278,94085,236 S Nash St,771 N Mathilda Ave
1810,4335,,The Stand,Oasis Restaurant,90067,75206,2000 Avenue Of The Stars,5945 Greenville Ave
744,111,,Vivis Cafe,Calderon Tire Service,94061,94086,764 Woodside Rd,205 E Washington Ave
9395,5145,,The New Taiwan Buffet,La Nasa Laura Phd,76240,11724,"1221 N Grand Ave, Gainesville TX, 76240",3 Harbor Rd
6040,3635,,Buffalo Wild Wings,Pilates on the Green,60077,10506,4999 Old Orchard Ctr Unit D-150,26 Village Grn
182,3848,,Daddy Dough Bake Shop,Palmer Course at La Cantera,94085,78255,907 E Duane Ave,17865 Babcock Rd
7733,3755,,Jade Lee Kitchen,Cuppencake,1420,78257,96 Franklin Rd,22211 IH 10 W
1360,3662,,Redwood Shores,Powell Septic Svce,94002,10506,1111 Shoreway Rd,442 Old Post Rd
5304,3788,,Penne Lane Pasta Co,Chick-fil-A,11746,78257,1345 New York Ave,18203 W Ih 10
6657,5232,,Formosa Restaurant,Marshall F J DDS,22554,11724,315 Garrisonville Rd Ste 103,56 Turkey Ln
3930,3386,,Grind and Grape,Puppet Bike,32963,60606,925 Bougainvillea Ln,The Loop
7589,5386,,Mamie's Cafe & Homemade,Tazza Cafe,16662,6877,110 E Allegheny St,408 Main St
2449,3455,,Starbucks Coffee,The Delicious Cook,90210,90024,9844 Wilshire Blvd,Serving Los Angeles and the Surrounding Area
6382,5125,,Rib City,Beth Estergomy LCSW,63131,11724,1181 Colonnade Ctr,3 Harbor Rd
4082,5752,,Cafe Chino,Treats Unleashed,77027,63124,3285 Southwest Fwy,8861 Ladue Rd
8504,2917,,Hoagies,Ron Blacks Beer Hall,61832,10601,1114 E Voorhees St,181 Mamaroneck Ave
10748,1077,,Bk Donuts,Tacolicious,79605,94301,14TH & Texas Ave,632 Emerson St
7372,1705,,Ruby Tuesday,Piccolo Ristorante Italiano,15501,94025,1019 N Center Ave,651 Oak Grove Ave
7499,1765,,Linda's Little General,G Lynette Sargentini,16650,94025,6453 Raystown Rd,859 Oak Grove Ave
2891,3917,,Mcbee Systems,The Barefoot Cafe,10577,32960,2900 Westchester Ave,2036 14th Ave
10758,1827,,Pizza Mark,Angelo Mio,76464,94025,330 Fisher St,820 Santa Cruz Ave
8030,617,,Hibashi Teppan Grill & Sushi Bar,Orchard Supply Hardware,75244,94404,13465 Inwood Rd Suite 100,1010 Metro Center Blvd
8448,4944,,Pappasito's Cantina,Hendrickx Belgian Bread Crafter,77069,60611,7050 Fm 1960 Rd W,100 E Walton St
1105,2081,,Steam,Starbucks,94301,92014,209 University Ave,2707 Via De La Valle
8410,613,,Pappasito's Cantina,Top of the Market,77010,94403,1600 Lamar St Hilton Americas,1855 S Norfolk St
8753,3848,,Bobby Simon's,Palmer Course at La Cantera,18901,78255,52 E State St # K,17865 Babcock Rd
2253,3673,,MacArthur Park,Village Svce Cntr,94301,10506,27 University Ave,193 Pound Ridge Rd
9351,855,,Pellegrino's Italian Restaurant,Takahashi Market,76258,94401,212 S Washington St,221 S Claremont St
4607,5926,,Villa Milano,Paris Interiors Incorporated,11030,10514,168 Plandome Rd,211 King St
8956,4170,,Julie N Dave's Restaurant,Guadalajara Del Centro,54812,77002,1710 E Division Ave,1201 San Jacinto St
1398,2224,,Silver House,Ron Ramies Automotive,94403,94028,2224 S El Camino Real,115 Portola Rd
10324,5042,,Lucky Garden Chinese Rstrnt,Bistronomic,71654,60611,905 Highway 65 S,840 N Wabash Ave
1112,2442,,Ray's Crab Shack,Bouchon Bistro,94560,90210,5989 Mowry Ave,235 N Canon Dr
7483,4829,,Traditions Restaurant,Old Europe Bistro,16662,34109,2329 Curryville Rd,2464 Vanderbilt Beach Rd
7169,4757,,Augies Numero #1 Restaurant & Pizza,Top Gun Karate,6810,11030,30 Germantown Rd,1170 Northern Blvd
6016,441,,Pamfila Restaurant INC,Main Movers,10594,,1006 Broadway,Serving Mountain View and the Surrounding Area
5685,1256,,Lombardo's Trattoria,Baltica,,94403,,33 W 25th Ave
11331,2385,,Mangrum Country Inn Restaurant,Nozawa Bar,74764,90210,,212 N Canon Dr
2124,2773,,All-American BBQ & Picnic Co.,Tajin,94301,10006,,85 Greenwich St
8651,4436,,El Rio Lindo,New York Prime,72342,30326,101 Missouri,3424 Peachtree Rd NE
9969,2680,,Peggy's Liberty Plaza Restaurant,Aloha Maids,16508,92660,3512 Liberty St,Serving Newport Beach and the Surrounding Area
7980,3429,,Pappasito's Cantina,Greystone Park and Mansion,75220,90210,10433 Lombardy Ln,905 Loma Vista Dr
11778,4165,,Aaron's Barbecue & Grill,Coaches Pub,65655,77002,403 Harlin Dr,2204 Louisiana St
429,5121,,El Chalateco,Educators Realty,95050,11724,2323 The Alameda,117 Main St
9039,5240,,Brunetti's Express Restaurant,Harbor Teachers Assn,23116,11724,9167 Atlee Rd,Turkey Ln
656,2692,,El Grullense Grill,Walkow Orthodontics + Pediatric Dentistry,94061,92660,768 Woodside Rd,360 San Miguel Dr
9096,2232,,Noodles & Company,Monte Bello Open Space Preserve,23111,,7291 Battle Hill Dr Ste C,Page Mill Rd
2909,241,,Marketplace Cafe - Nordstrom The Westchester,Preferred Auto Repair,10601,,135 Westchester Ave,Serving Santa Clara and the Surrounding Area
178,3480,,TL BEER GARDEN (Taverna Lounge),Royce Hall - UCLA,94085,90095,769 N Mathilda Ave,340 Royce Dr
3560,5899,,Sahara Restaurant,Oak Lane Child Care Center,11223,10514,2337 Coney Island Ave,49 Memorial Dr
8934,3502,,Olive Garden Italian Restaurant,"Jonathan Nissanoff, MD",,90210,,8670 Wilshire Blvd.
5711,4253,,Amighetti's,Hillstone Restaurant,63119,75225,9631 Manchester Rd,8300 A Preston Rd
7847,2156,,King House Buffet,Corey Murphy,58102,92130,122 Broadway N,Serving Encinitas and the Surrounding Area
11448,722,,Peter Piper Pizza,Red Morton Community Park,76710,94061,120 S New Rd,1120 Roosevelt Ave
10751,4775,,A M Donut & Croissants,The Crust Pizza,79504,34108,425 Interstate 20 E,875 Vanderbilt Beach Rd
4000,5392,,Beef 'O' Bradys,Starbucks,32962,6840,782 S US Highway 1,88 Park St
4163,1267,,"Gabby's Ribs, Steaks, & Bar-B-Q",Bay Area Boxing,77087,94002,4659 Telephone Rd,210 El Camino Real
2462,1453,,Pasta Pomodoro,Menlo BBQ,92657,94025,21133 Newport Coast Dr,555 Willow Rd
11689,4597,,Taco Bar,Stresa Italian Restaurant,20878,11030,10003 Fields Rd Ste B,1524 Northern Blvd
1237,1478,,Bangkok House,Country Corner,94002,94025,1316 El Camino Real,3207 Alameda de Las Pulgas
9401,1302,,Kathy's Country Kitchen,Contemporary Dental,76227,94403,423 Tisdell Ln,105 37th Ave
4090,981,,Mia Bella,Artistry Beauty Nail Salon,77002,94401,1204 Caroline St,512 E 3rd Ave
1157,4589,,Workshop Burgers,River Street Sweets,94301,30326,233 University Ave,3500 Peachtree St
9906,1963,,T.G.I. Friday's,"Farshid Sam Rahbar, MD, FACP, ABIHM",16509,90067,6755 Peach St,2080 Century Park E
10251,2965,,HomeTown Buffet,The Westchester,56307,10601,460 Huskie Dr,125 Westchester Ave
5078,171,,West Egg Cafe,Delicious Crepes Bistro,60611,95050,620 N Fairbanks Ct,57 Washington St
310,1547,,Round Table Pizza,George & Sons Garage Doors,,89434,,Serving Reno and the Surrounding Area
8753,3357,,Bobby Simon's,OVIE Bar & Grill,18901,60606,52 E State St # K,120 N Canal St
1966,1772,,Filippi's Pizza Grotto,Bistro Vida,92131,94025,9969 Mira Mesa Blvd,641 Santa Cruz Ave
4948,162,,Little Bar Restaurant,Pho Nam,34140,94087,PO Box 717,844 W El Camino Real
7190,2198,,The Cheesecake Factory,Diamond Boutique,6810,92014,7 Backus Ave,2710 Via De La Valle
4124,5156,,Olive Garden Italian Restaurant,Beztech,,11724,,52 Main St
2427,3854,,Crescent Hotel Cafe,Saks Fifth Avenue OFF 5th,90210,78257,403 N Crescent Dr,5819 Worth Pkwy
1291,1810,,Yama Sushi,Akasaka Sushi,94002,94025,889 Ralston Ave,925 El Camino Real
6180,3310,,Sage Grille,Mi-Te Printing & Graphics,60040,60602,260 Green Bay Rd,180 W Washington St
11158,1322,,Sandwich,Blue Line Pizza,27516,94070,407 W Franklin St,1201 San Carlos Ave
6041,532,,Buca Italian Restaurant,Chatime,,94404,,969A Edgewater Blvd
8029,2260,,Pappasito's Cantina,Hanna House,75220,94305,10433 Lombardy Ln,737 Frenchmans Rd
382,83,,Joao's Restaurant,"BreakThrough Physical Therapy, Inc.",95050,94086,57 Washington St,263 N Mathilda Ave
4452,2730,,Shula's Steak Houses,Battery Park,30326,10004,3405 Lenox Rd NE,Financial District
2822,5760,,Ruben's Empanadas,Nordstrom,10004,63117,15 Bridge St,1453 Saint Louis Galleria
5727,2834,,The Original Pancake House,National Museum of the American Indian,63124,10004,8817 Ladue Rd,1 Bowling Grn
482,4605,,California BBQ,La Coquille,94043,11030,1350 Pear Ave Ste D,1669 Northern Blvd
7793,5150,,Toscana Restaurant,Cirrus Air Technologies,58102,11724,202 Broadway N,60 Main St
3469,2504,,Anejo Cantina & Grill,Street Kings Gourmet Food Truck,91403,90212,14755 Ventura Blvd,269 S Beverly Dr
1465,2891,,Round Table Pizza,Pepsi Gardens,94061,10577,128 Woodside Plz,700 Anderson Hill Rd
2996,5746,,Splendid Diner,St. Louis Smoothie,10601,63124,106 Mamaroneck Ave,9914 Clayton Rd
3168,976,,Fire Rock Pizza,Oidon,33401,94401,1 N Clematis St,71 E 4th Ave
6678,5023,,Hong Kong,The Local Chicago,22556,60611,1075 Garrisonville Rd Ste 111,198 E Delaware Pl
8287,4002,,Pizza Hut,Riverside Cafe,27288,32963,730 Linden Drive,1 Beachland Blvd
7051,365,,China City Buffet,"Moore Architects, PC",73005,,711 S Mission St,Serving Mountain View and the Surrounding Area
10617,4970,,Deangelos Restaurant,Devon Seafood Grill,12303,60611,1510 Chrisler Ave,39 E Chicago Ave
8273,1480,,Sakura,The Pet Place,27288,94025,640 S Van Buren Rd,777 Santa Cruz Ave
3248,2689,,The Bagel Restaurant & Deli,Bellagio Spas & Salons,60657,92657,3107 N Broadway St,21165 Newport Coast Dr
10517,3024,,Lucky Wok,The Atrium,12308,10573,1810 Van Vranken Ave,975 Anderson Hill Rd
7992,2646,,Mama Faye's BBQ,Newport Beach Public Library,75226,92663,2933 Commerce St,1000 Avocado Ave
4876,4631,,AAA Coney Island,Lululemon Athletica,34108,11030,9853 Tamiami Trl N Ste 106,1950 Northern Blvd
1630,1384,,Una Mas,Carpaccio,94025,94025,683 Santa Cruz Ave,1120 Crane St
9424,192,,Rice Pot Express,Dusita Thai Cuisine,75078,95050,1049 N Preston Rd,2325 El Camino Real
1848,2599,,Trimana,The Resort at Pelican Hill,90067,92657,1875 Century Park E # C,22701 S Pelican Hill Rd
2437,3156,,Kumo Technology,Cafe Via Flora,90210,33480,9663 Santa Monica Blvd,240 Worth Ave
3156,5510,,Blue Front BBQ,The Mac Shop,33401,19806,1132 N Dixie Hwy,21A Trolley Sq
5146,377,,Corner Bakery Cafe,Spark Appliance Repair,60611,,676 N Saint Clair St Lbby 103,Serving Mountain View and the Surrounding Area
2457,6079,,Tamarind of London,Lake Forest Health & Fitness Center,92657,60045,7862 E Coast Hwy,1200 N Westmoreland Rd
10906,436,,218 Bar,Cooper & Gamble Real Estate,55792,,218 Chestnut St,Serving Mountain View and the Surrounding Area
8688,2547,,August Moon Chinese Restaurant,Beverly Hills Concierge Doctor,72390,90210,108 Garland Ave,9400 Brighton Way
11733,6097,,Shelly B's,Brook Furniture Rental,63555,60045,361 E Grand Ave,100 Frield Drive
10218,1674,,Olive Garden Italian Restaurant,Royal Floors,,,,Serving Fernley and the Surrounding Area
10346,498,,Olive Garden Italian Restaurant,Dent Discount Mobile,,,,Serving San Jose and the Surrounding Area
10191,1371,,Howie's Corner Bar Office,DAVIDsTEA,56375,94301,1 Main St E,318 University Ave
743,5567,,World Gourmet Buffet,Talbots,94538,19807,6010 Stevenson Blvd,3801 Kennett Pike Ste E155
4025,910,,Italian Grill,Sozai Corner,32966,94401,2180 58th Ave,71 E 4th Ave
2990,3600,,Corleone S Ii Pizza,Tory Electric,10601,10506,206 Mamaroneck Ave,Serving Bedford and the Surrounding Area
3244,3377,,Sopraffina Marketcaffe,Asada Mexican Grill,60606,60606,222 W Adams St,180 N Wells St
3265,302,,Corner Bakery Cafe,FNS Training Center,60606,95051,444 W Jackson Blvd,2342 Walsh Ave
4334,3789,,Lins China Diner,The Cheesecake Factory,75225,78256,5930 Park Ln,15900 La Cantera Parkway
11790,421,,Brendas Corner Restaurant,Michelle Damas Photography,65775,,2055 E State Route K,Serving Mountain View and the Surrounding Area
4880,3898,,Skillets,Taste Crepes & More,34108,78205,875 Vanderbilt Beach Rd,17503 La Cantera Pkwy
2875,620,,Azteca Paradise Restaurant,Zalles Racquet Sports,10523,94404,210 Saw Mill River Rd,969 Edgewater Blvd
7473,5750,,Savannah's,Mandarin House Restaurant,15904,63114,1103 Scalp Ave,9150 Overland Plz
9336,666,,Al Biernat's,California Cuisine,75219,94403,4217 Oak Lawn Ave,1862 S Norfolk St
10936,2415,,Foster's Restaurant,Mariposa,25801,90212,121 Main St,9700 Wilshire Blvd
821,1626,,Russian Family Restaurant,Cherry Bomb Catering,94063,,2086 Broadway St,Serving Reno and the Surrounding Area
5864,4183,,Crabtree's Kittle House,Maple Leaf Pub,10514,77006,11 Kittle Rd,514 Elgin St
6325,3392,,Olive Garden Italian Restaurant,CH Distillery,,60661,,564 W Randolph St
269,3723,,Sara's Kitchen,Back Barn Farm,95050,10506,1595 Franklin St,203 Greenwich Ave
2916,5236,,Shogun Trading Co Inc,Powles Marina,10604,11724,2 Gannett Dr Ste 101,74 Harbor Rd
5378,838,,Blind Charlie's Cafe,Alan Test Only - Smog Test Station,10576,94063,"76 Westchester Ave, Pound Ridge NY, 10576",2627 Middlefield Rd
4047,4865,,Cabo Mix-Mex Grill,Steamers of Naples,77002,34109,419 Travis St,5317 Airport Pulling Rd N
7953,5573,,Mac's Barbecue,Pure Yoga Pilates Studio,75226,19806,3933 Main St,14 A Trolley Sq
492,2599,,Amici's East Coast Pizzeria,The Resort at Pelican Hill,94041,92657,790 Castro St,22701 S Pelican Hill Rd
990,5820,,Spiedo Restaurant,21 Studio Nail,94401,10514,223 E 4th Ave,21 King St
10470,913,,Fourth Lake Diner,Central Park Bistro,12822,94401,397 Angel Rd,181 E 4th Ave
5913,3430,,Old Stone Trattoria,UCLA Franklin D Murphy Sculpture Garden,10514,90095,425 King St,Charles E Young Dr E
2177,888,,Ray's,Pancho Villa Taqueria,94305,94401,750 Escondido Rd,365 S B St
1009,5441,,B Street & Vine,Pizza by Elizabeths,94401,19807,320 S B St,3801 Kennett Pike
4318,5914,,Tramontana,Chappaqua Airport & Limousine Service,75225,10514,8220 Westchester Dr Ste B,99 N Greeley Ave
3951,3401,,Nino's Cafe,Vibrato Grill Jazz,32963,90077,1006 Easter Lily Ln,2930 N Beverly Glen Cir
6981,2335,,Pappadeaux Seafood Kitchen,At Leisure Travel,77013,94025,3950 Trailmobile Dr,"Portola Valley, CA"
4176,713,,Pappas Catering,Caffino,77057,94061,6445 Richmond Ave,2797 El Camino Real
8718,499,,Cypress Corner Bar-B-Q,Verducci Event Productions,72355,,8298 Highway 1 S,Serving Berkeley and the Surrounding Area
9224,782,,The Cabin,K & L Wine Merchants,61568,94061,21869 State Route 9,3005 El Camino Real
476,5820,,To Chau,21 Studio Nail,94041,10514,853 Villa St,21 King St
897,1319,,Porterhouse,Bellissima Hair Salon,94401,94403,60 E 3rd Ave,4060 S El Camino Real
4766,4440,,Dom & Luigi's Smokehouse,Zinburger Wine & Burger Bar,11791,30326,,3393 Peachtree Rd NE
4127,3064,,Peter Piper Pizza,Palm Beach Grill,,33480,,340 Royal Poinciana Way
8334,5488,,Le's Fast Food,Columbus Inn,77028,19806,8617 Mesa Dr,2216 Pennsylvania Ave
7423,5652,,Bella's Pizzeria,I Love Mr Sushi,15963,63132,1605 Jefferson Ave,9443 Olive Blvd
9604,4095,,Basta Eastport,Brooklyn Meatball Co.,61611,77002,2517 N Main St,930 Main St
3414,2774,,Pho 21,Oral & Maxillofacial Surgery of New York,90005,10004,705 S Western Ave,42 Broadway
6470,3436,,O'Charley's,Viking Repair Los Angeles,63026,90210,190 Gravois Bluffs Cir,Beverly Crest
9607,820,,LaGondola Spaghetti House,Mehta Plastic Surgery,61614,94027,700 E War Memorial Dr,3351 El Camino Real
8234,1817,,Short Sugars Drive In,"Winston Vaughan, MD",27320,94027,1328 S Scales St,"3351 El Camino Real, Ste 200"
3368,2999,,T.G. Express Thai Restaurant,Plush Salon,90057,10601,1906 W 3rd St,33 S Broadway
7695,3791,,El Bohio Restaurant,Yummi Sushi Japanese Restaurant & Sushi Bar,1420,78257,362 Main St,24165 IH 10 W
11598,4659,,Paisano's Pizza,Mykonos Restaurant,20878,11030,824 Muddy Branch Rd,172 Plandome Rd
1742,3935,,Rojoz Gourmet Wraps,Mo-Bay Grill,94301,32958,60 El Camino Real,1401 Indian River Dr
6251,5829,,Iron Works Barbeque,Tiffany Nails and Spa,,10514,,26 King St
9600,57,,Big Momma Soul Foods,In-N-Out Burger,61604,94087,3611 W Harmon Hwy,604 E El Camino Real
9684,567,,HuHot Mongolian Grill,Olives,57110,94404,5430 E Arrowhead Pkwy,969-J Edgewater Blvd
6248,26,,Edgerton Bakery,Bagel Street Cafe,56128,94087,808 Main St,348 W Maude Ave
817,4681,,Quinto Sol,Plandome Haircutters,94063,11030,2201 Broadway St,367 Plandome Rd
5876,3433,,Desert Moon Cafe Inc,Feast At Rieber,10514,90049,89 Oak Hill Rd,"Westwood, UCLA"
5783,4551,,CBS Barbeque & Cafe Brown Stones Catering,Cafe At Pharr,63102,30305,"5508 St. Louis Ave., St. Louis, Mo 63102",3145 Peachtree Rd
2378,5929,,Mastro's Penthouse,Peter and the Wolf School of Music,90210,10514,246 N Canon Dr,201 King St
4085,2503,,Marks American Cuisine,Brighter Minds Tutoring,77006,90210,1658 Westheimer Rd,Serving Beverly Hills and the Surrounding Area
2471,1854,,Piccolo,Red Lantern Cycles,92657,94025,22701 Pelican Hill Rd S,640 Menlo  Ave
6817,3917,,Daylight Donuts,The Barefoot Cafe,67748,32960,112 Center Ave,2036 14th Ave
11645,2216,,Buca di Beppo,Parkside Grille,20878,94028,122 Kentlands Blvd,884 Portola Rd
8611,5724,,Burger King,The Ritz-Carlton Cigar Lounge and Bar,61833,63105,1629 Georgetown Rd,100 Carondelet Plz
5974,5452,,Hunan Garden 88 Inc,Southeast Kitchen,10510,19806,86 N State Rd,1901 Delaware Ave
595,4050,,Joy Restaurant,Original Tiki Bar,94404,34950,1489 Beach Park Blvd,2 Ave A
11393,3520,,Golden Corral Restaurants,The Bees Knees Studio,76710,90024,618 N Valley Mills Dr,"1051 Glendon Ave, Ste 122"
3933,3529,,Polo Deli,Diddy Riese,32963,90024,2916 Cardinal Dr,926 Broxton Ave
4788,485,,Panevino Italian restaurante,Bay Area Dinner Show,34108,,8853 Tamiami Trl N,Serving Cupertino and the Surrounding Area
1890,1424,,Illinois Dolce Cafe,El Grullense,90067,94063,1840 Century Park E # 105,795 5th Ave
5331,3465,,Panella's Deli,University of California Los Angeles - UCLA,10576,90095,78 Westchester Ave,405 Hilgard Ave
3283,3498,,NYC Bagel Deli,Wolfgang Puck Express,60606,90095,300 S Wacker Dr,308 Westwood Plz
9671,2274,,Ruby Tuesday,Thornewood Open Space Preserve,57103,94062,3308 E 10th St,825 La Honda Rd
8743,1496,,Outback Steakhouse,Parasol Beauty Atelier,18929,94301,2520 York Rd,470 Hamilton Ave
8852,110,,P.F. Chang's,Katana Sushi & Sake,18976,94087,721 Easton Rd,411 E El Camino Real
1492,2848,,Menlo Grill Bistro & Bar,Cobbler Express,94025,10005,100 El Camino Real,60 Wall St
9008,2818,,Fifth Street Saloon,Express Power Lunch,54812,10005,48 S 5th St,Financial District
1114,3693,,Fishermen's Grotto,"Michelle Boscia, Long Term Care Insurance Specialist",94133,10506,9 Fishermans Wharf,7 Oliver Rd
7326,827,,Olive Garden Italian Restaurant,Peninsula Irrigation Company,,94063,,Serving Redwood City and the Surrounding Area
9683,5029,,Denny's,Rosebud on Rush,57103,60611,4001 E 10th St,720 N Rush St
10111,611,,Olive Garden Italian Restaurant,Tacos Peralta,67037,94407,1718 N Rock Rd,342 E Hillsdale Blvd
3752,3807,,Kumori Sushi & Teppanyaki,Bourbon Street Seafood Kitchen,78258,78255,700 E Sonterra Blvd Suite 308,24165 IH 10 W
11193,1504,,Family House of Chapel Hill,Charisma Salon,27516,94025,7323 Crescent Ridge Dr,203 El Camino Real
3765,4504,,Hosbrau Restaurant & Beer Haus,Cafe 100,78257,30326,18403 W Interstate 10,3340 Peachtree Rd NE
9969,5935,,Peggy's Liberty Plaza Restaurant,NSA Airport Service,16508,10514,3512 Liberty St,200 King ST
2826,1683,,Bendix Diner,Oasis Cleaning Services,10004,,17 State St,Serving Reno and the Surrounding Area
4573,6006,,Wayport,R & V Italian Market & Deli,30326,60045,3368 Peachtree Rd NE,13801 West Laurel Drive
4708,805,,Dougies BBQ Great Neck Inc,Nutrishop Redwood City,11021,94063,105 Middle Neck Rd,1065 El Camino Real
3508,1284,,China Star,B Bros Hauling,10510,94002,"231 Half S Highland Ave, Briarcliff Manor NY, 10510",Serving Belmont and the Surrounding Area
2928,919,,Burkes Restaurant and Bar,The Sandwich Spot,10704,94401,645 Bronx River Rd,65 E 4th Ave
7348,1947,,Olive Garden Italian Restaurant,Kelly Smile Dentistry,,90067,,2080 Century Park E
4517,292,,Agatha's A Taste Of Mystery,Star Cafe,30303,95110,161 Peachtree Center Ave NE,2001 Gateway Pl
8976,3603,,McDonald's,Chase Bank,54889,10506,638 US Highway 8 63,634 Old Post Rd
9395,5730,,The New Taiwan Buffet,Pizzino,76240,63105,"1221 N Grand Ave, Gainesville TX, 76240",7600 Wydown Blvd
2326,1564,,Harvelle's,Anytime Locksmith,90401,,1432 4th St,Serving Reno and the Surrounding Area
7703,4767,,Espresso Pizza,The Pub Naples,1420,34108,584 Main St,9118 Strada Pl
9470,5442,,Denny's,Purebread Deli,76207,19807,4007 N Interstate 35,4001 Kennett Pike
9500,5848,,Olive Garden Italian Restaurant,World Cup Nursery School & Kindergarten,,10514,,160 Hunts Ln
4840,430,,The Crust Pizza,Molly Maid,34108,94086,875 Vanderbilt Beach Rd,Serving Mountain View and the Surrounding Area
968,3083,,Mongolian Hot Pot & Grill,Palm Sugar,94401,33401,215 S Ellsworth Ave,340 Clematis St
9269,3417,,Burger King,Bruin Plate,61550,90077,1810 N Morton Ave,"Westwood, UCLA"
6030,1641,,Thornwood Pizza & Pasta,Home Energy Experts,10594,,808 Commerce St,Serving Reno and the Surrounding Area
576,158,,Round Table Pizza,Sugar Mama Desserts,94401,94086,430 S Norfolk St,W Washington Ave & S Murphy Ave
1324,1891,,Round Table Pizza,Take a Bao,94404,90067,1084 Foster City Blvd,10250 Santa Monica Blvd
4729,1773,,Chicken Kebab,Medi Points Acupuncture Clinic,11577,94025,92 Mineola Ave,1220 University Dr
8318,5314,,D & J Burger & Bar,La Familia Pound Ridge,77028,10576,7809 Ley Rd,69 Westchester Ave
2732,1493,,Cafe Groppi,Estetica Skin Care By Kasia,10004,94025,32 Water St,846 Oak Grove Ave
3477,1748,,Yen Sushi & Sake Bar,"Alok Arora, DMD",91604,94025,12930 Ventura Blvd # 120,695 Oak Grove Ave
11619,1438,,Rasoi Indian Kitchen,Sprout Cafe,20006,94301,1810 K St NW,168 University Ave
10966,2476,,Iron Works Barbeque,Sushi Sasabune,,90212,,9162 W Olympic Blvd
6448,5471,,Fenton Olde Towne Donuts,Santa Fe Mexican Grill - Wilmington,63026,19806,67 Fenton Plz,2006 Pennsylvania Ave
2300,1003,,The Cheesecake Factory,Thai Satay Restaurant,90210,94401,364 N Beverly Dr,173 E 4th Ave
10279,3282,,Banadir Restaurant,Snap Kitchen,56303,60606,3413 3rd St N,211 W Adams
7663,117,,Every Ting Nice Catering Service,Chung Tai Zen Center,,94085,,750 E Arques Ave
1985,2715,,The Shanty,Pedego - Corona Del Mar,92024,92660,,Serving Corona Del Mar and the Surrounding Area
6747,1971,,Umi Japanese Fine Dining,Natural Pilates & Bodyworks,22401,90212,1500 Jefferson Davis Hwy,9869 S Santa Monica Blvd
4578,1049,,Charley's Grilled Subs,Blue Bottle,30326,94301,3393 Peachtree Rd NE,456 University Ave
10990,1851,,Cracker Barrel Old Country Store,Douglas Andrew Gonzalez,25801,,2112 Harper Rd,Serving Menlo Park and the Surrounding Area
7826,5996,,Toscana Restaurant,Starbucks,58102,60045,202 Broadway N,840 S Waukegan Rd
8881,5204,,Casablanca Morracan Restaurant,Fox Communication,18976,11724,111 Easton Rd,3 Harbor Rd
189,1575,,Tarragon Restaurant,Sterling Carpet Care,94086,,140 S Murphy Ave,Serving Reno and the Surrounding Area
2432,6038,,Sharky's,SJ Hair Studio,90210,60045,435 N Beverly Dr,840 S Waukegan Rd
9847,2786,,Outback Steakhouse,Souvlaki GR,16565,10005,2076 Interchange Rd,Financial District
1084,834,,St. Michael's Alley,Milagros,94301,94063,800 High St,1099 Middlefield Rd
451,860,,Tsunami Sushi,El Palenque Taqueria,94041,94401,209 Castro St,15 N Kingston St
7475,1071,,Eagles Nest Inn,Douce France,16621,94301,21246 Broad St,855 El Camino Real
7677,4522,,Tides Restaurants & Pub,Anthropologie,1908,30326,2 Wilson Rd,3393 Peachtree Rd NE
7443,5796,,Jennerstown Tasty Diner,Quaker Hill Tavern,15547,10514,1302 Pitt St,61 Bedford Rd
2682,84,,Imperial China,Great Vegi Land,10004,94086,90 Broad St,562 S Murphy Ave
3130,260,,Victors Cafe,Silicon Valley Pediatric Dentistry,33480,95050,240 Worth Ave,2790 Newhall St
4406,2813,,Peet's Coffee & Tea,California Wine Merchants,75225,10004,7700 W Northwest Hwy,15 Bridge St
11393,5657,,Golden Corral Restaurants,Blue Sky Tower Grill,76710,63117,618 N Valley Mills Dr,1034 S Brentwood Blvd
2130,1548,,Flea Street Cafe,British 4x4 of Reno,94025,89434,3607 Alameda De Las Pulgas,Serving Sparks and the Surrounding Area
5383,492,,Olive Garden Italian Restaurant,Wolfe Construction,,,,Serving Sunnyvale and the Surrounding Area
7551,560,,Peet's Coffee & Tea,Shoreline Parks,16673,94497,510 S Route 36,1701 J Hart Clinton Dr
7937,2438,,Allgood Cafe,Sushi Sushi,75226,90212,2934 Main St,326 1/2 S Beverly Dr
8153,399,,La Fiesta Restaurante Mexicano,Solid Flooring,27215,,1824 S Church St,Serving Palo Alto and the Surrounding Area
2931,2175,,Rice Modern Chinese Cuisine Restaurant,Skin Couture By Omur,10504,92067,111 Bedford Rd.,6001 Clubhouse Dr
4022,2448,,Villa Pizza,Saffron,32966,90212,6200 20th St Ste 470,230 S Beverly Dr
8813,780,,Adriana's Little Italy,GoRide Bicycles,18940,94061,573 Durham Rd,2755 El Camino Real
5983,2302,,Thai Angels,Linwood Realty,10549,94028,155 Lexington Ave,4388 Alpine Rd
9481,4338,,Famous Wok,Piggie Pies Pizza & Pasta,61613,75206,2200 Northwoods Mall,5315 Greenville Ave
4755,579,,Shakers,Integral Chiropractic,11501,94404,267 Mineola Blvd,951 Edgewater Blvd
7895,210,,Tonys Pizza,Lightning Press,56560,95050,1921 26th St S,1085 Memorex Dr
7430,5404,,Little Paris Cafe,South Salem Animal Hospital,15554,10590,3875 Cortland Dr,1310 Rt 35
958,2599,,Taqueria Las Cazuelas,The Resort at Pelican Hill,94401,92657,517 E 4th Ave,22701 S Pelican Hill Rd
1773,6017,,Pasta Pomodoro,Results 22,94062,60045,490 El Camino Real,222 E Wisconsin Ave
10872,3825,,Poor Gary's Pizza,LongHorn Steakhouse,55792,78249,427 Chestnut St,5803 N Loop 1604 W
7028,2015,,Mazzios Italian Eatery,The Peninsula Beverly Hills,73065,90212,632 N W 37th,9882 S Santa Monica Blvd
3186,995,,CLEMATIS PIZZA,"Gregory Becker, DC",33401,94401,523 Clematis St,215 N San Mateo Dr
5908,3303,,Kira Asian Bistro,Roti Mediterranean Grill,10514,60606,95 King St,200 W Randolph St
9253,4552,,McDonald's,Swank,61754,30326,400 N Main St,3400 Around Lenox Rd NE
241,5250,,Old Port Lobster Shack,Hoffman Grayson Architects,95050,,2855 Stevens Creek Blvd,Serving Huntington and the Surrounding Area
11222,420,,Wingman,Anchor Auto Body,27510,94086,104 Nc 54,1028 W Evelyn Ave
11563,1221,,Panera Bread,Auto Image Window Tinting,20878,94002,285 Kentlands Blvd,188 Old County Rd
10466,4336,,Antonia's Pizzaria,Massage Felax,12148,75225,1529 Crescent Rd,8611 Hillcrest Ave
7635,122,,The Melting Pot,Dim Sum King,1730,94087,213 Burlington Rd,824 W El Camino Real
1477,3719,,Round Table Pizza,Royal Chimney & Gutter Inc,94025,10506,1225 El Camino Real,Serving Mt Kisco and the Surrounding Area
29,869,,Merit Vegetarian Restaurant,Curry Up Now,94085,94401,548 Lawrence Expy,129 S B St
6696,1754,,El Dorado Assembly Restaurant,Bonsai Japanese Cuisine,22405,94027,386 Warrenton Rd,3401 W El Camino Real
8463,5995,,Saltgrass Steak House,The Fresh Market,77029,60045,11900 East Fwy,850 Western Ave
10686,5951,,Pizza Express,Caputo Cheese Market,73566,60045,701 E St,231 E Wisconsin Ave
10899,2798,,Timbers Edge Grill & Bar,Stone Street Tavern,55734,10004,HIGHWAY 53 & Cnty Rd 16,52 Stone St
493,1701,,Big Skennys,Serenity Day Spa,94087,94027,1173 W El Camino Real Ste 2,1900 El Camino Real
4302,423,,Kay's Restaurant And Bar,California Loyal Movers,75247,,8010 N Stemmons Fwy,Serving Palo Alto and the Surrounding Area
9479,4581,,Jim's Steak House,iDeviceMD,61602,30305,110 SW Jefferson Ave,3330 Piedmont Rd NE
3222,2000,,Tokyo Lunch Box & Sake Bar,"Donald B Yoo, MD",60606,90212,300 S Riverside Plz Ste 110,120 S Spalding Dr
53,4671,,Round Table Pizza,Casa Mia,94087,11030,665 S Bernardo Ave,451 Plandome Rd
4605,4442,,Edison's Ale House,Tomo Japanese Restaurant,11030,30326,550 Plandome Rd,3630 Peachtree Rd
5586,2572,,Chun Gee Wa,Panini Cafe Corona Del Mar,19805,92625,1203 Kirkwood Hwy,2333 E Coast Hwy
4695,1505,,Cordon Blue Deli,"Bryan Kolozsi, DC",11030,94025,71 E Shore Rd,671 Oak Grove Ave
9772,2564,,Olive Garden Italian Restaurant,Sherman Library & Gardens,57105,92625,3121 W 41st St,2647 E Coast Hwy
2926,5641,,Seven's Turkish Grill,Guo Bin Chinese Restaurant,10023,63124,158 W 72nd St,8600 Delmar Blvd
2266,441,,Su Hong-Menlo Park,Main Movers,94025,,1039 El Camino Real,Serving Mountain View and the Surrounding Area
1600,5037,,Ann's Coffee Shop,Pizzeria Due,94025,60611,772 Santa Cruz Ave,619 N Wabash Ave
7350,87,,Original Italian Pizza Of Everett,Rokko Fine Japanese Cuisine,15537,94086,151 E Main St,190 S Frances St
5742,1858,,Morton's The Steakhouse,Soluna Skin Care,63105,94025,7822 Bonhomme Ave,1149 Chesnut St
6168,491,,Orange Julius,Kratzer Plumbing,60045,,13783 W Oasis Service Rd,Serving Los Altos and the Surrounding Area
6420,5364,,Elagave Mexican Restaurant,Cava Wine Bar and Restaurant,63126,6842,9815 Watson Rd Ste 403,2 Forest St
8755,3264,,Paganini Ristorante,Chicken Planet,18901,60605,81 W State St,177 W Van Buren St
8553,234,,Rich's Family Restaurant,In-N-Out Burger,61859,95110,305 W Ellen St,550 Newhall Dr
5821,5704,,The Cheesecake Factory,Chipotle Mexican Grill,63117,63105,1062 Saint Louis Galleria,1 N Central Ave
7883,1440,,Mom's Kitchen Inc,Vanderhoof Sports & Wellness Institute,58103,94301,1322 Main Ave,616 University Ave
7964,5471,,Ravenna Urban Italian Restuarant,Santa Fe Mexican Grill - Wilmington,75202,19806,1301 Main St,2006 Pennsylvania Ave
7222,4309,,Taberna Restaurant,Starbucks,6606,75225,1439 Madison Ave,8411 Preston Rd
6205,5377,,Bangkok Tokyo,Toscana,60044,6877,227 Waukegan Rd,43 Danbury Rd
1834,5586,,Cafe Connection,Greenville Country Club,90067,19807,1888 Century Park E # 125,201 Owls Nest Rd
9500,2956,,Olive Garden Italian Restaurant,Nickys Pizzeria & Restaurant,,10601,,91 Mamaroneck Ave
8060,268,,Harvey B's,Koreana Beauty Salon,75226,95050,4506 Columbia Ave,1998 Homestead Rd
9002,651,,Moon Lake Tavern,Nails & Waxing By Vivian,54004,94404,232 9 1/4 Ave,3 Plaza View Ln
6868,4466,,Damian's Cucina Italiana,Sushi Bar Yu-ka,77027,30305,,3330 Piedmont Rd NE
2225,2005,,Maldonado's Pizzeria,LAX Limousine Service,94040,90212,615 S Rengstorff Ave,Serving Los Angeles and the Surrounding Area
4958,4339,,Pelago,Balayage - Dallas,60611,75225,201 E Delaware Pl,"8411 Preston Rd, Ste 102"
8360,1629,,Farr Better Bar B Que,Horizon Window Fashions,77033,,6930 Martin Luther King Blvd,Serving Reno and the Surrounding Area
7199,661,,Red Robin Gourmet Burgers,"Liberty, Otto & Guillen",6810,94404,7 Backus Ave,553 Pilgrim Dr
2063,3137,,Brett's BBQ,The Breakers News & Gourmet,92127,33480,10550 Craftsman Way,1 S County Rd
6314,540,,Dairy Queen,Waterfront,63127,94404,13009 Sunny Dawn Ct,969 D Edgewater Blvd
4535,3126,,Prime,JimmyChangas,30326,33401,3393 Peachtree Rd NE,332 Banyan Blvd
1022,2905,,El Palenque Taqueria,Sushi Nanase,94401,10605,15 N Kingston St,522 Mamaroneck Ave
9649,2618,,Backwood BBQ,Savvy Transportation,61604,92625,4722 W Farmington Rd,Serving Corona Del Mar and the Surrounding Area
4765,4724,,Baldwin Coach Diner,Marshalls,11510,11030,SUNRSE Hwy & Cntrl Ave,1380 Northern Blvd
9815,4656,,Zoni Pies,Infiniti of Manhasset,57104,11030,196 E 6th St Ste 101,1225 Northern Blvd
494,3557,,Clarke's Charcoal Broiler,Studio One Eleven,94040,90024,615 W El Camino Real,"1051 Glendon Ave, Ste 111"
4091,5728,,Pope's Monica T'Afia,Mei Hua Chinese Restaurant,77002,63132,3701 Travis St,9626 Olive Blvd
1174,4254,,Evvia Estiatorio,Project Pie,94301,75225,420 Emerson St,6030 Luther Ln
3155,372,,Duffy's of West Palm Beach,Autobahn Motorsport Haus,33401,,225 Clematis St,Serving Mountain View and the Surrounding Area
9601,2295,,Golden Corral Restaurants,Coupa Cafe - Green Library,61604,94305,3525 N University St,571 Escondido Mall
11203,3163,,Qdoba Mexican Grill,The Cheesecake Factory,27516,33401,100 W Franklin St,701 South Rosemary Avenue
7064,1437,,Paradise Doughnuts,NOLA Restaurant & Bar,73018,94301,601 S 4th St,535 Ramona St
4747,5069,,New Millenium Seafood Inc,Nomi Lounge,11577,60611,200 S Service Rd Ste 207,800 N Michigan Ave
7510,1669,,Jan's Family Restaurant,Empire Carpet Care,17264,,407 Hudson St,Serving Sparks and the Surrounding Area
11514,1974,,La Familia Restaurant,The Kitchen At Constellation,76706,90067,1111 La Salle Ave,10250 Constellation Blvd 175
1932,1944,,Miramar Fish Tacos & Beer,"Bill Dorfman, DDS",92058,90067,41 Douglas Dr,2080 Century Park E
7259,4535,,Villarina's Pasta,The Art of Shaving,6810,30326,22 Shelter Rock Ln # 34,"3393 Peachtree Rd, Ne"
9573,4454,,Happy Fish Sushi,Highland Bakery,61606,30326,1200 W Main St Ste 22,3353 Peachtree Rd NE
3321,1415,,Starbucks Coffee,LB Steak,60606,94025,100 S Wacker Dr Ste 100,898 Santa Cruz Ave
8364,5815,,Renegade Chicken,Chappaqua Hand Car Wash,,10514,,33 Bedford Rd
5735,2026,,Gourmet To Go,"Lahijani Saul Soheil, MD",63124,90067,9828 Clayton Rd,"2080 Century Park E, Ste 501"
5873,4875,,Chappaqua Restaurant & Cafe,M Waterfront Grille,10514,34103,10 S Greeley Ave,4300 Gulf Shore Blvd N
9090,457,,Franco's Italian Restaurant,Pawfection Pet Care,23111,,7225 Bell Creek Rd,Serving Mountain View and the Surrounding Area
11536,30,,Rusty Star BBQ,Mahalo Bowl,76712,94085,10600 N River Xing,"Sunnyvale, CA 94087"
11017,1350,,Campespre Mexican Restaurant II,Gusto,25801,94070,1914 Harper Rd,619 Laurel St
10338,3715,,Chef Lin's,Keller Williams Realty,71639,10506,707 Highway 65 S,410 Old Post Rd
9850,3122,,Cheddar's,Serenity Garden Tea House & Restaurant,16509,33401,2085 Interchange Rd,316 Vallette Way
4955,63,,The Bagel Restaurant & Deli,Bean Scene,60657,94086,3107 N Broadway St,186 S Murphy Ave
11146,5041,,Ham's Restaurant,Tanta,27516,60654,310 W Franklin St,118 W Grand Ave
1229,4753,,Cafe Bliss,"Jacque Kohanzadeh, DDS DMD",94002,11023,2039 Ralston Ave,233 E Shore Rd
1184,4095,,Peet's Coffee & Tea,Brooklyn Meatball Co.,94301,77002,77 El Camino Real,930 Main St
4195,4817,,Mr Peeples,Sushi Thai Too,77002,34109,1911 Bagby St,7935 Airport Pulling Rd N
3875,3760,,Beach Burger,JUICEssential,32963,78256,3101 Ocean Dr,17803 La Cantera Ter
4391,2508,,Red Cilantro Media,Tomoko Japanese Spa,75225,90212,3443 Lovers Ln # B,141 S Beverly Dr
1243,3306,,IHOP,Primebar,94002,60606,510 El Camino Real,155 N Wacker Dr
2356,5817,,Oliver,Ootra,90210,10514,9601 Wilshire Blvd,191 King St
5228,4760,,La Famiglia,Verizon,11702,11030,90 W Main St,1530 Northern Boulevard
7035,1574,,Boomarang Diner,Houston We Have A Problem - iPhone Repair,73018,,1930 S 4th St,Serving Reno and the Surrounding Area
2125,2325,,Umami Burger,Jan Pearce Training,,94062,,1545 Portola Rd
4084,4661,,Olivette At The Houstonian,Noble Nails,77024,11030,111 N Post Oak Ln,564 Plandome Rd
5995,2317,,Tijuana Mexican Grill,Heirlooms,10549,94305,37 S Moger Ave,495 Lagunita Dr
4581,1607,,Sbarro,G&R Pest Control,30326,,3500 Peachtree Rd NE # J11,Serving Reno and the Surrounding Area
3930,404,,Grind and Grape,Ivy & Truman Automotive,32963,,925 Bougainvillea Ln,Serving Sunnyvale and the Surrounding Area
5159,4114,,Manucci's,The Community Bar,11954,77006,,2703 Smith St
8868,2016,,Uva,The Law Office of Liora Moreh,18954,90067,1040 2nd Street Pike,1875 Century Park E
5033,401,,Carmine's,Kimbrough Salas DJ,60611,,1043 N Rush St,Serving Mountain View and the Surrounding Area
2806,1184,,Blondies Sports,"Boyarsky Harvey, DMD",10024,94301,212 W 79th St,888 Middlefield Rd
9151,1251,,Main Street Grill,The Counter - San Mateo,61759,94403,111 S Main Ave,41 W Hillsdale Blvd
7713,3539,,Pizza Haven Too,Salon Platinum Black,3071,90049,7 Main St,142 S Barrington Ave
324,2746,,El Chalateco,Leonidas,95050,10004,2323 The Alameda,3 Hanover Sq
7268,194,,Lemon Grass Southeast Asian Cuisine,Burma Bistro,6810,95050,35 White St,2135 El Camino Real
8143,1527,,The Farmers Table,Su Hong To Go,27320,94025,2001 S Scales St,630 Menlo Ave
8001,3882,,Two Podners Bar-B-Q & Seafood,Lolli and Pops,75210,78256,1441 Robert B.Cullum Blvd,15900 La Cantera Pkwy
9841,5235,,Imperial China Buffet,The Offices of the Whaling Museum Society,16509,11724,5138 Peach St,279 Main St
4890,2576,,Beach Box Cafe,Newport Fusion Sushi,34108,92657,9020 Gulf Shore Dr,21135 Newport Coast Dr
4011,1959,,Maria's Organic Fountain,The Roof Garden,32960,90212,1880 37th st,9882 S Santa Monica Blvd
9898,1657,,Golden Corral Restaurants,Blue Dot Water,16509,,7500 Peach St,Serving Reno and the Surrounding Area
10489,2282,,Sky Port Diner,Bill Cohen - State Farm Insurance Agent,12302,94025,35 Freemans Bridge Rd,325 Sharon Park Dr
3458,4651,,Bamboo Cuisine,Wedding Salon of Manhasset,91423,11030,14010 Ventura Blvd,1468 Northern Blvd
6493,967,,T & L Hot Dogs,San Mateo Center for Cosmetic Dentistry - Dr. Michael Wong,26301,94401,614 Rosebud Plz,256 N San Mateo Dr
9025,3739,,Mimmo's Italian Restaurants,Bedford Video & Gift Barn,23116,10506,8319 Bell Creek Rd,Hunting Ridge Mall
3188,4929,,Backyard Bar,Salon ZEN AVEDA,33401,34108,213 S Rosemary Ave,9100 Strada Place
4406,1162,,Peet's Coffee & Tea,Butterscotch On The Go,75225,94025,7700 W Northwest Hwy,60 Middlefield Rd
6832,1662,,1st Travel Inn,Air Medic Cleaning,67748,,708 Center Ave,Serving Reno and the Surrounding Area
4271,3220,,Breadwinners Cafe & Bakery,The Veranda Restaurant,75225,33406,8687 N Central Expy,150 Australian Ave
6099,4162,,Francesca's Intimo,Treebeards,60045,77002,293 E Illinois Rd,711 Louisiana St
6736,3689,,Ryan's,Jorquera Sarah,22401,10506,1780 Carl D Silver Pkwy,460 Old Post Rd
929,5053,,Iron Gate Restaurant,Nico Osteria,94002,60611,1360 El Camino Real,1015 N Rush St
279,2490,,Round Table Pizza,The Polo Lounge,95050,90210,2615 The Alameda,9641 Sunset Blvd
8303,2942,,Buca Italian Restaurant,Renaissance Westchester Hotel,,10604,,80 West Red Oak Lane
2687,4746,,Jackson Hole,Sway Nail & Spa,10065,11030,232 E 64th St,42 Orchard St
7576,1169,,Subway,Heritage Park,15533,94301,16563 Lincoln Hwy,300 Homer Ave
8350,1250,,Frank's Dixie Meat Center & Catering,Cliff Quality Cleaning,77531,94403,636 Dixie Dr,Serving Foster City and the Surrounding Area
5402,2018,,Iron Works Barbeque,Bedford Law Group,,90067,,1925 Century Park E
3139,785,,Breakers Palm Beach Inc,Ahi Sushi & Hibachi,33480,94063,1 S County Rd,1784 Broadway
1600,2543,,Ann's Coffee Shop,Craft,94025,90067,772 Santa Cruz Ave,10100 Constellation Blvd
5380,3392,,Mariela's Wine & Expresso Bar,CH Distillery,10576,60661,71 Westchester Ave,564 W Randolph St
61,1642,,Tao Tao Restaurant,Reno Tahoe Reiki,94086,,175 S Murphy Ave,Serving Reno and the Surrounding Area
9701,3471,,Brandon Steakhouse & Lounge,Bel Air Foods,57005,90077,1308 E Rushmore Dr,2323 Roscomare Rd
1765,169,,Bistro 412 Restaurant & Bar,The Bay Fish & Chips,94301,94087,412 Emerson St,826 W El Camino Real
2575,5906,,Gulfstream,Wildlife Remedies LLC,92660,10514,850 Avocado Ave,255 Douglas Rd
8713,3755,,Christy's,Cuppencake,72390,78257,5322 Highway 49,22211 IH 10 W
396,3185,,Beirut Cafe,Howard Park,95050,33401,2521 Newhall St,1302 Parker Ave
2815,635,,Mad Dog & Beans,Catamaran Park,10004,94404,83 Pearl St,Catamaran & Shell Blvd
11642,4382,,Tandoori Nights Inc,Green House,20878,75206,106 Market St,University Park
10930,2079,,Vermilion Motel,Lux Beauty Bar,55723,92014,320 S Highway 53,16085 San Dieguito Rd
7226,4631,,Beverly Pizza House,Lululemon Athletica,6605,11030,2969 Fairfield Ave,1950 Northern Blvd
1508,269,,Jing-Jing Szechwan Hunan Gourmet,Madison Street Bed & Breakfast Inn,94301,95050,443 Emerson St,1390 Madison St
1781,777,,Nola Restaurant & Bar,Bangkok Bay Thai Cuisine,94301,94063,535 Ramona St,825 El Camino Real
4580,3116,,Great Steak,Cafe Sapori,30326,33405,3393 Peachtree Rd NE Ste 1009A,205 Southern Blvd
9304,5223,,Pizza Inn,Tri Community & Youth Agency,76258,11724,1800 N Highway 377,82 Turkey Ln
2072,3023,,Lourdes Mexican Food,Araras Coffee & More,92007,10605,2113 San Elijo Ave,406 C Mamaroneck Ave
1955,5328,,On The Border Mexican Grill & Cantina,Copia Home and Garden,92108,10590,1770 Camino De La Reina,475 Smith Ridge Rd
3028,268,,McCarty's,Koreana Beauty Salon,33480,95050,50 Cocoanut Row,1998 Homestead Rd
6278,4454,,Olive Garden Italian Restaurant,Highland Bakery,,30326,,3353 Peachtree Rd NE
9586,3015,,Fast Dragon Buffet,Mix it Up,61554,10601,321 Court St,72 Mamaroneck Ave
10083,1184,,China Super Buffett,"Boyarsky Harvey, DMD",67114,94301,512 N Main St,888 Middlefield Rd
2105,4923,,Dinner at Buca di Beppo,Ruby Tuesday,,34108,,8777 Tamiami Trail North
7792,3422,,Buffalo Wild Wings,Bella Pita,56560,90024,2201 1st Ave N,960 Gayley Ave
8399,4987,,Pappas Bar-B-Q,Mity Nice Bar & Grill,77061,60611,7800 Airport Blvd Space T01,835 N Michigan Ave
9903,2691,,LongHorn Steakhouse,Coastal Peak Park,16509,92657,6750 Peach St,20403 E Coastal Peak
1510,4365,,Round Table Pizza,Gordon Biersch Brewery Restaurant,94025,75231,1225 El Camino Real,8060 Park Ln
3971,6016,,Panera Bread,Lake Forest Food & Wine Specialties,32960,60045,2001 Indian River Blvd,272 E Deerpath Rd
10181,3689,,Anton's Restaurant,Jorquera Sarah,56301,10506,2001 Frontage Rd N,460 Old Post Rd
8156,5181,,Salsarita's Fresh Cantina,Zambratto Laura Consulting,27410,11724,1602 Highwoods Blvd,5 Main St Ste A
1113,5341,,Cook's Seafood Restaurant & Market,Sushi 25,94025,6840,751 El Camino Real,25 Elm St
8360,3328,,Farr Better Bar B Que,Chicago Website Design SEO Company,77033,60606,6930 Martin Luther King Blvd,10 S Riverside Plaza
7684,5645,,Mexico Lindo,Dao Tien,2176,63132,449 Main St,8600 Olive Blvd
5955,1014,,The Willows Restaurant,Donut Delite,10590,94401,920 Oakridge Cmns,57 S B St
978,4809,,Everyday Beijing,Second Cup,94401,34108,637 S B St,9106 Strada Pl
10992,5685,,China Wok,Stacy Park,25801,63132,114 New River Town Ctr,Olivette
492,5011,,Amici's East Coast Pizzeria,Foodlife,94041,60611,790 Castro St,835 N Michigan Ave
11338,5709,,Bledsoe's Diner,Cafe Manhattan,74525,63105,219 N Mississippi Ave,511 S Hanley Rd
1030,3649,,Little Caesars Pizza,Tricare Physical Therapy & Sports Rehab,94401,10506,615 E 3rd Ave,460 Old Post Rd
11660,5676,,Papa John's Pizza,Sushi Ai,20878,63105,12136 Darnestown Rd,4 N Central Ave
5659,3840,,Harry's Seafood Grill,Ranch at The Rim,19801,78257,1 S Orange St,18007 W Ih 10
5484,3142,,Luca Wine and Bar,Haos Asian Cuisine,6896,33406,7 Main St,2677 Forest Hill Boulevard
11144,510,,Oriental Garden Gourmet Restaurant,A Deluxe Driving School LLC,27516,95112,503 W Rosemary St,Serving Mountain View and the Surrounding Area
6050,193,,Sushi Kushi Toyo,Magic Key Locksmith,60045,95050,825 S Waukegan Rd Ste A5,Serving Santa Clara and the Surrounding Area
382,4828,,Joao's Restaurant,Rib City,95050,34108,57 Washington St,9191 Tamiami Trl N
7182,5281,,Augies Numero #1 Restaurant & Pizza,Bacio,6810,10518,30 Germantown Rd,12 N Salem Rd
7818,4008,,Fryn' Pan Family Restaurant,La Granja,58103,34945,302 Main Ave,7040 Okeechobee Rd
6567,5555,,Tubby's,Dupont Airfield Historical Marker,26301,19807,1042 Factory St Summit Park Addn St,Barley Mill Plz
11417,4884,,El Conquistador Restaurant,Boston Beer Garden,76710,34110,4508 W Waco Dr,2396 Immokalee Rd
9412,4118,,Pounders Burger Bar,Sinfull Bakery,75009,77003,218 W Walnut St,1714 Webster St
10848,3706,,Plaza Bowl,Chary & Associates,55792,10506,801 7th St N,444 Old Post Rd
112,4288,,Round Table Pizza,Taco Diner,94086,75225,860 Old San Francisco Rd,4011 Villanova St
5507,5964,,Brew Ha Ha!,Authentico Mexican Restaurant and Bar,19807,60045,3842 Kennett Pike,770 N Western Ave
1604,1225,,Cool Cafe At MBP,Taqueria El Metate,94025,94002,1525 Obrien Dr,120 Harbor Blvd
358,2756,,Round Table Pizza,Bowling Green,95132,10041,2129 Morrill Ave,Financial District
7872,1983,,T.G.I. Friday's,AMC Century City 15,58103,90067,4100 13th Ave S,10250 Santa Monica Blvd
3860,860,,Bill Miller Bar-B-Q,El Palenque Taqueria,78249,94401,7273 N Loop 1604 W,15 N Kingston St
8601,4314,,Pizza Time Inc,Cowboy Chicken,61883,75206,901 N State St,5315 Greenville Ave
2483,5811,,Bandera Restaurant,House of 29,92625,10514,3201 E Coast Hwy,39 S Greeley Ave
3357,243,,Round Table Pizza,Starbucks,,95050,,2370 El Camino Real
7555,4240,,Dunkin' Donuts,Deli Deluxe,15533,77002,16520 Lincoln Hwy,1600 Smith
9150,1851,,Brownfield's Dairy Barn,Douglas Andrew Gonzalez,61759,,402 S Minier Ave,Serving Menlo Park and the Surrounding Area
4071,3778,,Irma's Restaurant,The Point Park & Eats,77002,78255,22 N Chenevert St,24188 Boerne Stage Rd
6331,466,,Bissell Mansion Restaurant And Dinner Theatre,Gruber Painting,63107,,4426 Randall Pl,Serving Mountain View and the Surrounding Area
11363,3586,,Bugger Burgers,Happy Choice Nails Ii Incorporated,74750,10506,,22 Village Grn
6560,1816,,Julio's Cafe,Fifth Avenue Salon & Color Group,26301,94063,501 Baltimore Ave,118 5th Ave
3457,3658,,Spumoni Restaurant,Siemers Wines & Spirits Inc,91403,10506,14533 Ventura Blvd,436 Old Post Rd
3070,2692,,Echo Restaurant,Walkow Orthodontics + Pediatric Dentistry,33480,92660,230A Sunrise Ave,360 San Miguel Dr
5332,5270,,Pound Ridge Shell Inc,M&M Pest Control,10576,11724,78 Westchester Ave,Serving New York and the Surrounding Area
2601,3105,,Hard Rock Cafe,Tin Fish Clematis,92660,33401,451 Newport Center Dr,118 S Clematis St
7986,3045,,Allgood Cafe,Villa Rustica Pizzeria,75226,10573,2934 Main St,261 S Ridge St
7693,1594,,Imperial Palace,Houston we have a problem - iPhone Repair,1420,,104 Lunenburg St,Serving Reno and the Surrounding Area
6601,5938,,Hot Spot Lounge,Kaufman Martin W DVM,26301,10514,618 Rosebud Plz,30 N Greeley Ave
7279,5460,,Kas's Bar & Restaurant,Moro Restaurant,10509,19806,3867 Danbury Rd,1307 N Scott St
6773,2565,,Daylight Donuts,SOTA,67748,92625,112 Center Ave,3344 E Coast Hwy
4772,1956,,Lola,"Behrooz Torkian, MD",11021,90212,113 Middle Neck Rd,201 S Lasky Dr
817,2271,,Quinto Sol,Ladera Granola,94063,,2201 Broadway St,"Ladera, CA 94028"
3551,5750,,China Star,Mandarin House Restaurant,10510,63114,"231 Half S Highland Ave, Briarcliff Manor NY, 10510",9150 Overland Plz
1645,3467,,Jing-Jing Szechwan Hunan Gourmet,Chick-fil-A,94301,90024,443 Emerson St,900 Westwood Blvd
10007,2505,,Gallaway's Restaurant,Mickey Fine Pharmacy & Grill,67062,90210,4 Leonard Ct,433 N Roxbury Dr
4898,2283,,Ebar,Valentina Interiors & Designs,34108,94025,5489 Tamiami Trl N,Serving Palo Alto and the Surrounding Area
2982,1416,,Dawat Haute Indian Cuisine,Coconuts Caribbean Restaurant & Bar,10601,94301,230 E Post Rd,642 Ramona St
2933,4794,,The Willows Restaurant,Chipotle Mexican Grill,10590,34108,920 Oakridge Cmns,9100 Mercato Dr
10151,5574,,Corner Pizza & Antiques,Mt Cuba Center,56375,19707,581 Main St E,3120 Barley Mill Rd
9283,2804,,Prairie Inn Northside,Lebedin Kofman LLP,61568,10004,201 S Sampson St,26 Broadway
2119,2992,,Round Table Pizza,Joint Effort Chiropractic,,10604,,222 Westchester Ave
382,852,,Joao's Restaurant,The Ravioli House,95050,94401,57 Washington St,505 S B St
7953,4324,,Mac's Barbecue,Freebirds World Burrito,75226,75206,3933 Main St,5500 Greenville Ave
9277,4922,,Haynes On Main,Nail Passion,61755,34103,108 S Main St,5201 Tamiami Trl N
7491,2450,,Top's Diner,Le Pain Quotidien - Beverly Hills,17060,90210,"Mill Creek, 17060",9630 S Santa Monica Blvd
8515,1097,,Jocko's,T4,61832,94301,305 W Williams St,165 University Ave
4330,161,,Masala Wok,Auto Collision Experts,75225,94085,6106 Luther Ln,908 E Arques Ave
1256,1298,,Bay Cafe Restaurant & Banquets,Old County Deli,94303,94002,1875 Embarcadero Rd,1331 Old County Rd
2985,3801,,Dorry's Diner,Milliamp LTD,10605,78257,468 Mamaroneck Ave,17503 La Cantera Pkwy
8123,4576,,Sagebrush Steakhouse,BCBG Max Azria,27320,30326,1529 Freeway Dr,3393 Peachtree Rd NE
3492,2127,,The Farmhouse,Wax On Wax Off,10506,92067,954 Old Post Rd,6089 La Flecha
5687,4631,,Morton's The Steakhouse,Lululemon Athletica,63105,11030,7822 Bonhomme Ave,1950 Northern Blvd
2750,1369,,King 's Pizzeria & Restaurant,Cafe Del Sol Restaurant,10314,94025,2212 Victory Blvd,1010 Doyle St
6959,3713,,Yia Yia Mary's Greek Kitchen,Nick Cambareri Masonry,77056,10506,4747 San Felipe St,412 Old Post Rd
8531,929,,Pizza Inn,Yu-Raku,61832,94401,301 W Main St,104 S El Camino Real
309,3244,,Frankie Johnnie & Luigi Too!,Native Foods Cafe,94040,60604,939 W El Camino Real,218 S Clark St
8877,347,,First Wok,Moffett Exchange Beauty Salon,18966,94035,382 2nd Street Pike,Westcoast Rd
4707,5759,,Matteo's Restaurant,Panera Bread,11577,63117,88 Mineola Ave,1445 St. Louis Galleria
4969,2387,,Frankies,The Honor Bar,60611,90212,900 N Michigan Ave Ste 501,122 S Beverly Dr
130,4622,,Bagel Street Cafe,Brickwell Cycling & Multisports,94085,11030,346 W Maude Ave,1463 Northern Blvd
4454,1383,,Katana Steak,La Baguette,30326,94304,3345 Lenox Rd NE,170 Stanford Shoppng Ctr
8372,5969,,Pappas Bar-B-Q,Lake Bluff Brewing Company,77093,60044,7007 Eastex Fwy,16 E Scranton Ave
9965,1077,,Great Wall Restaurant,Tacolicious,16504,94301,1326 E Grandview Blvd,632 Emerson St
4672,4521,,Peet's Coffee & Tea,Havana Club,11030,30305,1430 Northern Blvd,3112 Piedmont Rd
5680,3950,,Gourmet To Go,Big Apple Pizza,63124,34981,9828 Clayton Rd,2311 S 35th St
10966,2846,,Iron Works Barbeque,Open Kitchen,,10005,,15 William St
3086,1346,,Polo Steakhouse,Salon Realta,33480,94002,155 Hammon Ave,1022 6th Ave
3584,893,,Katonah Restaurant,DASH Japanese Tapas & Sushi,10536,94401,63 Katonah Ave,220 Main St
3983,1495,,Country Kitchen,Los Manguitos,32960,94063,1749 Old Dixie Hwy,3133 Middlefield Rd
8231,1521,,Taco Bell,Stript Wax Bar,27320,94301,1636 Freeway Dr,524 Bryant St
10601,6050,,Krause's Restaurant & Grove,The Salon Ltd,12065,60045,2 Beach Rd,588 N Western Ave
6314,427,,Dairy Queen,Thane Waldo Painting,63127,,13009 Sunny Dawn Ct,Serving Mountain View and the Surrounding Area
7917,937,,Applebee's,Maison Deux,58078,94401,1640 13th Ave E,25 S B St
10603,409,,Cracker Barrel Old Country Store,Ridge Wireless,12065,,4 Crossing Blvd,Serving Cupertino and the Surrounding Area
3012,3558,,Gyu-Kaku,Mr Noodle,10601,90024,169 Main St,936 Broxton Ave
1117,1008,,Round Table Pizza,Commercial College Movers USA,,94401,,Serving San Mateo and the Surrounding Area
4571,3710,,Paris Bistro,"William L Hines, Electrical Contractor",30326,10506,3390 Peachtree Rd NE # 104,444 Old Post Rd
11412,4702,,Tom's Burgers,Meurice Garment Care,76710,11030,6818 Sanger Ave,249 Plandone Road
9939,5169,,Barbatos,Nightingale & Partners,16504,11724,1214 E 38th St,93 Main St
1701,3647,,Amici's East Coast Pizzeria,Small Joys,94025,10506,880 Santa Cruz Ave,Court Rd
5739,1215,,Kreis' Restaurant,Wakuriya,63131,94402,535 S Lindbergh Blvd,115 De Anza Blvd
6961,1743,,Spanky's Pizza & Italiana,Iberia Restaurant,77011,94025,7210 J W Peavy Dr,1026 Alma St
11833,2274,,McDonald's,Thornewood Open Space Preserve,65548,94062,US 60 & Y,825 La Honda Rd
4013,3172,,Stax Restaurant,City Pizza Italian Cuisine,32960,33401,1931 Old Dixie Hwy,632 Hibiscus St
2751,971,,Seven's Turkish Grill,Eyeworks of San Mateo,10023,94401,158 W 72nd St,214 S B St
1864,451,,Joe's Pizza,Remedy Hypnotherapy,90067,,10250 Santa Monica Blvd,Serving Mountain View and the Surrounding Area
4252,1433,,Coco's Crepes & Coffee,Juban Yakiniku House,77002,94025,218 Gray St,712 Santa Cruz Ave
9071,3701,,Primo Pizza,Bjg Realty Advisors,23111,10506,6102 Brashier Blvd # I,55 Grove Rd
10924,169,,Positively 3rd St Bakery,The Bay Fish & Chips,55805,94087,1202 E 3rd St,826 W El Camino Real
4224,6073,,Batanga Restaurant,Starbucks,77002,60044,908 Congress St,18 N Waukegan Rd
2845,92,,Cobble Stone,Shanghai Flavor Shop,10577,94086,620 Anderson Hill Rd,888 Old San Francisco Rd
7650,2408,,Carbone's Restaurant,Yojisan Sushi,1752,90210,"Marlborough, 01752",260 N Beverly Dr
2758,2164,,Blaggards Pub & Restaurant,Up Your Exposure,10018,92130,8 W 38th St,"Rancho Santa Fe, CA 92067"
10817,5641,,Dave's Pizza,Guo Bin Chinese Restaurant,55792,63124,201 3rd St S,8600 Delmar Blvd
7919,2667,,Smashburger,Cristophe Salon,58103,92660,1801 45th St S,315 E Newport Center Dr
10694,570,,Kiowa Casino,Premier Garage,73531,94403,STATE Highway 36,Serving Foster City and the Surrounding Area
10815,5831,,Hannah's Cafe,Town and Country Cleaners,55792,10514,213 Chestnut St,421 King St
9054,4453,,Gus' Italian Cafe,Kyma,23111,30305,HANOVER Square Shopping Ctr,3085 Piedmont Rd NE
5289,3714,,House Of India,The Cottage Collection,11743,10506,256 Main St # B,10 Hickory Ln
3105,3291,,3G's Gourmet Deli,The Metropolitan Club,33484,60606,5869 W Atlantic Ave,233 S Wacker Dr
717,57,,Woodside Delicatessen,In-N-Out Burger,94061,94087,1453 Woodside Rd,604 E El Camino Real
11222,4928,,Wingman,Paragon Pavilion,27510,34108,104 Nc 54,833 Vanderbilt Beach Rd
10937,1814,,China Wok,Revitalize Integrated Body Systems,25801,94025,114 Value City Ctr,1618 El Camino Real
4150,261,,Bangkok Chef,101 Collision Center,77002,95050,914 Main St,319 Brokaw Rd
5594,4655,,Tropicalia Restaurant Ps New,Sur La Table Cooking Class,19805,11030,1701 W 4th St,1468 Northern Blvd
10219,498,,Anton's Restaurant,Dent Discount Mobile,56301,,2001 Frontage Rd N,Serving San Jose and the Surrounding Area
11648,1309,,Peperonata Pasta,Strands For Hair,20878,94403,400 Main St,44 W 42nd Ave
7897,3645,,Cafe Muse By Mosaic Foods,Jacobsen Erik P Atty,58102,10506,704 1st Ave N,Court Rd
4726,1780,,Green Leaf Chinese Restaurant,J & J Hawaiian BBQ,11050,94025,376 Port Washington Blvd,1170 Alma St
7083,6076,,Pomegranate Greek Cafe,Subway,73089,60045,209 E Main St,225 E Deerpath
8256,5195,,Chaney's Restaurant,Lily And Max Pet Boutique,27288,11724,243 W Kings Hwy,147 Main St
8605,4313,,Culver's,Tampopo Japanese Cafe,61832,75206,3210 N Vermilion St,6130 Greenville Ave
10698,3212,,Woody's Sports Bar,Hilton Palm Beach Airport,73521,33406,1613 E Broadway St,150 Australian Ave
8586,5864,,Peet's Coffee & Tea,Chappaqua Electrical Contractors,61832,10514,3649 N Vermilion St,Serving Chappaqua and the Surrounding Area
7264,4309,,La Fortuna Restaurant,Starbucks,6810,75225,6 State St,8411 Preston Rd
5810,4088,,Ruth's Chris Steak House,Bombay Pizza Co.,63105,77002,"1 N Brentwood Blvd, Suite 150",914 Main St
8100,3237,,T.G.I. Friday's,Pierogi Heaven,75261,60606,PO Box 612164,169 N Wells St
10590,728,,Ferretti's,"Joanna Shell, LAc",12065,94061,262 Ushers Rd,950 Woodside Rd
4909,4543,,Rudy's European Cuisine,Garrett Popcorn Shops,34108,30326,10711 Tamiami Trl N,3393 Peachtree Rd
3483,910,,Trelawni Place Seafood Bar,Sozai Corner,11203,94401,1440 Utica Ave,71 E 4th Ave
3199,2499,,Franklin Tap,Beautyful Lashes,60606,90210,325 S Franklin St,415 N Crescent Dr
6254,2377,,Chandler Cafe,Wilson Show Stables,56122,94028,420 Main Ave,"Portola Valley, CA"
8675,1401,,Teaden Chinese Restaurant,Burgess Skate Park,72342,94025,569 Oakland Ave,700 Alma St
4931,1949,,Ritz-Carlton Golf Resort,Coral Tree Express,34108,90067,280 Vanderbilt Beach Rd,10250 Santa Monica Blvd
9444,6102,,Phillips Brothers Restaurant,Tips 2 Toes,76205,60045,2321 Colorado Blvd,840 S Waukegan Rd
5351,442,,Skytop Restaurant,"Odom Electric, Inc.",10601,,,Serving Mountain View and the Surrounding Area
10535,146,,Bellinis Italian Eatery,Bookasaurus,12065,94086,19 Clifton Country Rd Ste 1,125 S Murphy Ave
11551,323,,Fingers & Claws Restaurant,Academy for Salon Professionals,20878,95050,802 Muddy Branch Rd,2238 El Camino Real
1259,6013,,Iron Gate Restaurant,Grille 43,94002,60044,1360 El Camino Real,28800 N Waukegan Rd
1314,418,,The Counter,Best 1 TV Repair,94403,94043,41 W Hillsdale Blvd,1900 Old Middlefield Way
5694,5521,,Candicci's,Valley Garden Park,63011,19807,100 Holloway Rd,418 Campbell Rd
8818,2764,,Bacco Bistro & Pizza,Terrace Fish & Chips,18901,10004,478 N Main St,77 Pearl St
10534,5136,,Nothing But Noodles,Nu Touch Therapy,12065,11724,22 Clifton Country Rd,3 Harbor Rd
9444,2879,,Phillips Brothers Restaurant,Luckyim Thai,76205,10005,2321 Colorado Blvd,10 Hanover Sq
4230,3362,,Bouray's Restaurant,The Living Room Bar W Chicago City Center,77002,60603,609 Clay St,172 W Adams St
4494,198,,The Cheesecake Factory,To Bang,30326,95051,3393 Peachtree Rd NE Suite 3076A,1052 Kiely Blvd
10920,334,,Amy's Bar,Euro Market,55741,95050,214 S Broadway Ave,980 El Camino Real
2572,5092,,The Port,Davanti Enoteca River North,92625,60611,440 Heliotrope Ave,30 E Hubbard St
7318,2243,,Villa,Caffe Carrello,15926,94028,504 Sunshine Ave,"Palo Alto, CA 94309"
8946,2135,,Perkins Restaurant & Bakery,Love to Live Spa,54868,92014,2023 Cenex Dr,3790 Via De La Valle
1582,2938,,Rincon Tarasco,Sofrito,94025,10601,3200 Middlefield Rd,175 Main Street
1499,2059,,Cook's Seafood Restaurant & Market,Studio Savvy Salon Services,94025,92067,751 El Camino Real,16081 San Dieguito Rd
3367,4670,,Stevens Steak & Seafood House,US Post Office,90040,11030,5332 Stevens Pl,28 Maple Pl
6342,741,,Helen Fitzgerald's Irish Grill,Woodside Auto & Tire,63127,94061,3660 S Lindbergh Blvd,333 Woodside Rd
8670,630,,Old Town Buffet,Precise Productions,72390,94404,838 N Sebastian,688 Mariners Island Blvd
1786,5491,,Three Seasons,Locale BBQ Post,94301,19805,518 Bryant St,1014 Lincoln St
124,1963,,St. John's Bar & Grill,"Farshid Sam Rahbar, MD, FACP, ABIHM",94085,90067,510 Lawrence Expy,2080 Century Park E
7496,2549,,Pizza Star II & Restaurant,"Donald B Yoo, MD",17264,90212,101 Hudson St,120 S Spalding Dr
1853,5040,,Cafe 100,25 Degrees,90067,60654,10100 Santa Monica Blvd Ste A105,736 N Clark St
8846,308,,Taormina's Pizza & Panini,Toppings Tree,18954,95050,130 Almshouse Rd Ste 501,1171 Homestead Rd
344,3350,,Arigato Sushi,Potbelly Sandwich Shop,95050,60604,2855 Stevens Creek Blvd,175 W Jackson Blvd
1886,4287,,Bon Appetit,Nekter Juice Bar,90067,75205,1801 Century Park E,6712 Snider Plaza
7550,4450,,Sunco Enterprises,Flying Biscuit,15533,30305,167 Post House Rd,3280 Peachtree Rd NE
11532,575,,Jasper's BBQ,The City of Foster City,76704,94404,105 Clifton St,610 Foster City Blvd
9047,401,,Zheng Chinese Restaurant,Kimbrough Salas DJ,23116,,9363 Atlee Rd Ste 2105,Serving Mountain View and the Surrounding Area
5801,5136,,Lu Lu Chinese Express,Nu Touch Therapy,63144,11724,8450 Eager Rd,3 Harbor Rd
2773,5110,,Cafe 11,Pashley,10004,11724,11 Broadway,169 Main St
4685,2326,,McFadden's Rockville Center,Stanford Guest House,11570,94025,210 Merrick Rd,2575 Sand Hill Rd
1479,1735,,Stacks,LB Steak,94025,94025,600 Santa Cruz Ave,898 Santa Cruz Ave
4120,2582,,Frenchy's Chicken,Newport Animal Hospital,77004,92657,3919 Scott St,21157 Newport Coast Dr
10459,1118,,Half-Way House Saloon,PhotoTrainer,66015,94301,20274 SW 500th Rd,616 Ramona St
2372,3008,,A Cow Jumped Over The Moon,"The Ritz-Carlton, Westchester",90210,10601,421 N Rodeo Dr # 29,Three Renaissance Square
957,4283,,Vault 164,Bazille,94401,75225,164 S B St,8687 N Central Expy
6535,546,,Clique Club,Fashion Wok,26301,94404,OLD Bridgeport Hill Rd,929 A Edgewater Blvd
11531,3429,,Magic China,Greystone Park and Mansion,76706,90210,221 Interstate 35 S,905 Loma Vista Dr
10748,6022,,Bk Donuts,Costco,79605,60045,14TH & Texas Ave,25901 Riverwoods Rd
2212,1190,,Caffe Riace Ristorante Italiano,Mansoor & Gore Jewelers,94306,94301,200 Sheridan Ave,530 Ramona St
6605,3782,,Mountaineer Grille Inc,Kona Grill,26330,78256,166 Barnetts Run Rd,15900 LaCantera Pkwy
8279,2625,,Arigato Japanese Steak & Seafood House,Pain Du Monde,27407,92660,1200 S Holden Rd,561 Newport Ctr Dr
7400,566,,Ginny's Restaurant,Clubhouse Bistro,15530,94404,1026 Main St,1221 Chess Dr
7070,3063,,Nachitos Mexican Amer Grill,Middle East Bakery & Grocery,73059,33401,427 Highway 81,327 5th St
10080,3162,,El Toro Cafe,Bistro Bistro,67114,33407,314 E 7th St,506 Northwood Rd
7663,5764,,Every Ting Nice Catering Service,Kohns Kosher Meat & Deli,,63141,,10405 Old Olive Street Rd
1567,6033,,Peet's Coffee & Tea,Grand Cru Wine Merchants,94025,60045,899 Santa Cruz Ave,840 S Waukegan Rd
9268,620,,Arby's,Zalles Racquet Sports,61550,94404,1801 N Morton Ave,969 Edgewater Blvd
9396,471,,Eminent Kings and Queens Creole Restaurant,Master Plumbing & Sewer,76201,,1622 W Unversity Drive   Suite 100,Serving Mountain View and the Surrounding Area
6639,4277,,China Inn,Burger House,22554,75205,3249 Jefferson Davis Hwy Ste 103,6913 Hillcrest Ave
7638,4955,,Mass Restaurant Equipment Service,Broken Shaker,,60611,,19 E Ohio St
7485,4560,,The New Fort Restaurant,Lush,17223,30326,29423 Great Cove Rd,Buckhead
9192,472,,Palms Grill,Pawfection Pet Care,61723,,110 SW Arch St,Serving Mountain View and the Surrounding Area
10544,385,,Zaika - An Indian Restaurant,ESV limo,12065,,54 Clifton Country Rd,Serving Sunnyvale and the Surrounding Area
4175,1811,,Pappas Burger,Los Gallos Taqueria,77061,94063,7800 Airport Blvd Space C14,3726 Florence St
5051,648,,Porretta's Banquets & Catering,Split Step Tennis,60634,94404,3718 N Central Ave,"Foster City, CA 94404"
3104,4213,,Two Georges Waterfront Grille,The Continental Club,33435,77002,728 Casa Loma Blvd,3700 Main St
35,3144,,Fishermen's Grotto,Makebs,94133,33401,9 Fishermans Wharf,401 S Olive Ave
5159,4738,,Manucci's,Eastern Currents Acupuncture PC,11954,11030,,8 Hillcrest Ave
2956,1660,,BLT Steak White Plains,Neil Adams Construction,10601,,221 Main St,Serving Reno and the Surrounding Area
11477,3780,,Kims,Picks,76710,78249,2600 W Waco Dr,4519 N Loop 1604 W
6898,5716,,Lupe's Tacos,Avenue Restaurant,77044,63105,12333 Ticonderoga Rd,12 N Meramec
495,1302,,Tarragon Restaurant,Contemporary Dental,94086,94403,140 S Murphy Ave,105 37th Ave
2141,1508,,Round Table Pizza,Akasaka Sushi,,94025,,925 El Camino Real
7462,1618,,Dunkin' Donuts,Preferred Auto Care,15904,,1439 Scalp Ave,Serving Sparks and the Surrounding Area
7365,3932,,TRUILO'S Take House,South Beach Pizzeria,15531,32963,1618 W Pitt State Rt 30,1621 Ocean Dr
11565,2290,,Thai Express,Nails By Mary Ryan,20878,94028,351 Kentlands Blvd,104 Portola Rd
11349,2998,,Ringold Cafe,Prima Deli & Catering,74754,10603,,31 Lake St
751,3825,,Summit Coffee,LongHorn Steakhouse,94061,78249,2137 Roosevelt Ave,5803 N Loop 1604 W
6062,551,,Landmark Ii Cafe,Wraps On the Run,60045,,100 N Field Dr,"San Mateo, CA 94404"
5496,2865,,New Great Wall Chinese,Oriental Express,10549,10005,454 E Main St # 1,32 Cedar St
3519,3202,,Iron Works Barbeque,The Breakers,,33480,,1 S County Rd
9883,186,,Lorie's Wildridge Restaurant,Viva Taqueria,16506,95050,5901 W Ridge Rd,444 N Winchester Blvd
11004,2073,,Peet's Coffee & Tea,Burger Lounge,25801,92014,133 Beckley Ave,2720 Via De La Valle
11186,1800,,Spartacus Restaurant,Nativity School Christmas Tree Lot,27516,94025,220 W Rosemary St,210 Oak Grove Ave
6683,3383,,The Mad Crab,"Priya Setty, DDS",22405,60606,348 Warrenton Rd,223 W Jackson Blvd
4833,4353,,Ruby Tuesday,Yogurtland,34108,75225,8777 Tamiami Trl N,7700 W Northwest Hwy
4760,375,,Plaza Seafood Of Rockville Center,Precision Builders,11570,,140 gardeners avenue levitown newyork1576,Serving Mountain View and the Surrounding Area
8949,1004,,County Seat Saloon & Steakhouse,Burlingame Independent,54812,94402,439 N 7th St,850 S Amphlett Blvd
9284,4207,,Olde Towne Bar & Grille,GAGE Lounge,61734,77006,410 Locust St,2600 Travis St
7764,5280,,Sharky's Seafood and BBQ,One Twenty Three Restaurant & Bar,1453,10590,301 Lancaster St,407 Smith Ridge Rd
7307,4267,,Black Angus Steakhouse,Salata,6810,75225,5 Eagle Rd,8307 Westchester Dr
785,28,,A Tavola Restaurant,The Flying Falafel,94063,94086,1041 Middlefield Rd,"Sunnyvale, CA 94086"
6322,2760,,Hotshots Sports Bar & Grill,New York Cares,63119,10006,1236 S Laclede Station Rd,65 Broadway
2890,408,,Executive Park Cafe,EDGE Motorworks,10577,,3000 Westchester Ave # 300,Serving Mountain View and the Surrounding Area
9859,191,,Olive Garden Italian Restaurant,Ilbunjee #1,,95050,,2325 El Camino Real
1858,4376,,Trimana,Cafe 43,90067,75205,1800 Avenue Of The Stars,2943 SMU Blvd
9785,4355,,C J Callaway's,Holy Ravioli,57109,75225,,4446 Lovers Ln
6285,2020,,Saint Louis Bread Co.,Habanero Grill,63127,90067,10740 Sunset Hills Plz,2000 Avenue of the Stars
11822,5932,,Cookie's,Sisters of Charity,65676,10514,,36 Bischoff Ave
8638,1962,,Jimmy John's,"Jordan Geller, MD",61832,90067,3120 N. Vermilion St,2080 Century Park E
10286,1247,,Charlie's Cafe,Stephen Plumbing Services,56331,94403,PO Box 217,4012 Marshall Ave
6898,1664,,Lupe's Tacos,Van Allen Plumbing,77044,,12333 Ticonderoga Rd,Serving Sun Valley and the Surrounding Area
9633,5828,,Smashburger,World Cup Gymnastics,61614,10514,4712 N University St,170 Hunts Ln
2901,5283,,Purchase Country Market,Haiku Asian Bistro & Sushi Bar,10577,10518,630 Anderson Hill Rd,1 Cross River Shopping Ctr
9109,2361,,Mario's Italian Restaurant,Lagen Innesa MA-Cmt,23005,94028,9551 Kings Charter Dr,4370 Alpine Road
5822,5413,,California Pizza Kitchen,Connecticut Sandwich Company,63117,6840,1493 Saint Louis Galleria,78 Pine St
1806,3600,,Obika Mozzarella Bar,Tory Electric,90067,10506,10250 Santa Monica Blvd,Serving Bedford and the Surrounding Area
1354,548,,Blue Sky Cafe,Ronald C Wornick Jewish Day School,94002,94404,1625 El Camino Real Ste 9,800 Foster City Blvd
2537,2032,,Five Crowns,Peter Raney Custom Tailor,92625,90067,3801 E Coast Hwy,1875 Century Park E
8720,4785,,Olive Garden Italian Restaurant,The Grill,,34108,,280 Vanderbilt Beach Rd.
6440,1705,,Roberto's Trattoria,Piccolo Ristorante Italiano,63128,94025,145 Concord Plaza Shopping Ctr,651 Oak Grove Ave
2966,4597,,Asian Temptation,Stresa Italian Restaurant,10601,11030,23 Mamaroneck Ave,1524 Northern Blvd
3326,1746,,Hotel Bel-Air,Hometown Noodle,90077,94063,701 Stone Canyon Rd,3151 Middlefield Rd
22,465,,Coco's,Yellow Cab,94085,,1206 Oakmead Pkwy,Serving Mountain View and the Surrounding Area
4356,2664,,Nick & Sam's Grill,Bellagio Spas & Salons,75225,92657,8111 Preston Rd,7932 E Coast Hwy
10137,2647,,Sadie's Bar and Grill,Settebello Pizzeria Napoletana,67114,92657,1420 Old Main,7864 East Coast Hwy
5772,4319,,I Love Mr Sushi,Masala Wok,63132,75222,9443 Olive Blvd,6106 Luther Ln
11551,902,,Fingers & Claws Restaurant,Rave Burger,20878,94401,802 Muddy Branch Rd,144 E 3rd Ave
9513,247,,Sky Harbor Steak House,Evolution Motorcycles,61604,95050,1321 N Park Rd,2385 De La Cruz Blvd
3233,3231,,Sixty-Five Restaurant,Chicago Pizza Tours,60606,,222 S Canal St,Serving Chicago and the Surrounding Area
9968,5539,,The Breakfast Place,Cafe DeVita,16509,19805,4108 Peach St,504 Greenhill Ave
8835,3831,,Perkins Restaurant & Bakery,Total Wine & More,18902,78257,4319 W Swamp Rd,17530 La Cantera Pkwy
6175,74,,Nieto's,BoLee Bridal Couture,60035,94085,429 Temple Ave,542 Lawrence Expy
2163,1573,,Roadside Grill,Olectric,94028,,3130 Alpine Rd,Serving Reno and the Surrounding Area
9877,3007,,Hoss's Steak & Sea House,Nordstrom,16506,10601,3302 W 26th St,135 Wchester Ave
6907,4169,,Domino's Pizza,Cafe Layal Midtown,77044,77002,8535 C E King Pkwy,207 Gray St
118,2446,,Round Table Pizza,Bar On 4,94022,90212,399 1st St,9700 Wilshire Blvd
7534,160,,Starbucks Coffee,Express El Camino Locksmith,16689,94087,3744 N Hess Rd,Serving Sunnyvale and the Surrounding Area
4665,4637,,Best Wok,Fifth Ave Barber Shop,11030,11030,17 Bayview Ave,15 Maple Pl
6816,3959,,Heartland Foods,Costa Azul,67748,34950,127 Converse Ave,2311 Okeechobee Rd
7379,1688,,Hoss's Steak & Sea House,Wax On Wax Off Mobile Detail,15904,,441 Theatre Dr,"Reno, NV 89503"
11073,1517,,Gino's Pizza & Spaghetti House,Asian Box,25827,94301,PO Box 607,855 El Camino Real
983,210,,Ramen Parlor,Lightning Press,94401,95050,901 S B St,1085 Memorex Dr
182,4707,,Daddy Dough Bake Shop,American Car Wash,94085,11576,907 E Duane Ave,1035 Northern Blvd
3576,1819,,Dinardo's Restaurant,Gould-Jacobson Dermatology,10576,94025,76 Westchester Ave,695 Oak Grove Ave
129,4423,,Sunnyvale Cafe,St. Cecilia,94085,30326,223 E Maude Ave,3455 Peachtree Rd NE
4541,1103,,Buckhead Pizza Co,Palo Alto Bimmer,30326,94301,3324 Peachtree Rd NE Ste B,799 Alma St
3271,3849,,Cosi,Tiffany & Co,60606,78256,230 W Washington St Ste 1,15900 La Cantera Pkwy
1724,193,,Seven Mares Mexican Seafood Restaurant,Magic Key Locksmith,94063,95050,2809 Middlefield Rd,Serving Santa Clara and the Surrounding Area
269,5112,,Sara's Kitchen,Cold Spring Harbor Wine Shoppe,95050,11724,1595 Franklin St,84 Main St
8908,4504,,Lake Country Pizza,Cafe 100,54889,30326,225 US Highway 8 63,3340 Peachtree Rd NE
9742,802,,Elements on 8th,Vino Santo Bistro,57103,94063,201 E 8th St,2030 Broadway St
7654,4844,,Legal Sea Foods,Watermark Grille,2145,34110,301 Great River Rd,11280 Tamiami Trl N
5924,912,,Spoon Asian Fusion,Kaffeehaus,10514,94401,415 King St,92 E 3rd Ave
3107,4398,,Skydive Deland Inc,Panera Bread,32724,75225,1600 Flight Line Blvd,7839 Park Ln
3881,5660,,Orchid Island Pizzeria,The Cheesecake Factory,32963,63117,9300 Highway A1a Ste 102,1062 St Louis Galleria
10321,3127,,Pizza Inn,Dixie Grill & Bar,71654,33405,3207 Highway 65 N,5101 S Dixie Hwy
1918,3663,,Mille Fleurs,"Andrew Chary Architect, PLLC",92067,10506,6009 Paseo Delicias,444 Old Post Rd
11631,2085,,Lumpia Pansit Atbp Filipino Restaurant and Cafe,Rancho Santa Fe Farmers Market,20878,92091,213 Muddy Branch Rd,16079 San Dieguito Rd
9727,3681,,Olive Garden Italian Restaurant,Benedek Armand & Glenn Ticehurst,,10506,,448 Old Post Rd Ste H
9054,421,,Gus' Italian Cafe,Michelle Damas Photography,23111,,HANOVER Square Shopping Ctr,Serving Mountain View and the Surrounding Area
2384,5556,,Wolfgang Puck,Sugarfoot Fine Food,90210,19805,176 N Canon Dr,1014 N Lincoln St
8778,5146,,Giovanni's Pizza,Benchmark Business Network,19057,11724,928 Woodbourne Rd,3 Harbor Rd
11439,3610,,La Fiesta Restaurant,Country Kids Schoolhouse,76710,10506,3815 Franklin Ave,28 Virginia Ave
6445,3418,,Maggie's Lunchbox,Luxelab At The Glen,63026,90077,867 Horan Dr,2938 Beverly Glen Cir
2359,2147,,Lomeli's Restaurant,"Elizabeth Christensen, OD",90247,92067,2223 W Redondo Beach Blvd,"6037 La Granada, Ste A"
7501,233,,Jane & Shelly's Place,Yuki Sushi,16678,95050,10910 Raystown Rd,1827 Pruneridge Ave
6598,1288,,Connies' Grill & Lounge,Visible Changes,26448,94403,,15 43rd Ave
8673,443,,Olive Garden Italian Restaurant,Cosmos Roofing,,,,Serving Palo Alto and the Surrounding Area
6496,5660,,King's New York,The Cheesecake Factory,26301,63117,499 Rosebud Plz,1062 St Louis Galleria
1329,5065,,Sushi Main St,The Indian Garden,94019,60611,696 Mill St,247 E Ontario St
5420,1981,,Fifty Coins Restaurant,"Geoffrey R. Keyes, MD, FACS",6877,90067,426 Main St,2080 Century Park E
10057,5298,,Olive Garden Italian Restaurant,Farmers Table,,6840,,12 Forest St
9800,4303,,Pita Pit,Cisco Grill,57103,75205,2401 E 10th St,6630 Snider Plz
9184,916,,Minier Tap,Pacific Catch,61759,94401,121 S Main Ave,243 S B St
3130,2968,,Victors Cafe,White Plains Vapors,33480,10601,240 Worth Ave,210 Mamaroneck Ave
3091,2994,,PB Catch,"Wild Fusion, Inc",33480,10601,251 Sunrise Ave,250 Main St
5270,6090,,Jeff's Surf And Turf,PostNet,11743,60045,217 New York Ave,825 S Waukegan Rd
1684,3204,,Fishermen's Grotto,Yu-Mi Sushi Japanese Restaurant & Cafe,94133,33409,9 Fishermans Wharf,2800 N Military Trl
9398,4617,,Texas Land and Cattle,Cipollini Restaurant,75069,11030,131 E. Stacy Road,"2110 Northern Blvd, Ste C"
9275,5072,,The River Roadhouse Inc,Frontera Grill,61755,60654,30573 State Route 9,445 N Clark St
10840,2011,,Black Bear Diner,Beverly Hills Cardiology,55790,90067,6699 Highway 169,2080 Century Park E
6434,3239,,Krispy Kreme,Protein Bar,63128,60606,11017 Gravois Industrial Ct Ste C,235 S Franklin St
6318,1056,,Clayton's Bakery & Deli,Darbar Indian Cuisine,63131,94301,11744 Manchester Rd,129 Lytton Ave
1047,3700,,Three Seasons,Patriot National Bank,94301,10506,518 Bryant St,432 Old Post Rd
9415,5428,,Jimbo's Pizza of Celina,Chez Marie,75009,10506,402 E Walnut St,633 Old Post Rd
4802,2470,,Cheeburger Cheeburger,Fresh Brothers,34108,90212,9853 Tamiami Trl N Ste 109,250 S Beverly Dr
8020,5925,,Al Biernat's,Zuckerman Mark D,75219,10514,4217 Oak Lawn Ave,211 King St
673,5421,,Little Caesars Pizza,School of Rock Bedford,94061,10506,2193 Roosevelt Ave,12 Court Road
7134,1658,,Midstate Restaurant Service Inc.,Empire Carpet Care,73179,,4700 Dougherty Pl Ste A,Serving Sparks and the Surrounding Area
7541,1600,,Bistro,Enhanced Electrical Services Inc,16662,,403 Village Way,Serving Reno and the Surrounding Area
9555,2176,,Good Tequilas Mexican Grill,Dalzell Group Real Estate,61614,92067,4908 N Renwood Ave,Serving Del Mar and the Surrounding Area
9875,1265,,Imperial China Buffet,Seasonal Celebrations,16509,94403,5138 Peach St,Serving Belmont and the Surrounding Area
1144,1875,,Hobees Restaurant,Gulfstream,94301,90067,67 El Camino Real,10250 Santa Monica Blvd
2922,4834,,Crowne Plaza Southbury Hotel,The Claw Bar,,34110,,799 Walkerbilt Rd