ID_A,ID_B,Name_A,Name_B,Zipcode_A,Zipcode_B,Address_A,Address_B
1016,955,The Melting Pot,Melting Pot,94401.0,94401.0,2 N B St,2 N B St
810,1740,El Grullense E & E,El Grullense,94063.0,94063.0,2401 Middlefield Rd,795 5th Ave
740,1732,Round Table Pizza,Round Table Pizza,94025.0,94025.0,1225 El Camino Real,1225 El Camino Real
624,540,Waterfront Pizza,Waterfront,94404.0,94404.0,969 Edgewater Blvd,969 D Edgewater Blvd
111,1742,Chantilly Restaurant,Chantilly Restaurant,94061.0,94061.0,3001 El Camino Real,3001 El Camino Real
222,187,Mio Vicino,Mio Vicino,95050.0,95050.0,1290 Benton St,1290 Benton St
3863,3955,Di Mare,Di Mare Vero Beach,32963.0,32963.0,1517 Ocean Dr,1517 Ocean Dr
1920,2046,Veladora,Veladora,92067.0,92067.0,5921 Valencia Cir,5921 Valencia Cir
6141,6105,Sbarro,Sbarro,60045.0,60045.0,13783 W Oasis Service Rd,13783 W Oasis Service Rd
1591,2239,El Cerrito Mexican Restaurant,El Cerrito Mexican Restaurant,94025.0,94025.0,325 Sharon Park Dr Ste B4,325 Sharon Park Dr
3781,3852,Orange Leaf Frozen Yogurt at The Rim,Orange Leaf Frozen Yogurt,78257.0,78257.0,6028 Worth Parkway,6028 Worth Parkway
4673,4598,Starbucks Coffee,Starbucks,11030.0,11030.0,375 Plandome Rd,375 Plandome Rd
1716,683,Karakade,Karakade Thai Cuisine,94061.0,94061.0,593G Woodside Rd,593 G Woodside Rd
6173,6092,House Of Peking,House of Peking,60040.0,60040.0,846 Sheridan Rd,846 Sheridan Rd
4061,4145,Fish,The Fish,77002.0,77002.0,309 Gray St # 107,309 Gray St
4577,4462,Sarku Japan,Sushi Bar Sarku Japan,30326.0,30326.0,"3393 Peachtree Rd NE , Space#1013",Buckhead
3789,3775,The Grill At Leon Springs,The Grill at Leon Springs,78257.0,78257.0,24116 W Interstate 10,24116 IH-10 W
1485,1815,Su Hong-Menlo Park,Su Hong-Menlo Park,94025.0,94025.0,1039 El Camino Real,1039 El Camino Real
5338,5278,The Kitchen Table At Pound Ridge,The Kitchen Table,10576.0,10576.0,71 Westchester Ave,71 Westchester Ave
3988,3943,Avanzare Ristorante,Avanzare Ristorante,32960.0,32960.0,1932 14th Ave,1932 14th Ave
2302,2412,Coupa Cafe,Coupa Cafe,90210.0,90210.0,419 N Canon Dr,419 N Canon Dr
3299,3257,Naansense,Naansense,60606.0,60606.0,171 N Wells St,171 N Wells St
4258,4298,Blue Mesa Grill,Blue Mesa Grill,75225.0,75225.0,7700 W Northwest Hwy,7700 W NW Hwy
3319,3255,Starbucks Coffee,Starbucks,60606.0,60606.0,200 W Madison St,233 S Wacker Dr
3045,3112,PB Catch,PB Catch,33480.0,33480.0,251 Sunrise Ave,251 Sunrise Ave
2909,2965,Marketplace Cafe - Nordstrom The Westchester,The Westchester,10601.0,10601.0,135 Westchester Ave,125 Westchester Ave
2905,2895,Trevi Ristorante,Trevi Ristorante,10604.0,10604.0,11 Taylor Sq,11 Taylor Sq
5789,5726,Sarku Japan Sushi Bar,Sarku Japan Sushi Bar,63117.0,63117.0,1155 Saint Louis Galleria,1155 Saint Louis Galleria
2174,2236,Restaurant Mitsunobu,Mitsunobu,94025.0,94025.0,325 Sharon Park Dr Ste A2,325 Sharon Park Dr
567,1251,The Counter,The Counter - San Mateo,94403.0,94403.0,41 W Hillsdale Blvd,41 W Hillsdale Blvd
2157,2218,Old Port Lobster Shack,Old Port Lobster Shack,94028.0,94028.0,3130 Alpine Rd,3130 Alpine Rd
5024,5021,Gibsons Bar & Steakhouse - Chicago,Gibsons Bar & Steakhouse,60611.0,60611.0,1028 N Rush St,1028 N Rush St
4371,4306,California Pizza Kitchen,California Pizza Kitchen,75225.0,75225.0,8411 Preston Rd Ste 124,8411 Preston Road
1203,1024,Zola,Zola,94301.0,94301.0,565 Bryant St,565 Bryant St
2939,2892,Aquario Restaurant,Aquario Restaurant,10604.0,10604.0,141 Lake St,141 E Lake St
5446,5310,Barolo Restaurant,Barolo,6840.0,6840.0,136 Main St,136 Main St
6045,5965,MH Fish House,MH Fish House,60045.0,60045.0,670 N Bank Ln,670 Bank Lane
822,807,I Dumpling,I Dumpling,94063.0,94063.0,2660 Broadway St,2660 Broadway St
1058,1144,Steam,Steam,94301.0,94301.0,209 University Ave,209 University Ave
878,1742,Chantilly Restaurant,Chantilly Restaurant,94061.0,94061.0,3001 El Camino Real,3001 El Camino Real
862,904,Little China Kitchen,Little China Kitchen,94401.0,94401.0,215 E 3rd Ave,215 E 3rd Ave
4021,4028,The Quilted Giraffe,The Quilted Giraffe,32962.0,32962.0,500 S US Highway 1,500 S US 1
1556,2233,Starbucks Coffee,Starbucks,94025.0,94025.0,693 Santa Cruz Ave,325 Sharon Park Dr
1617,1724,Stacks,Stacks,94025.0,94025.0,600 Santa Cruz Ave,600 Santa Cruz Ave
933,1742,Chantilly Restaurant,Chantilly Restaurant,94061.0,94061.0,3001 El Camino Real,3001 El Camino Real
123,114,Barn Thai Restaurant,Barn Thai Restaurant,94085.0,94085.0,921 E Duane Ave,921 E Duane Ave
3069,3202,Flagler Steakhouse at The Breakers,The Breakers,33480.0,33480.0,2 S County Rd,1 S County Rd
819,754,El Grullense E & E,El Grullense,94063.0,94063.0,999 El Camino Real,1243 Middlefield Rd
2407,2414,Panini Cafe,Panini Cafe Beverly Hills,90210.0,90210.0,9601 Santa Monica Blvd,9601 Santa Monica Blvd
5429,5374,Sole Restaurant,Sole Restaurant,6840.0,6840.0,105 Elm St,105 Elm St
1492,1390,Menlo Grill Bistro & Bar,Menlo Grill Bistro & Bar,94025.0,94025.0,100 El Camino Real,100 El Camino Real
2904,2892,Aquario Restaurant,Aquario Restaurant,10604.0,10604.0,141 Lake St,141 E Lake St
1294,1304,Classic 101 Burgers & Shakes,Classic 101 Burgers & Shakes,94002.0,94002.0,575 Ralston Ave,575 Ralston Ave
1173,1156,Mandarin Gourmet,Mandarin Gourmet - CLOSED,94301.0,94301.0,420 Ramona St,420 Ramona St
5816,5671,First Watch Restaurant,First Watch,63105.0,63105.0,8001 Forsyth Blvd,8001 Forsyth Blvd.
4388,4309,Starbucks Coffee,Starbucks,75225.0,75225.0,8411 Preston Rd Ste 100,8411 Preston Rd
3956,3945,Cobalt Restaurant and Lounge,Cobalt,32963.0,32963.0,3500 Ocean Dr,3500 Ocean Dr
1258,1251,The Counter,The Counter - San Mateo,94403.0,94403.0,41 W Hillsdale Blvd,41 W Hillsdale Blvd
2215,1053,Garden Fresh & Vegetarian Restaurant,Garden Fresh,94301.0,94301.0,460 Ramona St,460 Ramona St
1799,1927,BreadBar,BreadBar,90067.0,90067.0,10250 Santa Monica Blvd,10250 Santa Monica Blvd
1523,1513,J & J Hawaiian BBQ,J & J Hawaiian BBQ,94025.0,94025.0,1170 Alma St,1170 Alma St
4373,4331,La Duni Latin Kitchen & Coffee,La Duni Latin Kitchen & Coffee Studio,75225.0,75225.0,8687 N Central Expy,"8687 N Central Expy, Ste 1516"
1700,1402,Applewood,Applewood Pizza,94025.0,94025.0,989 El Camino Real,1001 El Camino Real
2178,1427,Flea Street Cafe,Flea Street,94025.0,94025.0,3607 Alameda De Las Pulgas,3607 Alameda de Las Pulgas
819,744,El Grullense E & E,El Grullense E & E,94063.0,94063.0,999 El Camino Real,2401 Middlefield Rd
587,536,Cooking Papa,Cooking Papa Restaurant,94404.0,94404.0,949 Edgewater Blvd,949A Edgewater Blvd
4262,4293,The Cheesecake Factory,The Cheesecake Factory,75225.0,75225.0,7700 W Northwest Hwy,7700 W Northwest Hwy
1123,1742,Chantilly Restaurant,Chantilly Restaurant,94061.0,94061.0,3001 El Camino Real,3001 El Camino Real
3479,3432,West Restaurant & Lounge,West Restaurant & Lounge,90049.0,90049.0,170 N Church Ln,170 N Church Ln
1910,2467,Via Alloro,Via Alloro,90210.0,90210.0,301 N Canon Dr,301 N Canon Dr
4673,4627,Starbucks Coffee,Starbucks,11030.0,11030.0,375 Plandome Rd,1100 Northern Blvd
1062,1109,Arte Ristorante,Arte Ristorante,94301.0,94301.0,473 University Ave,473 University Ave
2347,2502,Il Fornaio,Il Fornaio,90210.0,90210.0,301 N Beverly Dr,301 North Beverly Drive
2038,2064,CUCINA enoteca Del Mar,Cucina Enoteca,92014.0,92014.0,2730 Via De La Valle,2730 Via de la Valle
2195,1742,Chantilly Restaurant,Chantilly Restaurant,94061.0,94061.0,3001 El Camino Real,3001 El Camino Real
1753,1719,Mp Mongolian BBQ,MP Mongolian BBQ,94025.0,94025.0,700 El Camino Real,700 El Camino Real
595,563,Joy Restaurant,Joy Restaurant,94404.0,94404.0,1489 Beach Park Blvd,1489 Beach Park Blvd
2994,3002,David King Chinese Restrnt Inc,David King,10601.0,10601.0,128 Mamaroneck Ave,128 Mamaroneck Ave
5923,5784,Sherry B Dessert Studio,Sherry B Dessert Studio,10514.0,10514.0,65 King St,65 King St
1859,1904,Massis Kabob,Massis Kabob - The Original Kabobery,90067.0,90067.0,10250 Santa Monica Blvd,10250 Santa Monica Blvd FC 11
63,141,Sneha South & North Indian Restaurant,Sneha,94085.0,94085.0,1214 Apollo Way # 404-B,1214 Apollo Way
3864,3933,Ocean Grill,Ocean Grill,32963.0,32963.0,1050 Beachland Blvd,1050 Beachland Blvd
1821,2020,Habanero Grill,Habanero Grill,90067.0,90067.0,2000 Avenue Of The Stars Ste 25,2000 Avenue of the Stars
2309,2381,Urasawa Restaurant,Urasawa,90210.0,90210.0,218 N Rodeo Dr,218 N Rodeo Dr
2528,2647,Settebello Pizzeria,Settebello Pizzeria Napoletana,92657.0,92657.0,7864 E Coast Hwy,7864 East Coast Hwy
4232,4156,Perbacco,Perbacco,77002.0,77002.0,700 Milam St,700 Milam St
548,564,Tokyo Village,Tokyo Village,94404.0,94404.0,1221 Chess Dr,1221 Chess Dr
5433,5277,The Horse & Hound,The Horse & Hound,10590.0,10590.0,94 Spring St,94 Spring St
158,23,Tres Potrillos Taqueria,Tres Potrillos,94085.0,94085.0,670 N Fair Oaks Ave,670 N Fair Oaks Ave
5780,5681,Wasabi Sushi Bar,Wasabi Sushi Bar,63105.0,63105.0,16 S Central Ave,16 S Central Ave
5510,5484,Centreville Cafe,Centreville Cafe,19807.0,19807.0,5800 Kennett Pike,5800 Kennett Pike
1209,1115,Starbucks Coffee,Starbucks,94301.0,94301.0,376 University Ave,376 University Ave
1873,1874,1880 Cafe,1880 Cafe,90067.0,90067.0,1880 Century Park E Ste 103,1880 Century Park E
2849,2964,Purchase Country Market,Purchase Country Market,10577.0,10577.0,630 Anderson Hill Rd,630 Anderson Hill Rd
2227,1442,Round Table Pizza,Round Table Pizza,94025.0,94025.0,1225 El Camino Real,1225 El Camino Real
1941,2054,Leucadia Pizzeria & Italian Restaurant,Leucadia Pizzeria,92091.0,92091.0,16085 San Dieguito Rd,16085 San Dieguito Rd
2975,3036,Buddha,Buddha,10573.0,10573.0,1 Rye Ridge Plz,Rye Ridge Shopping Center
837,943,San Mateo Prime,San Mateo Prime,94401.0,94401.0,174 E 3rd Ave,174 3rd Ave
1622,1815,Su Hong-Menlo Park,Su Hong-Menlo Park,94025.0,94025.0,1039 El Camino Real,1039 El Camino Real
5501,5441,Pizza by Elizabeths,Pizza by Elizabeths,19807.0,19807.0,4019 Kennett Pike,3801 Kennett Pike
4617,4597,Stresa Italian Restaurant,Stresa Italian Restaurant,11030.0,11030.0,1524 Northern Blvd,1524 Northern Blvd
5795,5676,Sushi Ai,Sushi Ai,63105.0,63105.0,4 N Central Ave,4 N Central Ave
846,892,Viognier,Viognier,94401.0,94401.0,222 E 4th Ave,222 E 4th Ave
4418,4309,Starbucks Coffee,Starbucks,75225.0,75225.0,8687 N Central Expy,8411 Preston Rd
2526,2567,Starbucks Coffee,Starbucks,92657.0,92657.0,21181 Newport Coast Dr,21155 Newport Coast Dr
277,187,Mio Vicino,Mio Vicino,95050.0,95050.0,1290 Benton St,1290 Benton St
3179,3199,Thai Bay Restaurant,Thai Bay Restaurant,33401.0,33401.0,1000 Okeechobee Rd,1000 Okeechobee Rd
5193,5103,Harbor Mist Restaurant,Harbor Mist,11724.0,11724.0,105 Harbor Rd,105 Harbor Rd
5518,5586,Greenville Country Club,Greenville Country Club,19807.0,19807.0,201 Owls Nest Rd,201 Owls Nest Rd
2604,2641,Mariposa,Mariposa,92660.0,92660.0,601 Newport Center Dr # 3,601 Newport Ctr Dr
1657,1721,Shiok Singapore Kitchen,Shiok Singapore Kitchen,94025.0,94025.0,1137 Chestnut St,1137 Chestnut St
795,813,Erawan Thai Restaurant,Erawan Thai Restaurant,94063.0,94063.0,2639 Broadway St,2639 Broadway St
4461,4440,Zinburger,Zinburger Wine & Burger Bar,30326.0,30326.0,3393 Peachtree Rd NE,3393 Peachtree Rd NE
2280,1530,Pizza My Heart,Pizza My Heart,94301.0,94301.0,220 University Ave,220 University Ave
2202,1406,Shiok Singapore Kitchen,Shiok Singapore Kitchen,94025.0,94025.0,1137 Chestnut St,1137 Chestnut St
5411,5400,Panda Garden,Panda Garden,10590.0,10590.0,207 Oakridge Dr,207 Oakridge Dr
2235,1385,Tamarine Restaurant,Tamarine Restaurant,94301.0,94301.0,546 University Ave,546 University Ave
1054,1129,Il Fornaio,Il Fornaio,94301.0,94301.0,520 Cowper Street (At The Garden Court Hotel),520 Cowper Street
4563,4478,NM Cafe,NM Cafe at Neiman Marcus,30326.0,30326.0,3393 Peachtree Rd NE,3393 Peachtree Rd NE
542,535,Kobe Japanese Cuisine & Bar,Kobe Japanese Cuisine & Bar,94404.0,94404.0,929 Edgewater Blvd Ste B,929 Edgewater Blvd
4033,4011,Ruby Tuesday,Ruby Tuesday,32966.0,32966.0,5820 College Ln,1825 58Th Avenue
702,692,Pronto Rotisserie & Pizzeria,Pronto Rotisserie & Pizzeria,94061.0,94061.0,2560 El Camino Real,2560 El Camino Real
1658,1827,Angelo Mio,Angelo Mio,94025.0,94025.0,820 Santa Cruz Ave,820 Santa Cruz Ave
1674,1714,Fey Restaurant,Fey Restaurant,94025.0,94025.0,1368 El Camino Real,1368 El Camino Real
3311,3255,Starbucks Coffee,Starbucks,60606.0,60606.0,10 S Riverside Plz Ste 130,233 S Wacker Dr
403,331,Starbucks Coffee,Starbucks,95050.0,95050.0,2605 The Alameda,71 Washington St
5105,5013,Pane Caldo,Pane Caldo,60611.0,60611.0,111 E Chestnut St,111 E Chestnut St
4592,4509,Chick-Fil-A,Chick-fil-A,30326.0,30326.0,3393 Peachtree Rd NE,3393 Peachtree Rd NE
1846,1953,Starbucks Coffee,Starbucks,90067.0,90067.0,2049 Century Park E,1875 Century Park E
2263,683,Karakade,Karakade Thai Cuisine,94061.0,94061.0,593G Woodside Rd,593 G Woodside Rd
4972,5051,M Burger,M Burger,60611.0,60611.0,161 E Huron St,161 E Huron St
5123,5000,Labriola Cafe,Labriola Chicago: La Stanza Ristorante and Labriola Cafe,60611.0,60611.0,535 N Michigan Ave,535 N Michigan Ave
3842,3770,Mariposa,Mariposa Restaurant,78256.0,78256.0,15900 La Cantera Pkwy,15900 La Cantera Pkwy
653,683,Karakade,Karakade Thai Cuisine,94061.0,94061.0,593G Woodside Rd,593 G Woodside Rd
175,11,Agape Grill,Agape Grill,94085.0,94085.0,845 Stewart Dr Ste A,845 Stewart Dr
1678,1780,J & J Hawaiian BBQ,J & J Hawaiian BBQ,94025.0,94025.0,1170 Alma St,1170 Alma St
3997,3939,Kata By Sake,Kata,32960.0,32960.0,1306 20th St,1306 20th St
1122,1076,Jing-Jing Szechwan Hunan Gourmet,Jing-Jing Szechwan Hunan Gourmet,94301.0,94301.0,443 Emerson St,443 Emerson St
1432,1400,Stacks,Stacks,94025.0,94025.0,600 Santa Cruz Ave,600 Santa Cruz Ave
5414,3571,Ristorante Lucia,Ristorante Lucia,10506.0,10506.0,454 Old Post Rd,454 Old Post Rd
1101,1129,Il Fornaio,Il Fornaio,94301.0,94301.0,520 Cowper Street (At The Garden Court Hotel),520 Cowper Street
5328,5333,Asia Hamachi Restaurant,Asia Hamachi Restaurant,10576.0,10576.0,54 Westchester Ave,54 Westchester Ave
2175,2230,Madera,Madera,94025.0,94025.0,2825 Sand Hill Rd,2825 Sand Hill Rd
769,812,Villa Roma,The Villa Roma Cocktail Lounge,94061.0,94061.0,593 Woodside Rd,593 Woodside Rd
819,1424,El Grullense E & E,El Grullense,94063.0,94063.0,999 El Camino Real,795 5th Ave
1483,1427,Flea Street Cafe,Flea Street,94025.0,94025.0,3607 Alameda De Las Pulgas,3607 Alameda de Las Pulgas
4840,4775,The Crust Pizza,The Crust Pizza,34108.0,34108.0,875 Vanderbilt Beach Rd,875 Vanderbilt Beach Rd
1319,738,Chantilly Restaurant,Chantilly Restaurant,94061.0,94061.0,3001 El Camino Real,3001 El Camino Real
2485,2674,The Quiet Woman,The Quiet Woman,92625.0,92625.0,3224 E Coast Hwy,3224 E Coast Hwy
2223,1076,Jing-Jing Szechwan Hunan Gourmet,Jing-Jing Szechwan Hunan Gourmet,94301.0,94301.0,443 Emerson St,443 Emerson St
2201,738,Chantilly Restaurant,Chantilly Restaurant,94061.0,94061.0,3001 El Camino Real,3001 El Camino Real
1968,2047,Mille Fleurs,Mille Fleurs Restaurant,92067.0,92067.0,6009 Paseo Delicias,6009 Paseo Delicias
1126,1732,Round Table Pizza,Round Table Pizza,94025.0,94025.0,1225 El Camino Real,1225 El Camino Real
406,331,Starbucks Coffee,Starbucks,95050.0,95050.0,495 El Camino Real Ste 101,71 Washington St
2523,2569,Coliseum Pool & Grill,Coliseum Pool & Grill,92657.0,92657.0,22701 Pelican Hill Rd S,22701 Pelican Hill Rd S
1129,1489,Bon Vivant Cafe,Bon Vivant,94301.0,94301.0,535 Bryant St,535 Bryant St
761,698,Dairy Queen,Dairy Queen,94061.0,94061.0,640 Woodside Rd,640 Woodside Rd
1628,1729,Naomi Sushi,Naomi Sushi,94025.0,94025.0,1328 El Camino Real,1328 El Camino Real
226,265,Mayuri Indian Cuisine,Mayuri Indian Cuisine,95050.0,95050.0,2230 El Camino Real,2232 El Camino Real
737,1076,Jing-Jing Szechwan Hunan Gourmet,Jing-Jing Szechwan Hunan Gourmet,94301.0,94301.0,443 Emerson St,443 Emerson St
894,869,Curry Up Now,Curry Up Now,94401.0,94401.0,129 S B St,129 S B St
1877,1906,Big Fat Pita,Big Fat Pita,90067.0,90067.0,10250 Santa Monica Blvd # Fc4,10250 Santa Monica Blvd
1180,1460,Reposado,Reposado,94301.0,94301.0,236 Hamilton Ave,236 Hamilton Ave
1692,1076,Jing-Jing Szechwan Hunan Gourmet,Jing-Jing Szechwan Hunan Gourmet,94301.0,94301.0,443 Emerson St,443 Emerson St
4799,4779,The Counter,The Counter,34108.0,34108.0,9110 Strada Pl Ste 6130,9110 Strada Place
4087,4119,The Breakfast Klub,The Breakfast Klub,77002.0,77002.0,3711 Travis St,3711 Travis St
4458,4586,Nordstrom Restaurant,Nordstrom,30326.0,30326.0,3500 Peachtree Rd NE A1,3500 Peachtree Rd NE
1289,1257,Sushi Kuu,Sushi Kuu,94002.0,94002.0,1001 Alameda De Las Pulgas,1001 Alameda De Las Pulgas
611,532,Chatime,Chatime,94404.0,94404.0,969 Edgewater Blvd,969A Edgewater Blvd
3488,3573,Truck,TRUCK,10506.0,10506.0,391 Old Post Rd,391 Old Post Rd
1222,1205,Shalizaar Restaurant,Shalizaar,94002.0,94002.0,3416 Hillcrest Dr,300 El Camino Real
1189,1430,Bistro Maxine,Bistro Maxine,94301.0,94301.0,548 Ramona St,548 Ramona St
221,249,House of Egg Roll,House of Egg Roll,95050.0,95050.0,1686 Lafayette St,1686 Lafayette St
2293,2403,Il Pastaio,Il Pastaio,90210.0,90210.0,400 N Canon Dr,400 N Canon Dr
828,1740,Taco's El Grullense,El Grullense,94063.0,94063.0,1243 Middlefield Rd,795 5th Ave
3882,4002,Riverside Cafe,Riverside Cafe,32963.0,32963.0,1 Beachland Blvd,1 Beachland Blvd
4551,4512,Table One At Phipps Plaza,Phipps Plaza,30326.0,30326.0,3438 Peachtree Rd NE,3500 Peachtree Rd NE
1487,2230,Madera,Madera,94025.0,94025.0,2825 Sand Hill Rd,2825 Sand Hill Rd
944,949,Gyu-Kaku,Gyu-Kaku Japanese BBQ,94401.0,94401.0,329 S Ellsworth Ave,329 S Ellsworth Ave
2113,2219,Amigos Grill,Amigos Grill Cocina Mexicana Y Cantina,94028.0,94028.0,3130 Alpine Rd,3130 Alpine Rd
551,530,Lotus Garden Restaurant,Lotus Garden Restaurant,94404.0,94404.0,1058 Shell Blvd,1058B Shell Blvd
2348,2544,Beverly Hills Market,Beverly Hills Market,90210.0,90210.0,303 N Crescent Dr,303 N Crescent Dr
5725,5641,Guo Bin Chinese Restaurant,Guo Bin Chinese Restaurant,63124.0,63124.0,8600 Delmar Blvd Ste 1300,8600 Delmar Blvd
839,869,Curry Up Now,Curry Up Now,94401.0,94401.0,129 S B St,129 S B St
951,965,Old Town Sushi,Old Town Sushi,94401.0,94401.0,100 S B St,100 S B St
1090,1044,Nola Restaurant & Bar,NOLA Restaurant & Bar,94301.0,94301.0,535 Ramona St,535 Ramona St
690,738,Chantilly Restaurant,Chantilly Restaurant,94061.0,94061.0,3001 El Camino Real,3001 El Camino Real
1661,1433,Juban Yakiniku House Japanese BBQ,Juban Yakiniku House,94025.0,94025.0,712 Santa Cruz Ave,712 Santa Cruz Ave
3111,3151,Pizza Al Fresco,Pizza Al Fresco,33480.0,33480.0,14 Via Mizner,14 Via Mizner
2344,2496,Porta Via,Porta Via,90210.0,90210.0,424 N Canon Dr,424 N Canon Dr
5085,4987,Mity Nice,Mity Nice Bar & Grill,60611.0,60611.0,835 N Michigan Ave,835 N Michigan Ave
623,636,Chipotle Mexican Grill,Chipotle Mexican Grill,94404.0,94404.0,2019 Chess Dr,2019 Chess Dr
3805,3757,Stone Werks Big Rock Grille,Stone Werks Big Rock Grille,78257.0,78257.0,5807 Worth Pkwy,5807 Worth Pkwy
2816,2745,Fika Espresso Bar,FIKA,10004.0,10004.0,66 Pearl St,66 Pearl St
3216,3355,Sushi Sai,Sushi Sai,60606.0,60606.0,123 N Wacker Dr,123 N Wacker Dr
3958,4002,Riverside Cafe,Riverside Cafe,32963.0,32963.0,3301 Bridge Plaza Dr,1 Beachland Blvd
4069,4109,Kim Tai Restaurant,Kim Tai Restaurant,77002.0,77002.0,2602 Fannin St,2602 Fannin St
4315,4294,Kona Grill,Kona Grill,75225.0,75225.0,8687 N Central Expy Ste 1722,8687 N Central Exwy
4926,4856,Dusk,DUSK,34108.0,34108.0,280 Vanderbilt Beach Rd,280 Vanderbilt Beach Rd.
2303,2420,Yu-N-Mi,Yu-N-Mi,90210.0,90210.0,9475 Santa Monica Blvd,9475 Santa Monica Blvd
4487,4448,Twist Restaurant,Twist Restaurant & Tapas Bar,30326.0,30326.0,3500 Peachtree Rd NE # D1,3500 Peachtree Rd NE
4663,4602,IHOP,IHOP,11030.0,11030.0,1586 Northern Blvd,1586 Northern Blvd
3880,3916,Lemon Tree Vero Beach,Lemon Tree,32963.0,32963.0,3125 Ocean Dr,3125 Ocean Dr
108,1076,Jing-Jing Szechwan Hunan Gourmet,Jing-Jing Szechwan Hunan Gourmet,94301.0,94301.0,443 Emerson St,443 Emerson St
2838,2768,Flavors,Flavors,10004.0,10004.0,27 Whitehall St,27 Whitehall St
4618,4620,Cipollini,Cipollini Pronto Caffe,11030.0,11030.0,2110C Northern Blvd,2060 Northern Blvd
3208,3294,Rivers,Rivers,60606.0,60606.0,30 S Wacker Dr,30 S Wacker Dr
3676,3785,Red Robin Gourmet Burgers,Red Robin Gourmet Burgers,78257.0,78257.0,17403 W Interstate 10,17403 IH-10 West
3035,3202,Seafood Bar At The Breakers,The Breakers,33480.0,33480.0,1 S County Rd,1 S County Rd
863,964,Everyday Beijing,Everyday Beijing,94401.0,94401.0,637 S B St,637 S B St
3246,3271,Arturo Express,Arturo Express,60606.0,60606.0,130 S Canal St,122 S Canal St
1625,1779,Left Bank Menlo Park Brasserie,Left Bank Menlo Park Brasserie,94025.0,94025.0,635 Santa Cruz Ave,635 Santa Cruz Ave
5451,5285,Yuan Asian Cuisine,Yuan Asian Cuisine,6877.0,6877.0,470 Main St,470 Main St
1429,1735,LB Steak,LB Steak,94025.0,94025.0,898 Santa Cruz Ave,898 Santa Cruz Ave
1064,1133,O Sushi House,Sushi House,94301.0,94301.0,403 University Ave,158 Town & Country Village
975,933,Made In Italy,Made In Italy,94401.0,94401.0,137 E 3rd Ave,137 East Third Ave
2971,2967,North Street Tavern & Wood Fired Pizza,North Street Tavern & Wood Fired Pizza,10605.0,10605.0,1128 North St,1128 North St
3841,3857,La Cantera Hill Country Resort,La Cantera Hill Country Resort,78256.0,78256.0,16641 La Cantera Pkwy,16641 La Cantera Parkway
4540,4484,California Pizza Kitchen,California Pizza Kitchen - Temp. CLOSED,30326.0,30326.0,3393 Peachtree Rd NE,3393 Peachtree Rd NE
1158,1058,Vero,Vero,94301.0,94301.0,530 Bryant St,530 Bryant St
4497,4451,Katana Teppanyaki & Sushi,Katana Teppanyaki & Sushi,30326.0,30326.0,3345 Lenox Rd NE,3345 Lenox Rd NE
4949,4798,New York Pizza & Pasta,New York Pizza & Pasta,34110.0,34110.0,11140 Tamiami Trl N,11140 Tamiami Trl N
1148,1405,Darbar Indian Cuisine,Darbar Indian Cuisine,94301.0,94301.0,129 Lytton Ave,129 Lytton Ave
3257,5031,Coco Pazzo Cafe,Coco Pazzo Cafe,60611.0,60611.0,636 N Saint Clair St,636 N St. Clair St
5198,5101,Sweetie Pies On Main,Sweetie Pies on Main,11724.0,11724.0,181 Main St # A,181 Main St
2537,2571,Five Crowns,Five Crowns,92625.0,92625.0,3801 E Coast Hwy,3801 E Coast Hwy
419,243,Starbucks Coffee,Starbucks,95050.0,95050.0,200 Saratoga Ave,2370 El Camino Real
928,1251,The Counter,The Counter - San Mateo,94403.0,94403.0,41 W Hillsdale Blvd,41 W Hillsdale Blvd
2391,2468,Mulberry Street Pizzeria,Mulberry Street Pizzeria,90210.0,90210.0,347 N Canon Dr,347 N Canon Dr
953,956,Crawfish Fusion,Crawfish Fusion,94401.0,94401.0,401 E 3rd Ave,401 E 3rd Ave
4648,4603,Pearl East,Pearl East,11030.0,11030.0,1191 Northern Blvd,1191 Northern Blvd
36,294,Sushi O Sushi Japanese Cuisine,Sushi O Sushi,95051.0,95051.0,2789 El Camino Real,2789 El Camino Real
6164,5971,Koya Japan,Koya,60035.0,60035.0,508 Old Elm Rd,508 E Old Elm Rd
2220,1735,LB Steak,LB Steak,94025.0,94025.0,898 Santa Cruz Ave,898 Santa Cruz Ave
1300,1205,Shalizaar Restaurant,Shalizaar,94002.0,94002.0,300 El Camino Real,300 El Camino Real
1425,1762,Trellis Restaurant,Trellis Restaurant,94025.0,94025.0,1077 El Camino Real,1077 El Camino Real
1616,1442,Round Table Pizza,Round Table Pizza,94025.0,94025.0,1225 El Camino Real,1225 El Camino Real
701,683,Karakade,Karakade Thai Cuisine,94061.0,94061.0,593G Woodside Rd,593 G Woodside Rd
1712,1427,Flea Street Cafe,Flea Street,94025.0,94025.0,3607 Alameda De Las Pulgas,3607 Alameda de Las Pulgas
4457,4499,Pinnacle Cafe,The Pinnacle Cafe,30326.0,30326.0,3455 Peachtree Rd NE Ste 150,3455 Peachtree Rd NE
1828,1907,Edibles,Edibles Coffee Shop,90067.0,90067.0,1888 Century Park E Ste LL30,1888 Century Park E
1020,911,Mango Gardens,Mango Garden,94401.0,94401.0,111 E 4th Ave,111 E 4th Ave
3311,3251,Starbucks Coffee,Starbucks,60606.0,60606.0,10 S Riverside Plz Ste 130,150 N Wacker Dr
1422,1406,Shiok Singapore Kitchen,Shiok Singapore Kitchen,94025.0,94025.0,1137 Chestnut St,1137 Chestnut St
2307,2496,Porta Via,Porta Via,90210.0,90210.0,424 N Canon Dr,424 N Canon Dr
811,849,Angelicas,Angelicas,94063.0,94063.0,863 Main St,863 Main St
609,565,Starbucks Coffee,Starbucks,94404.0,94404.0,1066 Foster City Blvd,1000 Metro Center Blvd
827,1750,Las Parrillas Restaurant,Las Parrillas Restaurant,94025.0,94025.0,3284 Middlefield Rd,3284 Middlefield Rd
1430,1442,Round Table Pizza,Round Table Pizza,94025.0,94025.0,1225 El Camino Real,1225 El Camino Real
1196,1416,Coconuts Caribbean Restaurant & Bar,Coconuts Caribbean Restaurant & Bar,94301.0,94301.0,642 Ramona St,642 Ramona St
2379,2408,Yojisan,Yojisan Sushi,90210.0,90210.0,260 N Beverly Dr,260 N Beverly Dr
1673,1750,Las Parrillas Restaurant,Las Parrillas Restaurant,94025.0,94025.0,3284 Middlefield Rd,3284 Middlefield Rd
5830,5750,Mandarin House Restaurant,Mandarin House Restaurant,63114.0,63114.0,9150 Overland Plz,9150 Overland Plz
6060,5996,Starbucks Coffee,Starbucks,60045.0,60045.0,840 S Waukegan Rd,840 S Waukegan Rd
1781,1437,Nola Restaurant & Bar,NOLA Restaurant & Bar,94301.0,94301.0,535 Ramona St,535 Ramona St
794,739,Donato Enoteca,Donato Enoteca,94063.0,94063.0,1041 Middlefield Rd,1041 Middlefield Rd
1617,1400,Stacks,Stacks,94025.0,94025.0,600 Santa Cruz Ave,600 Santa Cruz Ave
533,563,Joy Restaurant,Joy Restaurant,94404.0,94404.0,1489 Beach Park Blvd,1489 Beach Park Blvd
1438,1815,Su Hong-Menlo Park,Su Hong-Menlo Park,94025.0,94025.0,1039 El Camino Real,1039 El Camino Real
813,777,Bangkok Bay Thai Cuisine,Bangkok Bay Thai Cuisine,94063.0,94063.0,825 El Camino Real,825 El Camino Real
2211,1487,Osteria - Palo Alto,Osteria,94301.0,94301.0,247 Hamilton Ave,247 Hamilton Ave
51,738,Chantilly Restaurant,Chantilly Restaurant,94061.0,94061.0,3001 El Camino Real,3001 El Camino Real
1239,1348,Sushi Lover,Sushi Lover,94002.0,94002.0,550 Masonic Way,550 Masonic Way
1627,1714,Fey Restaurant,Fey Restaurant,94025.0,94025.0,1368 El Camino Real,1368 El Camino Real
4896,4901,The Patio Cafe,The Patio Cafe,34108.0,34108.0,10711 Tamiami Trl N,10711 N Tamiami Trl
5828,5751,Lu Lu Seafood Restaurant,Lu Lu Seafood,63132.0,63132.0,8224 Olive Blvd,8224 Olive Blvd
1057,1088,Pizza My Heart,Pizza My Heart,94301.0,94301.0,220 University Ave,220 University Ave
405,243,Starbucks Coffee,Starbucks,95050.0,95050.0,71 Washington St,2370 El Camino Real
4857,4875,M Waterfront Grille,M Waterfront Grille,34103.0,34103.0,4300 Gulf Shore Blvd N,4300 Gulf Shore Blvd N
1767,1508,Akasaka Sushi,Akasaka Sushi,94025.0,94025.0,925 El Camino Real,925 El Camino Real
85,36,Sri Ananda Bhavan,Ananda Bhavan,94085.0,94085.0,920 E Arques Ave,920E Arques Ave
1152,1094,New York Pizza,New York Pizza,94301.0,94301.0,325 Hamilton Ave,325 Hamilton Ave
892,943,San Mateo Prime,San Mateo Prime,94401.0,94401.0,174 E 3rd Ave,174 3rd Ave
915,935,Tasty Thai Restaurant,Tasty Thai Restaurant,94401.0,94401.0,43 S B St,43 South B St
1111,1133,O Sushi House,Sushi House,94301.0,94301.0,403 University Ave,158 Town & Country Village
1631,1513,J & J Hawaiian BBQ,J & J Hawaiian BBQ,94025.0,94025.0,1170 Alma St,1170 Alma St
3148,3105,Tin Fish,Tin Fish Clematis,33401.0,33401.0,118 S Clematis St,118 S Clematis St
3768,3758,Zoes Kitchen,Zoes Kitchen,78257.0,78257.0,17603 La Cantera Pkwy,17603 La Cantera Pkwy
1809,1905,The Cellar,The Cellar Bar & Grill,90067.0,90067.0,1880 Century Park E Ste 102,1880 Century Park E
1986,2104,Firenze Trattoria,Firenze Trattoria,92024.0,92024.0,162 S Rancho Santa Fe Rd,162 S Rancho Santa Fe Rd
803,800,Franklin Street Caffe,Franklin Street Caffe,94063.0,94063.0,1053 El Camino Real,1053 El Camino Real
1992,2109,The Original Pancake House,The Original Pancake House,92024.0,92024.0,160 S Rancho Santa Fe Rd,160 S Rancho Santa Fe Rd
1316,1473,Jing-Jing Szechwan Hunan Gourmet,Jing-Jing Szechwan Hunan Gourmet,94301.0,94301.0,443 Emerson St,443 Emerson St
824,806,Mandaloun,Mandaloun,94063.0,94063.0,2021 Broadway St,2021 Broadway St
2279,1144,Steam,Steam,94301.0,94301.0,209 University Ave,209 University Ave
1461,1473,Jing-Jing Szechwan Hunan Gourmet,Jing-Jing Szechwan Hunan Gourmet,94301.0,94301.0,443 Emerson St,443 Emerson St
1427,1433,Juban Yakiniku House Japanese BBQ,Juban Yakiniku House,94025.0,94025.0,712 Santa Cruz Ave,712 Santa Cruz Ave
336,308,Toppings Tree Restaurant,Toppings Tree,95050.0,95050.0,1171 Homestead Rd,1171 Homestead Rd
4413,4325,Snappy Salads,Snappy Salads,75225.0,75225.0,5930 Park Ln,"8687 N Central Expy, Ste 2382"
1022,860,El Palenque Taqueria,El Palenque Taqueria,94401.0,94401.0,15 N Kingston St,15 N Kingston St
854,852,The Ravioli House,The Ravioli House,94401.0,94401.0,505 S B St,505 S B St
2335,2430,The Grill On The Alley,The Grill on the Alley,90210.0,90210.0,9560 Dayton Way,9550 Dayton Way
6102,5965,MH Fish House,MH Fish House,60045.0,60045.0,670 N Bank Ln,670 Bank Lane
909,852,The Ravioli House,The Ravioli House,94401.0,94401.0,505 S B St,505 S B St
3488,5288,Truck,TRUCK,10506.0,10506.0,391 Old Post Rd,391 Old Post Rd
5157,5104,The Gourmet Whaler,Gourmet Whaler,11724.0,11724.0,111 Main St,111 Main St
815,843,Crouching Tiger Restaurant,Crouching Tiger Restaurant,94063.0,94063.0,2644 Broadway St,2644 Broadway St
2332,2401,Scarpetta,Scarpetta,90210.0,90210.0,225 N Canon Dr,225 N Canon Dr
723,699,Thaibodia,Thaibodia,94061.0,94061.0,910 Woodside Rd,910 Woodside Rd
626,566,The Clubhouse Bistro,Clubhouse Bistro,94404.0,94404.0,1221 Chess Dr,1221 Chess Dr
4308,4298,Blue Mesa Grill,Blue Mesa Grill,75225.0,75225.0,7700 W Northwest Hwy,7700 W NW Hwy
752,686,Oh Baby Sushi,Oh Baby Sushi,94061.0,94061.0,2139 Roosevelt Ave,2139 Roosevelt Ave
2907,2914,Westchester Burger Co,Westchester Burger Company,10601.0,10601.0,106 Westchester Ave,106 Westchester Ave
4546,4510,Starbucks Coffee,Starbucks,30326.0,30326.0,3500 Peachtree Rd NE,3500 Peachtree Rd NE
6101,5996,Starbucks Coffee,Starbucks,60045.0,60045.0,722 N Bank Ln,840 S Waukegan Rd
2518,2581,First Class Pizza,Newport Coast First Class Pizza,92657.0,92657.0,21117 Newport Coast Dr,21117 Newport Coast Dr
958,914,Taqueria Las Cazuelas,Taqueria Las Cazuelas,94401.0,94401.0,517 E 4th Ave,517 E 4th Ave
1518,1468,Naomi Sushi,Naomi Sushi,94025.0,94025.0,1328 El Camino Real,1328 El Camino Real
3922,3916,Lemon Tree Vero Beach,Lemon Tree,32963.0,32963.0,3125 Ocean Dr,3125 Ocean Dr
1484,1702,Gombei Japanese Restaurant,Gombei Japanese Restaurant,94025.0,94025.0,1438 El Camino Real,1438 El Camino Real
3319,3251,Starbucks Coffee,Starbucks,60606.0,60606.0,200 W Madison St,150 N Wacker Dr
2991,2922,Luca Bella,Luca Bella Restaurant & Pizzeria,10601.0,10601.0,206 Mamaroneck Ave,206 Mamaroneck Ave
5078,5046,West Egg Cafe,West Egg Cafe,60611.0,60611.0,620 N Fairbanks Ct,620 N Fairbanks Ct
3962,4042,"Vero Beach Hotel & Spa, a Kimpton Hotel","Vero Beach Hotel & Spa, a Kimpton Hotel",32963.0,32963.0,3500 Ocean Dr,3500 Ocean Dr
2911,2897,Belle Fair Gourmet,The Belle Fair Gourmet,10573.0,10573.0,20 Bellefair Blvd,20 Bellefair Blvd
5913,5787,Old Stone Trattoria,Old Stone Trattoria,10514.0,10514.0,425 King St,425 King St
4388,4352,Starbucks Coffee,Starbucks,75225.0,75225.0,8411 Preston Rd Ste 100,8687 N Central Expy
1972,2053,Caffe Positano (village),Caffe Positano,92067.0,92067.0,6027 Paseo Delicias,6027 Paseo Delicias
945,966,Kisaku Japanese Restaurant,Kisaku Japanese Restaurant,94401.0,94401.0,47 E 4th Ave,47 E 4th Ave
6154,5967,Foodstuffs Inc,Foodstuffs,60045.0,60045.0,255 E Westminster,255 E Westminster Rd
4978,5022,Grand Lux Cafe,Grand Lux Cafe,60611.0,60611.0,600 N Michigan Ave Ste 7,600 N Michigan Ave
5846,5715,Pho Long Restaurant,Pho Long,63132.0,63132.0,8627 Olive Blvd,8627-8629 Olive Blvd
7,52,Tasty Indian Pizza,Tasty Indian Pizza,94085.0,94085.0,528 Lawrence Expy,528 Lawrence Expy
3763,3810,Starbucks Coffee,Starbucks,78257.0,78257.0,24175 W Interstate 10,6028 Worth Pkwy
4416,4346,La Madeleine,La Madeleine,75225.0,75225.0,8687 N Central Expy Ste 628,University Park
816,808,Pizza My Heart,Pizza My Heart,94063.0,94063.0,831 Middlefield Rd,831 Middlefield Rd.
205,79,King Wah Chinese Restaurant,King Wah Chinese Restaurant,94086.0,94086.0,219 E Washington Ave,219 E Washington Ave
597,538,Starbucks Coffee,Starbucks,94404.0,94404.0,1066 Foster City Blvd,2292 Bridgepointe Pkwy
2106,2213,Portola Kitchen,Portola Kitchen,94028.0,94028.0,3130 Alpine Rd Ste 350,3130 Alpine Rd
1522,1719,Mp Mongolian BBQ,MP Mongolian BBQ,94025.0,94025.0,700 El Camino Real,700 El Camino Real
5728,5617,House of India,House Of India,63124.0,63124.0,8501 Delmar Blvd,8501 Delmar Blvd
622,608,Taco Bell,Taco Bell,94404.0,94404.0,1131 Triton Dr,1131 Triton Dr.
1559,1857,Le Boulanger,Le Boulanger,94025.0,94025.0,720 Santa Cruz Ave,720 Santa Cruz Ave
704,705,El Grullense Grill,El Grullense Grill,94061.0,94061.0,768 Woodside Rd,768 Woodside Rd
5425,5304,South End Restaurant,South End,6840.0,6840.0,36 Pine St,36 Pine St
131,121,Myzen Ramen,Myzen Ramen,94085.0,94085.0,"520 Lawrence Expressway, Suite 304",520 Lawrence Expwy
3763,3853,Starbucks Coffee,Starbucks,78257.0,78257.0,24175 W Interstate 10,24175 W Ih 10
6205,6023,Bangkok Tokyo,Bangkok Tokyo,60044.0,60044.0,227 Waukegan Rd,227 Waukegan Rd
3012,2939,Gyu-Kaku,Gyu-Kaku Japanese BBQ,10601.0,10601.0,169 Main St,169 Main St
4973,4931,The Capital Grille,The Capital Grille,60611.0,60611.0,633 N Saint Clair St,633 N Saint Clair St
911,889,China Bee,China Bee,94401.0,94401.0,31 S B St,31 S B St
2483,2568,Bandera Restaurant,Bandera,92625.0,92625.0,3201 E Coast Hwy,3201 E Coast Hwy
4261,4345,Grain,GRAIN Restaurant,75225.0,75225.0,5954 Luther Ln,5954 Luther Ln
5919,5917,Desert Moon Cafe Inc,Desert Moon Cafe,10514.0,10514.0,89 Oak Hill Rd,89 Oak Hill Rd
1436,1427,Flea Street Cafe,Flea Street,94025.0,94025.0,3607 Alameda De Las Pulgas,3607 Alameda de Las Pulgas
1693,738,Chantilly Restaurant,Chantilly Restaurant,94061.0,94061.0,3001 El Camino Real,3001 El Camino Real
2465,2581,First Class Pizza,Newport Coast First Class Pizza,92657.0,92657.0,21117 Newport Coast Dr,21117 Newport Coast Dr
597,610,Starbucks Coffee,Starbucks,94404.0,94404.0,1066 Foster City Blvd,1066 Foster City Blvd
2207,1451,Trellis Restaurant,Trellis Restaurant,94025.0,94025.0,1077 El Camino Real,1077 El Camino Real
4651,4734,Toku Modern Asian,Toku Modern Asian,11030.0,11030.0,2014 Northern Blvd,2014C Northern Blvd
3322,3241,Protein Bar,Protein Bar,60606.0,60606.0,120 S Riverside Plz,221 W Washington St
910,891,Izakaya Mai Restaurant,Izakaya Mai,94401.0,94401.0,212 2nd Ave,212 2nd Ave
2294,3565,Il Tramezzino,Il Tramezzino - Beverly Hills,90210.0,90210.0,460 N Canon Dr,454 N Canon Dr
3321,3255,Starbucks Coffee,Starbucks,60606.0,60606.0,100 S Wacker Dr Ste 100,233 S Wacker Dr
4875,4828,Rib City Grill,Rib City,34108.0,34108.0,9191 Tamiami Trl N,9191 Tamiami Trl N
2389,2527,Villa Blanca,Villa Blanca,90210.0,90210.0,9601 Brighton Way,9601 Brighton Way
4848,4888,Red Robin Gourmet Burgers,Red Robin Gourmet Burgers,34108.0,34108.0,10750 Tamiami Trl N,10750 Tamiami Trail North
4361,4267,Salata Restaurant,Salata,75225.0,75225.0,8307 Westchester Dr,8307 Westchester Dr
2265,1072,La Morenita Restaurant,La Morenita Restaurant,94301.0,94301.0,800 Emerson St,800 Emerson St
1675,1729,Naomi Sushi,Naomi Sushi,94025.0,94025.0,1328 El Camino Real,1328 El Camino Real
689,1076,Jing-Jing Szechwan Hunan Gourmet,Jing-Jing Szechwan Hunan Gourmet,94301.0,94301.0,443 Emerson St,443 Emerson St
2197,1732,Round Table Pizza,Round Table Pizza,94025.0,94025.0,1225 El Camino Real,1225 El Camino Real
2724,2844,India House,Blue Bar At India House,10004.0,10004.0,1 Hanover Sq,1 Hanover Square
3722,3794,Di Frabo Ristorante Italiano,Di Frabo Ristorante Italiano,78257.0,78257.0,22211 W Interstate 10 # 1101,22211 IH-10 W
1476,1415,LB Steak,LB Steak,94025.0,94025.0,898 Santa Cruz Ave,898 Santa Cruz Ave
4688,4685,Manhasset Bagels,Manhasset Bagels,11030.0,11030.0,510 Plandome Rd,510 Plandome Rd
1430,1732,Round Table Pizza,Round Table Pizza,94025.0,94025.0,1225 El Camino Real,1225 El Camino Real
4502,4586,Nordstrom Restaurant,Nordstrom,30326.0,30326.0,3500 Peachtree Rd NE A1,3500 Peachtree Rd NE
2340,2420,Yu-N-Mi,Yu-N-Mi,90210.0,90210.0,9475 Santa Monica Blvd,9475 Santa Monica Blvd
3171,3211,Cafe Centro,Cafe Centro,33407.0,33407.0,2409 N Dixie Hwy,2409 N Dixie Hwy
1586,1732,Round Table Pizza,Round Table Pizza,94025.0,94025.0,3350 Alameda De Las Pulgas,1225 El Camino Real
5672,5619,The Original Pancake House,The Original Pancake House,63124.0,63124.0,8817 Ladue Rd,8817 Ladue Rd
4886,4864,Grill,Brio Tuscan Grille,34108.0,34108.0,280 Vanderbilt Beach Rd,5505 Tamiami Trl N
4984,4953,NoMI,NoMI Kitchen,60611.0,60611.0,800 N Michigan Ave (Park Hyatt Hotel),"800 N Michigan Ave, 7th Fl"
350,254,Mealtop Valley Fair,Mealtop,95050.0,95050.0,2855 Stevens Creek Blvd,2855 Stevens Creek Blvd
6137,5957,The Left Bank,The Left Bank,60045.0,60045.0,659 N Bank Ln Ste 2,659 N Bank Ln
5546,5484,Centreville Cafe,Centreville Cafe,19807.0,19807.0,5800 Kennett Pike,5800 Kennett Pike
1162,1141,Kanpai,Kanpai Sushi,94301.0,94301.0,330 Lytton Ave,330 Lytton Ave
2813,2749,Underground Pizza,Underground Pizza,10004.0,10004.0,2B S William St,3 Hanover Sq
759,726,5th Quarter Pizza,5th Quarter Pizza,94061.0,94061.0,976 Woodside Rd,976 Woodside Rd
3132,3064,Palm Beach Grill,Palm Beach Grill,33480.0,33480.0,340 Royal Poinciana Way,340 Royal Poinciana Way
4843,4779,The Counter,The Counter,34108.0,34108.0,9110 Strada Pl Ste 6130,9110 Strada Place
4624,4591,Cafe Continental,Cafe Continental Restaurant,11030.0,11030.0,1538 Northern Blvd,1538 Northern Blvd
3212,3284,Siam Rice,Siam Rice,60606.0,60606.0,117 N Wells St,117 N Wells St
6050,5955,Sushi Kushi Toyo,Sushi Kushi Toyo,60045.0,60045.0,825 S Waukegan Rd Ste A5,825 S Waukegan Rd
2220,1415,LB Steak,LB Steak,94025.0,94025.0,898 Santa Cruz Ave,898 Santa Cruz Ave
1076,738,Chantilly Restaurant,Chantilly Restaurant,94061.0,94061.0,3001 El Camino Real,3001 El Camino Real
2233,1437,Nola Restaurant & Bar,NOLA Restaurant & Bar,94301.0,94301.0,535 Ramona St,535 Ramona St
6093,6105,Sbarro,Sbarro,60045.0,60045.0,13783 W Oasis Service Rd,13783 W Oasis Service Rd
3720,3774,Islamorada Fish Company,Islamorada Fish Company Restaurant,78257.0,78257.0,17907 W Interstate 10,17907 W IH 10
3,141,Sneha South & North Indian Restaurant,Sneha,94085.0,94085.0,1214 Apollo Way # 404-B,1214 Apollo Way
1180,1050,Reposado,Reposado,94301.0,94301.0,236 Hamilton Ave,236 Hamilton Ave
3076,3190,Trevini Restaurant,Trevini Restaurant,33480.0,33480.0,290 Sunset Ave,290 Sunset Ave
3839,3792,Brio Tuscan Grille,Brio Tuscan Grille,78256.0,78256.0,15900 La Cantera Pkwy,15900 La Cantera Pkwy
3573,5271,Inn At Pound Ridge,The Inn At Pound Ridge,10576.0,10576.0,258 Westchester Ave,258 Westchester Ave
4984,5069,NoMI,Nomi Lounge,60611.0,60611.0,800 N Michigan Ave (Park Hyatt Hotel),800 N Michigan Ave
640,637,The Fish Market,The Fish Market,94403.0,94403.0,1855 S Norfolk St,1855 S Norfolk St
1661,1745,Juban Yakiniku House Japanese BBQ,Juban Yakiniku House,94025.0,94025.0,712 Santa Cruz Ave,712 Santa Cruz Ave
1669,1815,Su Hong-Menlo Park,Su Hong-Menlo Park,94025.0,94025.0,1039 El Camino Real,1039 El Camino Real
2161,2219,Amigos Grill,Amigos Grill Cocina Mexicana Y Cantina,94028.0,94028.0,3130 Alpine Rd,3130 Alpine Rd
4609,4734,Toku Modern Asian,Toku Modern Asian,11030.0,11030.0,2014 Northern Blvd,2014C Northern Blvd
4272,4255,True Food Kitchen,True Food Kitchen,75225.0,75225.0,833 Preston Center Plz,"8383 Preston Ctr Plz, Ste 100"
2942,2921,Hudson Grille,Hudson Grille,10601.0,10601.0,165 Mamaroneck Ave,165 Mamaroneck Ave
2195,738,Chantilly Restaurant,Chantilly Restaurant,94061.0,94061.0,3001 El Camino Real,3001 El Camino Real
1782,1385,Tamarine Restaurant,Tamarine Restaurant,94301.0,94301.0,546 University Ave,546 University Ave
1215,1114,Sliderbar Cafe,Sliderbar,94301.0,94301.0,324 University Ave,324 University Ave
4952,4903,Pei Wei,Pei Wei,34109.0,34109.0,2355 Vanderbilt Beach Rd,2355 Vanderbilt Beach Road
2475,2647,Settebello Pizzeria,Settebello Pizzeria Napoletana,92657.0,92657.0,7864 E Coast Hwy,7864 East Coast Hwy
2956,2976,BLT Steak White Plains,BLT Steak,10601.0,10601.0,221 Main St,221 Main St
3371,3416,Hotel Bel-Air,Hotel Bel-Air,90077.0,90077.0,701 Stone Canyon Rd,701 Stone Canyon Rd
6407,5734,Choice Saint Louis,Choice Saint Louis,63105.0,63105.0,7807 Clayton Rd,7807 Clayton Rd
1919,2049,Morada,Morada,92067.0,92067.0,5951 Linea Del Cielo,5951 Linea Del Cielo
2974,2958,I-Thai Restaurant,I-Thai,10601.0,10601.0,2 Westchester Ave,2 Westchester Ave
5440,5303,Thali,Thali,6840.0,6840.0,87 Main St,87 Main St
511,54,Turmeric Restaurant,Turmeric Restaurant,94086.0,94086.0,141 S Murphy Ave,141 S Murphy Ave
2620,2604,La Fogata Restaurant,La Fogata,92625.0,92625.0,8 Harbor Pointe Dr,3025 E Coast Hwy
588,540,Waterfront Pizza,Waterfront,94404.0,94404.0,969 Edgewater Blvd,969 D Edgewater Blvd
5449,5327,Planet Pizza,Planet Pizza,6877.0,6877.0,411 Main St,411 Main St
905,999,Thai Satay Restaurant,Thai Satay Restaurant,94401.0,94401.0,173 E 4th Ave,173 E 4th Ave
4963,4946,Volare,Volare Ristorante Italiano,60611.0,60611.0,201 E Grand Ave,201 E Grand Ave
2796,2751,Inatteso Pizzabar Casano,Inatteso Pizzabar Casano,10004.0,10004.0,28 West St,28 West St
5723,5669,Pei Wei,Pei Wei,63124.0,63124.0,8885 Ladue Rd,8885 Ladue Road
4631,4598,Starbucks Coffee,Starbucks,11030.0,11030.0,375 Plandome Rd,375 Plandome Rd
1846,1924,Starbucks Coffee,Starbucks,90067.0,90067.0,2049 Century Park E,1999 Ave of the Stars
597,658,Starbucks Coffee,Starbucks,94404.0,94404.0,1066 Foster City Blvd,921 E Hillsdale Blvd
4886,4785,Grill,The Grill,34108.0,34108.0,280 Vanderbilt Beach Rd,280 Vanderbilt Beach Rd.
3970,3994,Shandong Noodle House,Shandong Noodle House,32960.0,32960.0,2089 Indian River Blvd,2089 Indian River Blvd
4438,4311,Chick-Fil-A,Chick-fil-A,75225.0,75225.0,8687 N Central Expy,8687 N Central Expy Ste 2386
601,527,Plaza Gourmet,Plaza Gourmet Delicatessen,94404.0,94404.0,929 Edgewater Blvd,929 Edgewater Blvd
4890,4810,Beach Box Cafe,Beach Box Cafe,34108.0,34108.0,9020 Gulf Shore Dr,9020 Gulf Shore Dr
2482,2599,The Resort at Pelican Hill,The Resort at Pelican Hill,92657.0,92657.0,22701 Pelican Hill Rd S,22701 S Pelican Hill Rd
2773,2876,Cafe 11,Cafe 11,10004.0,10004.0,11 Broadway,11 Broadway
2227,1732,Round Table Pizza,Round Table Pizza,94025.0,94025.0,1225 El Camino Real,1225 El Camino Real
754,705,El Grullense Grill,El Grullense Grill,94061.0,94061.0,2525 El Camino Real,768 Woodside Rd
2583,2572,Panini Cafe,Panini Cafe Corona Del Mar,92625.0,92625.0,2333 E Coast Hwy,2333 E Coast Hwy
2343,2489,Caffe Roma,Caffe Roma,90210.0,90210.0,350 N Canon Dr,350 N Canon Dr
1700,1738,Applewood,Applewood Pizza,94025.0,94025.0,989 El Camino Real,1001 El Camino Real
3727,3764,Silo Terrace Oyster Bar,Silo Terrace Oyster Bar,78257.0,78257.0,"22311 W Interstate 10, San Antonio TX, 78256",22211 W Ih10
5458,5393,New Canaan Diner,New Canaan Diner,6840.0,6840.0,18 Forest St,18 Forest St
5604,5508,Hong Kong Chinese Food,Hong Kong Chinese Food Pick Up,19806.0,19806.0,1601 Delaware Ave,28A Trolley Sq
2130,1427,Flea Street Cafe,Flea Street,94025.0,94025.0,3607 Alameda De Las Pulgas,3607 Alameda de Las Pulgas
1527,1402,Applewood,Applewood Pizza,94025.0,94025.0,989 El Camino Real,1001 El Camino Real
609,538,Starbucks Coffee,Starbucks,94404.0,94404.0,1066 Foster City Blvd,2292 Bridgepointe Pkwy
6190,6020,Khayat Lake House,Lake House,60044.0,60044.0,525 Rockland Rd,525 Rockland Rd
2330,2403,Il Pastaio,Il Pastaio,90210.0,90210.0,400 N Canon Dr,400 N Canon Dr
1657,1406,Shiok Singapore Kitchen,Shiok Singapore Kitchen,94025.0,94025.0,1137 Chestnut St,1137 Chestnut St
5457,5429,Pinocchio Pizza,Pinocchio Pizza,6840.0,6840.0,115 Main St,115 Main St
1906,2430,The Grill On The Alley,The Grill on the Alley,90210.0,90210.0,9560 Dayton Way,9550 Dayton Way
4660,4617,Cipollini,Cipollini Restaurant,11030.0,11030.0,2110C Northern Blvd,"2110 Northern Blvd, Ste C"
4925,4821,Rusty Bucket,Rusty Bucket,34108.0,34108.0,9110 Strada Pl,9110 Strada Pl
1616,1732,Round Table Pizza,Round Table Pizza,94025.0,94025.0,1225 El Camino Real,1225 El Camino Real
4027,4011,Ruby Tuesday,Ruby Tuesday,32966.0,32966.0,1825 58th Ave,1825 58Th Avenue
4470,4443,Corner Bakery Cafe,Corner Bakery Cafe,30326.0,30326.0,3393 Peachtree Rd NE Ste 4033,3368 Peachtree Rd NE
4418,4352,Starbucks Coffee,Starbucks,75225.0,75225.0,8687 N Central Expy,8687 N Central Expy
3502,5301,Bedford Gourmet,Bedford Gourmet,10506.0,10506.0,652 Old Post Rd,460 Old Post Rd
3138,3081,The Breakers,The Circle At The Breakers,33480.0,33480.0,1 S County Rd,1 S County Rd
1281,1201,Vivace Ristorante,Vivace Ristorante,94002.0,94002.0,1910 Ralston Ave,1910 Ralston Ave
1212,1399,Crepevine,Crepevine,94301.0,94301.0,367 University Ave,367 University Ave
1044,1036,Tamarine Restaurant,Tamarine Restaurant,94301.0,94301.0,546 University Ave,546 University Ave
129,2,Sunnyvale Cafe,Sunnyvale Cafe,94085.0,94085.0,223 E Maude Ave,223 E Maude Ave
4804,4888,Red Robin Gourmet Burgers,Red Robin Gourmet Burgers,34108.0,34108.0,10750 Tamiami Trl N,10750 Tamiami Trail North
999,890,Joy Sushi,Joy Sushi,94401.0,94401.0,30 S B St,30 S B St
1586,1442,Round Table Pizza,Round Table Pizza,94025.0,94025.0,3350 Alameda De Las Pulgas,1225 El Camino Real
4655,4612,Misaki Japanese Restaurant Inc,Misaki Japanese Restaurant,11030.0,11030.0,411 Plandome Rd,411 Plandome Rd
4115,4109,Kim Tai Restaurant,Kim Tai Restaurant,77002.0,77002.0,2602 Fannin St,2602 Fannin St
1533,1508,Akasaka Sushi,Akasaka Sushi,94025.0,94025.0,925 El Camino Real,925 El Camino Real
677,748,Starbucks Coffee,Starbucks,94061.0,94061.0,820 Woodside Rd,820 Woodside Rd
4450,4460,The Cheesecake Factory,The Cheesecake Factory,30326.0,30326.0,3393 Peachtree Rd NE Suite 3076A,3393 Peachtree Road NE
1599,1758,Menlo Cafe,Menlo Cafe,94025.0,94025.0,620 Santa Cruz Ave,620 Santa Cruz Ave
48,1473,Jing-Jing Szechwan Hunan Gourmet,Jing-Jing Szechwan Hunan Gourmet,94301.0,94301.0,443 Emerson St,443 Emerson St
2259,1133,Sushi House,Sushi House,94301.0,94301.0,855 El Camino Real Ste 158,158 Town & Country Village
4542,4425,Bistro Niko,Bistro Niko,30326.0,30326.0,3344 Peachtree Rd NE,3344 Peachtree Rd
710,687,Sushi Plus,Sushi Plus,94061.0,94061.0,30 Woodside Plz,30 Woodside Plz
6214,6052,Noodles & Company,Noodles & Company,60044.0,60044.0,303 Waukegan Rd,303 S Waukegan Rd
3837,3782,Kona Grill,Kona Grill,78256.0,78256.0,15900 La Cantera Pkwy,15900 LaCantera Pkwy
431,262,Pizza My Heart,Pizza My Heart,95050.0,95050.0,2855 Stevens Creek Blvd,700 Bellomy St
609,610,Starbucks Coffee,Starbucks,94404.0,94404.0,1066 Foster City Blvd,1066 Foster City Blvd
5863,5785,Waka Asian Fusion,Waka Asian Fusion,10514.0,10514.0,95 King St,95 King St
672,690,Prima Deli,Prima Deli,94061.0,94061.0,2115 Roosevelt Ave,2115 Roosevelt Ave
1136,1517,Asian Box,Asian Box,94301.0,94301.0,855 El Camino Real,855 El Camino Real
4793,4827,Panevino Ristorante Inc,Panevino Ristorante,34108.0,34108.0,8853 Tamiami Trl N,8853  N TAMIAMI TRAIL
5580,5576,King Garden,King Garden,19805.0,19805.0,2511 W 4th St # I,2511 W 4th St
3187,3124,Ristorante Santucci,Ristorante Santucci,33401.0,33401.0,610 Clematis St,610 Clematis St
2723,2754,Pranzo,Pranzo,10004.0,10004.0,34 Water St,34 Water St
1584,1442,Round Table Pizza,Round Table Pizza,94025.0,94025.0,3550 Alameda De Las Pulgas,1225 El Camino Real
4771,4614,Il Mulino New York Long Island,Il Mulino New York,11576.0,11576.0,1042 Northern Blvd,1042 Northern Blvd
3334,3414,Starbucks Coffee,Starbucks,90077.0,90077.0,2952 N Beverly Glen Cir,2952 N Beverly Glen Cir
1231,1235,China Village Seafood Restaurant,China Village Seafood Restaurant,94002.0,94002.0,600 Ralston Ave,600 Ralston Ave
1349,1298,Old County Deli,Old County Deli,94002.0,94002.0,1331 Old County Rd,1331 Old County Rd
4311,4345,Grain,GRAIN Restaurant,75225.0,75225.0,5954 Luther Ln,5954 Luther Ln
1535,1363,Cafe Borrone,Cafe Borrone,94025.0,94025.0,1010 El Camino Real,1010 El Camino Real
1527,1407,Applewood,Applewood 2-Go,94025.0,94025.0,989 El Camino Real,989 El Camino Real
1314,1251,The Counter,The Counter - San Mateo,94403.0,94403.0,41 W Hillsdale Blvd,41 W Hillsdale Blvd
3322,3239,Protein Bar,Protein Bar,60606.0,60606.0,120 S Riverside Plz,235 S Franklin St
3531,5288,Truck,TRUCK,10506.0,10506.0,391 Old Post Rd,391 Old Post Rd
3847,3806,Red Lobster,Red Lobster,78249.0,78249.0,5815 N Loop 1604 W,5815 N. Loop 1604 West
5822,5682,California Pizza Kitchen,California Pizza Kitchen,63117.0,63117.0,1493 Saint Louis Galleria,1493 St. Louis Galleria
1840,2036,Trimana,Trimana,90067.0,90067.0,2121 Avenue Of The Stars,1875 Century Park E
1523,1780,J & J Hawaiian BBQ,J & J Hawaiian BBQ,94025.0,94025.0,1170 Alma St,1170 Alma St
3675,3764,Silo Terrace Oyster Bar,Silo Terrace Oyster Bar,78257.0,78257.0,"22311 W Interstate 10, San Antonio TX, 78256",22211 W Ih10
136,8,Gombei Bento,Gombei Bento,94085.0,94085.0,155 E Maude Ave,155 E Maude Ave
5667,5611,Truffles,Truffles Restaurant,63124.0,63124.0,9202 Clayton Rd,9202 Clayton Rd
1515,1779,Left Bank Menlo Park Brasserie,Left Bank Menlo Park Brasserie,94025.0,94025.0,635 Santa Cruz Ave,635 Santa Cruz Ave
4789,4923,Ruby Tuesday,Ruby Tuesday,34108.0,34108.0,8777 Tamiami Trl N,8777 Tamiami Trail North
1666,1743,Iberia Restaurant,Iberia Restaurant,94025.0,94025.0,1026 Alma St,1026 Alma St
5722,5611,Truffles,Truffles Restaurant,63124.0,63124.0,9202 Clayton Rd,9202 Clayton Rd
1076,1742,Chantilly Restaurant,Chantilly Restaurant,94061.0,94061.0,3001 El Camino Real,3001 El Camino Real
692,1442,Round Table Pizza,Round Table Pizza,94025.0,94025.0,1225 El Camino Real,1225 El Camino Real
1202,1418,Sushirrito,Sushirrito,94301.0,94301.0,448 University Ave,448 University Ave
229,192,Dusita Thai Cuisine,Dusita Thai Cuisine,95050.0,95050.0,2325 El Camino Real Ste 104,2325 El Camino Real
4781,4762,The Capital Grille,The Capital Grille,34108.0,34108.0,9005 Mercato Dr,9005 Mercato Dr
2901,2964,Purchase Country Market,Purchase Country Market,10577.0,10577.0,630 Anderson Hill Rd,630 Anderson Hill Rd
1509,738,Chantilly Restaurant,Chantilly Restaurant,94061.0,94061.0,3001 El Camino Real,3001 El Camino Real
585,519,Century Centre Cafe,Century Centre Cafe,94404.0,94404.0,1450 Fashion Island Blvd Ste 110,1450 Fashion Island Blvd
1225,1201,Vivace Ristorante,Vivace Ristorante,94002.0,94002.0,1910 Ralston Ave,1910 Ralston Ave
5151,5103,Harbor Mist Restaurant,Harbor Mist,11724.0,11724.0,105 Harbor Rd,105 Harbor Rd
3182,3163,The Cheesecake Factory,The Cheesecake Factory,33401.0,33401.0,701 S Rosemary Ave,701 South Rosemary Avenue
4659,4597,Stresa Italian Restaurant,Stresa Italian Restaurant,11030.0,11030.0,1524 Northern Blvd,1524 Northern Blvd
403,243,Starbucks Coffee,Starbucks,95050.0,95050.0,2605 The Alameda,2370 El Camino Real
1704,763,Lucias,Villa Lucias,94061.0,94061.0,1725 Woodside Rd,1725 Woodside Rd
786,777,Bangkok Bay Thai Cuisine,Bangkok Bay Thai Cuisine,94063.0,94063.0,825 El Camino Real,825 El Camino Real
1085,1487,Osteria - Palo Alto,Osteria,94301.0,94301.0,247 Hamilton Ave,247 Hamilton Ave
401,331,Starbucks Coffee,Starbucks,95050.0,95050.0,2370 El Camino Real,71 Washington St
599,545,Tabla Flavours,Tabla Flavours,94404.0,94404.0,1088 Shell Blvd,1088 Shell Blvd
21,53,Chaats & Currys,Chaats & Currys,94085.0,94085.0,520 Lawrence Expy Ste 310,520 Lawrence Expy
3166,3115,Leila,Leila,33401.0,33401.0,120 S Dixie Hwy,120 S Dixie Hwy
4506,4514,Freshii,Freshii,30326.0,30326.0,3393 Peachtree Rd NE,Buckhead
4591,4509,Chick-Fil-A,Chick-fil-A,30326.0,30326.0,3500 Peachtree Rd NE,3393 Peachtree Rd NE
4831,4838,Lighthouse Restaurant,Lighthouse Restaurant,34108.0,34108.0,9180 Gulf Shore Dr,9180 Gulf Shore Dr
1046,1135,Buca di Beppo,Buca di Beppo Italian Restaurant,94301.0,94301.0,643 Emerson St,643 Emerson St
1923,2063,The Inn at Rancho Santa Fe,The Inn at Rancho Santa Fe,92067.0,92067.0,5951 Linea Del Cielo,5951 Linea Del Cielo
3017,2984,Townhouse Diner,Townhouse Diner,10603.0,10603.0,720 N Broadway,720 N Broadway
1014,888,Pancho Villa Taqueria,Pancho Villa Taqueria,94401.0,94401.0,365 S B St,365 S B St
3808,3746,General Public,The General Public,78257.0,78257.0,17619 La Cantera Pkwy # 102,17619 La Cantera Pkwy
602,530,Lotus Garden Restaurant,Lotus Garden Restaurant,94404.0,94404.0,1058 Shell Blvd,1058B Shell Blvd
1884,1935,Century Grill,Century Grill,90067.0,90067.0,1901 Avenue Of The Stars Ste A1,1901 Avenue of the Stars
2166,2212,Portola Valley Alpine Inn,Alpine Inn,94028.0,94028.0,3915 Alpine Rd,3915 Alpine Rd
5194,5103,Harbor Mist Restaurant,Harbor Mist,11724.0,11724.0,105 Route 25A,105 Harbor Rd
4833,4923,Ruby Tuesday,Ruby Tuesday,34108.0,34108.0,8777 Tamiami Trl N,8777 Tamiami Trail North
2339,2412,Coupa Cafe,Coupa Cafe,90210.0,90210.0,419 N Canon Dr,419 N Canon Dr
2215,1426,Garden Fresh & Vegetarian Restaurant,Garden Fresh,94301.0,94301.0,460 Ramona St,460 Ramona St
3870,3932,South Beach Pizzeria,South Beach Pizzeria,32963.0,32963.0,1621 Ocean Dr,1621 Ocean Dr
1971,2048,Delicias Restaurant,Delicias,92067.0,92067.0,,6106 Paseo Delicias
3531,3573,Truck,TRUCK,10506.0,10506.0,391 Old Post Rd,391 Old Post Rd
1246,1204,Whispers Cafe & Creperie,Whispers Cafe & Creperie,94002.0,94002.0,390 El Camino Real Ste F,390 El Camino Real
541,562,New Saigon,Pho New Saigon,94404.0,94404.0,1088 Foster City Blvd,1088 Foster City Blvd
5080,4939,The Lobby at the Peninsula,The Lobby,60611.0,60611.0,108 E Superior St,108 E Superior St
2536,2568,Bandera Restaurant,Bandera,92625.0,92625.0,3201 E Coast Hwy,3201 E Coast Hwy
656,705,El Grullense Grill,El Grullense Grill,94061.0,94061.0,768 Woodside Rd,768 Woodside Rd
1672,1779,Left Bank Menlo Park Brasserie,Left Bank Menlo Park Brasserie,94025.0,94025.0,635 Santa Cruz Ave,635 Santa Cruz Ave
1767,1810,Akasaka Sushi,Akasaka Sushi,94025.0,94025.0,925 El Camino Real,925 El Camino Real
5196,5111,Bedlam Street Fish & Clam Co,Bedlam Street Fish & Clam,11724.0,11724.0,55 Main St,55 Main St
1973,2063,The Inn at Rancho Santa Fe,The Inn at Rancho Santa Fe,92067.0,92067.0,5951 Linea Del Cielo,5951 Linea Del Cielo
5543,5444,Brew Ha Ha!,Brew Ha Ha,19807.0,19807.0,3842 Kennett Pike,3842 Kennett Pike
1479,1724,Stacks,Stacks,94025.0,94025.0,600 Santa Cruz Ave,600 Santa Cruz Ave
2377,3508,Pasquale Restaurant,Da Pasquale Restaurant,90210.0,90210.0,9749 Santa Monica Blvd,9749 S Santa Monica Blvd
4470,4452,Corner Bakery Cafe,Corner Bakery Cafe,30326.0,30326.0,3393 Peachtree Rd NE Ste 4033,3393 Peachtree Rd
407,252,Hula Dog Santa Clara,Hula Dog,95050.0,95050.0,495 El Camino Real,495 El Camino Real
2594,2696,Yard House,Yard House,92660.0,92660.0,849 Newport Center Dr,849 Newport Center Dr
1903,2444,Crustacean Beverly Hills,Crustacean,90210.0,90210.0,9646 Santa Monica Blvd,9646 S Santa Monica Blvd
2312,2494,Farm of Beverly Hills,The Farm of Beverly Hills,90210.0,90210.0,439 N Beverly Dr,439 N Beverly Dr
2514,2624,Andrea,Andrea at Pelican Hill,92657.0,92657.0,22701 Pelican Hill Rd S,22701 Pelican Hill Rd S
670,684,Espresso Lane,Espresso Lane,94061.0,94061.0,865 Woodside Rd,865 Woodside Rd
3902,3934,Cravings,Cravings,32963.0,32963.0,3149 Ocean Dr,3149 Ocean Dr
80,71,Luv Pho,Luv Pho Restaurant,94085.0,94085.0,500 Lawrence Expy,500 Lawrence Expy
5452,5342,Vicolo Pizza & Trattoria,Vicolo Pizza & Trattoria,6840.0,6840.0,62 Main St,62 Main St
1056,1072,La Morenita Restaurant,La Morenita Restaurant,94301.0,94301.0,800 Emerson St,800 Emerson St
1719,692,Pronto Rotisserie & Pizzeria,Pronto Rotisserie & Pizzeria,94061.0,94061.0,2560 El Camino Real,2560 El Camino Real
4410,4346,La Madeleine,La Madeleine,75225.0,75225.0,628 Northpark Ctr,University Park
1123,738,Chantilly Restaurant,Chantilly Restaurant,94061.0,94061.0,3001 El Camino Real,3001 El Camino Real
1440,2230,Madera,Madera,94025.0,94025.0,2825 Sand Hill Rd,2825 Sand Hill Rd
2299,2395,Da Pasquale,Da Pasquale Restaurant,90210.0,90210.0,9749 Santa Monica Blvd,9749 S Santa Monica Blvd
5086,5011,Foodlife,Foodlife,60611.0,60611.0,835 N Michigan Ave,835 N Michigan Ave
3980,4072,Ay Jalisco II,Ay Jalisco,32960.0,32960.0,469 21st St,1903 20th St
5197,5227,Cold Spring Plaza Delicatessen,Cold Spring,11724.0,11724.0,15 Harbor Rd,405 Main St
4649,4593,Villa Milano,Villa Milano,11030.0,11030.0,168 Plandome Rd,168 Plandome Rd
1165,1081,Tava Indian Kitchen,Tava Indian Kitchen,94301.0,94301.0,855 El Camino Real,855 El Camino Real Ste 162
3297,3258,Doughnut Vault,Doughnut Vault Canal,60606.0,60606.0,111 N Canal St # 120,111 N Canal St
1445,1390,Menlo Grill Bistro & Bar,Menlo Grill Bistro & Bar,94025.0,94025.0,100 El Camino Real,100 El Camino Real
1437,1702,Gombei Japanese Restaurant,Gombei Japanese Restaurant,94025.0,94025.0,1438 El Camino Real,1438 El Camino Real
1873,2528,1880 Cafe,1880 Cafe,90067.0,90067.0,1880 Century Park E Ste 103,1880 Century Park E
2240,1135,Buca di Beppo,Buca di Beppo Italian Restaurant,94301.0,94301.0,643 Emerson St,643 Emerson St
1285,1209,Cafe Bliss,Cafe Bliss,94002.0,94002.0,2039 Ralston Ave,2039 Ralston Ave
1091,1385,Tamarine Restaurant,Tamarine Restaurant,94301.0,94301.0,546 University Ave,546 University Ave
3528,5287,Ristorante Lucia,Ristorante Lucia,10506.0,10506.0,454 Old Post Rd,454 Old Post Rd
3186,3173,CLEMATIS PIZZA,Clematis Pizza,33401.0,33401.0,523 Clematis St,523 Clematis St
1003,989,Wing Fat Restaurant,Wing Fat Restaurant,94401.0,94401.0,500 E 3rd Ave,500 E 3rd Ave
675,699,Thaibodia,Thaibodia,94061.0,94061.0,910 Woodside Rd,910 Woodside Rd
3172,3088,Malakor Thai Cafe,Malakor Thai Cafe,33407.0,33407.0,425 25th St,425 25th St
1536,1712,Cafe Del Sol,Cafe Del Sol Restaurant,94025.0,94025.0,1010 Doyle St,1010 Doyle St
5924,5789,Spoon Asian Fusion,Spoon Asian Fusion,10514.0,10514.0,415 King St,415 King St
1786,1105,Three Seasons,Three Seasons,94301.0,94301.0,518 Bryant St,518 Bryant St
4041,4119,The Breakfast Klub,The Breakfast Klub,77002.0,77002.0,3711 Travis St,3711 Travis St
4025,3981,Italian Grill,Italian Grill,32966.0,32966.0,2180 58th Ave,2180 58th Ave
2284,1089,Asian Box,Asian Box,94301.0,94301.0,855 El Camino Real,855 El Camino Real
495,72,Tarragon Restaurant,Tarragon Restaurant,94086.0,94086.0,140 S Murphy Ave,140 S Murphy Ave
1729,1417,Koma Sushi Restaurant,Koma Sushi Restaurant,94025.0,94025.0,211 El Camino Real,211 El Camino Real
1474,1745,Juban Yakiniku House Japanese BBQ,Juban Yakiniku House,94025.0,94025.0,712 Santa Cruz Ave,712 Santa Cruz Ave
2371,2403,Il Pastaio Restaurant,Il Pastaio,90210.0,90210.0,9405 Brighton Way Ste 33,400 N Canon Dr
1109,1109,Arte Ristorante,Arte Ristorante,94301.0,94301.0,473 University Ave,473 University Ave
197,54,Turmeric Restaurant,Turmeric Restaurant,94086.0,94086.0,141 S Murphy Ave,141 S Murphy Ave
5589,5509,Satsuma Asian Kitchen & Bar,Satsuma Asian Kitchen & Bar,19806.0,19806.0,1707 Delaware Ave,1707 Delaware Ave
1201,1099,Han,Erhans Hair Studio,94301.0,94301.0,452 University Ave,250 University Ave
647,555,Inshou Japanese Cuisine,Inshou Japanese Cuisine,94403.0,94403.0,2942 S Norfolk St,2942 S Norfolk St
1122,1473,Jing-Jing Szechwan Hunan Gourmet,Jing-Jing Szechwan Hunan Gourmet,94301.0,94301.0,443 Emerson St,443 Emerson St
4543,4424,True Food Kitchen,True Food Kitchen,30326.0,30326.0,3393 Peachtree Rd NE,3393 Peachtree Rd NE
2280,1088,Pizza My Heart,Pizza My Heart,94301.0,94301.0,220 University Ave,220 University Ave
81,53,Chaats & Currys,Chaats & Currys,94085.0,94085.0,520 Lawrence Expy Ste 310,520 Lawrence Expy
1791,1905,The Cellar,The Cellar Bar & Grill,90067.0,90067.0,1880 Century Park E Ste 102,1880 Century Park E
3138,3202,The Breakers,The Breakers,33480.0,33480.0,1 S County Rd,1 S County Rd
913,907,Shabuway,Shabuway Japanese Style Hot Pot,94401.0,94401.0,145 E 3rd Ave,145 E 3rd Ave
2666,2844,India House,Blue Bar At India House,10004.0,10004.0,1 Hanover Sq,1 Hanover Square
2365,2457,The Nosh Of Beverly Hills,The Nosh Of Beverly Hills,90210.0,90210.0,9689 Santa Monica Blvd,9689 Santa Monica Blvd
6140,6099,Panda Express,Panda Express,60045.0,60045.0,13783 W Oasis Service Rd,13783 W Oasis Service Rd
962,916,Pacific Catch,Pacific Catch,94401.0,94401.0,243 S B St,243 S B St
1174,1022,Evvia Estiatorio,Evvia Estiatorio,94301.0,94301.0,420 Emerson St,420 Emerson St
725,748,Starbucks Coffee,Starbucks,94061.0,94061.0,820 Woodside Rd,820 Woodside Rd
555,584,IHOP,IHOP,94404.0,94404.0,531 Foster City Blvd,531 Foster City Blvd
625,516,Chalet Ticino,Chalet Ticino,94404.0,94404.0,1058A Shell Blvd,1058 Shell Blvd
4507,4422,Seven Lamps,Seven Lamps,30326.0,30326.0,3400 Around Lenox Rd NE,3400 Around Lenox Rd
5883,5786,Starbucks Coffee,Starbucks,10514.0,10514.0,2 S Greeley Ave,2 S Greeley Ave
4864,4824,Sweet Tomatoes,Sweet Tomatoes,34108.0,34108.0,10940 Tamiami Trl N,10940 Tamiami Trail North
1675,1468,Naomi Sushi,Naomi Sushi,94025.0,94025.0,1328 El Camino Real,1328 El Camino Real
1667,1382,Gombei Japanese Restaurant,Gombei Japanese Restaurant,94025.0,94025.0,1438 El Camino Real,1438 El Camino Real
5877,5946,Genova Via,Genova Via,10514.0,10514.0,142 King St,142 King St
2223,1473,Jing-Jing Szechwan Hunan Gourmet,Jing-Jing Szechwan Hunan Gourmet,94301.0,94301.0,443 Emerson St,443 Emerson St
1852,1995,The Garden Cafe,The Garden Cafe,90067.0,90067.0,1840 Century Park E,1840 Century Park E
4837,4827,Panevino Ristorante Inc,Panevino Ristorante,34108.0,34108.0,8853 Tamiami Trl N,8853  N TAMIAMI TRAIL
2149,1442,Round Table Pizza,Round Table Pizza,94025.0,94025.0,1225 El Camino Real,1225 El Camino Real
3024,3096,Echo Restaurant,Echo,33480.0,33480.0,230A Sunrise Ave,230A Sunrise Ave
3916,3967,Pomodoro Grill & Pizza,Pomodoro Grill,32963.0,32963.0,3055 Cardinal Dr Ste 102,3055 Cardinal Dr
1678,1513,J & J Hawaiian BBQ,J & J Hawaiian BBQ,94025.0,94025.0,1170 Alma St,1170 Alma St
1410,1212,Yuzu,Yuzu Sushi & Grill,94403.0,94403.0,54 37th Ave,54 37th Ave
1778,1076,Jing-Jing Szechwan Hunan Gourmet,Jing-Jing Szechwan Hunan Gourmet,94301.0,94301.0,443 Emerson St,443 Emerson St
4670,4638,Munsey Park Bagels,Munsey Park Bagels,11030.0,11030.0,1661 Northern Blvd,1661 Northern Blvd
569,1473,Jing-Jing Szechwan Hunan Gourmet,Jing-Jing Szechwan Hunan Gourmet,94301.0,94301.0,443 Emerson St,443 Emerson St
1693,1742,Chantilly Restaurant,Chantilly Restaurant,94061.0,94061.0,3001 El Camino Real,3001 El Camino Real
4621,4602,IHOP,IHOP,11030.0,11030.0,1586 Northern Blvd,1586 Northern Blvd
1478,2236,Restaurant Mitsunobu,Mitsunobu,94025.0,94025.0,325 Sharon Park Dr Ste A2,325 Sharon Park Dr
3912,3932,South Beach Pizzeria,South Beach Pizzeria,32963.0,32963.0,1621 Ocean Dr,1621 Ocean Dr
1429,1415,LB Steak,LB Steak,94025.0,94025.0,898 Santa Cruz Ave,898 Santa Cruz Ave
3545,5301,Bedford Gourmet,Bedford Gourmet,10506.0,10506.0,652 Old Post Rd,460 Old Post Rd
4514,4452,Corner Bakery Cafe,Corner Bakery Cafe,30326.0,30326.0,3393 Peachtree Rd NE Ste 4033,3393 Peachtree Rd
3874,3967,Pomodoro Grill & Pizza,Pomodoro Grill,32963.0,32963.0,3055 Cardinal Dr Ste 102,3055 Cardinal Dr
67,52,Tasty Indian Pizza,Tasty Indian Pizza,94085.0,94085.0,528 Lawrence Expy,528 Lawrence Expy
1044,1385,Tamarine Restaurant,Tamarine Restaurant,94301.0,94301.0,546 University Ave,546 University Ave
4611,4639,Benihana,Benihana,11030.0,11030.0,2105 Northern Blvd,2105 Northern Blvd
1664,1400,Stacks,Stacks,94025.0,94025.0,600 Santa Cruz Ave,600 Santa Cruz Ave
290,242,White Elephant Gourmet,White Elephant,95050.0,95050.0,930 El Camino Real,930 El Camino Real
1562,1726,Galata Bistro,Galata Bistro,94025.0,94025.0,827 Santa Cruz Ave,827 Santa Cruz Ave
4778,4784,Baleen Naples,Baleen Naples,34108.0,34108.0,9891 Gulf Shore Dr,9891 Gulf Shore Dr
4535,4436,Prime,New York Prime,30326.0,30326.0,3393 Peachtree Rd NE,3424 Peachtree Rd NE
4607,4593,Villa Milano,Villa Milano,11030.0,11030.0,168 Plandome Rd,168 Plandome Rd
2592,2613,Red O Fashion Island,Red O,92660.0,92660.0,143 Newport Center Dr,143 Newport Ctr Dr
2393,2492,Il Forno Caldo,IL Forno Caldo,90210.0,90210.0,9705 Santa Monica Blvd,9705 S Santa Monica Blvd
4486,4436,New York Prime,New York Prime,30326.0,30326.0,3424 Peachtree Rd NE,3424 Peachtree Rd NE
849,913,Central Park Bistro,Central Park Bistro,94401.0,94401.0,181 E 4th Ave,181 E 4th Ave
1817,1927,BreadBar,BreadBar,90067.0,90067.0,10250 Santa Monica Blvd,10250 Santa Monica Blvd
835,951,Kingfish Restaurant,Kingfish Restaurant,94401.0,94401.0,201 S B St,201 S B St
3121,3081,The Circle,The Circle At The Breakers,33480.0,33480.0,1 South County Road,1 S County Rd
4660,4620,Cipollini,Cipollini Pronto Caffe,11030.0,11030.0,2110C Northern Blvd,2060 Northern Blvd
2146,1076,Jing-Jing Szechwan Hunan Gourmet,Jing-Jing Szechwan Hunan Gourmet,94301.0,94301.0,443 Emerson St,443 Emerson St
4825,4762,The Capital Grille,The Capital Grille,34108.0,34108.0,9005 Mercato Dr,9005 Mercato Dr
1469,1406,Shiok Singapore Kitchen,Shiok Singapore Kitchen,94025.0,94025.0,1137 Chestnut St,1137 Chestnut St
4669,4594,Manhasset Delicatessen,Manhasset Delicatessen,11030.0,11030.0,435 Plandome Rd,435 Plandome Rd
1482,1422,Iberia Restaurant,Iberia Restaurant,94025.0,94025.0,1026 Alma St,1026 Alma St
1423,1827,Angelo Mio,Angelo Mio,94025.0,94025.0,820 Santa Cruz Ave,820 Santa Cruz Ave
4382,4260,Top Pot Doughnuts,Top Pot Doughnuts,75225.0,75225.0,8611 Hillcrest Ave Ste 195,8611 Hillcrest Ave
329,249,House of Egg Roll,House of Egg Roll,95050.0,95050.0,1686 Lafayette St,1686 Lafayette St
5136,5083,Pinstripes Pinstripes,Pinstripes,60611.0,60611.0,435 E Illinois St,435 E Illinois St
4932,4844,Watermark Grille,Watermark Grille,34110.0,34110.0,11280 Tamiami Trail North,11280 Tamiami Trl N
4801,4788,Bites,Bites,34108.0,34108.0,"280 Vanderbilt Beach Rd The Ritz-Carlton, Naples",280 Vanderbilt Beach Rd
499,69,Bay Leaf Restaurant,Bay Leaf Restaurant,94086.0,94086.0,122 S Sunnyvale Ave,122 S Sunnyvale Ave
1330,1349,Starbucks Coffee,Starbucks,94002.0,94002.0,1071 Alameda De Las Pulgas,1050 El Camino Real
1043,1437,Nola Restaurant & Bar,NOLA Restaurant & Bar,94301.0,94301.0,535 Ramona St,535 Ramona St
1645,1076,Jing-Jing Szechwan Hunan Gourmet,Jing-Jing Szechwan Hunan Gourmet,94301.0,94301.0,443 Emerson St,443 Emerson St
1970,2046,Veladora,Veladora,92067.0,92067.0,5921 Valencia Cir,5921 Valencia Cir
2661,2798,Stone Street Tavern,Stone Street Tavern,10004.0,10004.0,52 Stone St,52 Stone St
1663,1442,Round Table Pizza,Round Table Pizza,94025.0,94025.0,1225 El Camino Real,1225 El Camino Real
1856,1958,Cafe 100,Cafe 100,90067.0,90067.0,10100 Santa Monica Blvd Ste A105,10100 Santa Monica Blvd
2205,763,Lucias,Villa Lucias,94061.0,94061.0,1725 Woodside Rd,1725 Woodside Rd
1595,2233,Starbucks Coffee,Starbucks,94025.0,94025.0,899 Hamilton Ave,325 Sharon Park Dr
1902,2401,Scarpetta,Scarpetta,90210.0,90210.0,225 N Canon Dr,225 N Canon Dr
4608,4605,La Coquille Restaurant,La Coquille,11030.0,11030.0,1669 Northern Blvd,1669 Northern Blvd
4701,4748,Au Bon Pain,Au Bon Pain,11030.0,11030.0,300 Community Dr,300 Community Dr
2484,2571,Five Crowns,Five Crowns,92625.0,92625.0,3801 E Coast Hwy,3801 E Coast Hwy
3095,3061,Buccan,Buccan,33480.0,33480.0,350 S County Rd Ste 212,350 S County Rd
1510,1732,Round Table Pizza,Round Table Pizza,94025.0,94025.0,1225 El Camino Real,1225 El Camino Real
1387,1261,Uncle Chen Restaurant,Uncle Chen Restaurant,94403.0,94403.0,40 42nd Ave,40 42nd Ave
4576,4505,Sarku Japan,Sarku Japan,30326.0,30326.0,"3393 Peachtree Rd NE , Sp #K-113",3393 Peachtree Rd NE
1527,1738,Applewood,Applewood Pizza,94025.0,94025.0,989 El Camino Real,1001 El Camino Real
1922,2053,Caffe Positano (village),Caffe Positano,92067.0,92067.0,6027 Paseo Delicias,6027 Paseo Delicias
1610,1406,Shiok Singapore Kitchen,Shiok Singapore Kitchen,94025.0,94025.0,1137 Chestnut St,1137 Chestnut St
982,930,Block 34,Block 34,94401.0,94401.0,34 E 4th Ave,34 E 4th Ave
1174,1362,Evvia Estiatorio,Evvia Estiatorio,94301.0,94301.0,420 Emerson St,420 Emerson St
5481,5377,Toscana,Toscana,6877.0,6877.0,43 Danbury Rd,43 Danbury Rd
1203,1375,Zola,Zola,94301.0,94301.0,565 Bryant St,565 Bryant St
6207,6003,Panera Bread,Panera Bread,60044.0,60044.0,305 Waukegan Rd,305 South Waukegan Road
3371,3402,Hotel Bel-Air,Wolfgang Puck At Hotel Bel-Air,90077.0,90077.0,701 Stone Canyon Rd,701 Stone Canyon Rd
3924,4002,Riverside Cafe,Riverside Cafe,32963.0,32963.0,1 Beachland Blvd,1 Beachland Blvd
4453,4451,Katana Teppanyaki & Sushi,Katana Teppanyaki & Sushi,30326.0,30326.0,3345 Lenox Rd NE,3345 Lenox Rd NE
1775,1426,Garden Fresh & Vegetarian Restaurant,Garden Fresh,94301.0,94301.0,460 Ramona St,460 Ramona St
284,192,Dusita Thai Cuisine,Dusita Thai Cuisine,95050.0,95050.0,2325 El Camino Real Ste 104,2325 El Camino Real
949,883,Fusion Peruvian Grill,Fusion Peruvian Grill,94401.0,94401.0,45 N B St,45 N B St
1798,1873,Hinoki & The Bird,Hinoki & The Bird,90067.0,90067.0,10 W Century Dr.,10 W Century Dr
1047,1105,Three Seasons,Three Seasons,94301.0,94301.0,518 Bryant St,518 Bryant St
2458,2579,Bluefin Restaurant,Bluefin,92657.0,92657.0,7952 E Pacific Coast Hwy,7952 E Pacific Coast Hwy
4882,4778,Skillets,Skillets,34108.0,34108.0,843 Vanderbilt Beach Rd,847 Vanderbilt Beach Rd
1801,2543,Craft,Craft,90067.0,90067.0,10100 Constellation Blvd,10100 Constellation Blvd
3147,3091,Chez Jean-Pierre Bistro,Chez Jean-Pierre,33480.0,33480.0,132 N County Rd,132 N County Rd
1660,1762,Trellis Restaurant,Trellis Restaurant,94025.0,94025.0,1077 El Camino Real,1077 El Camino Real
139,3,Mediterranean Cuisine,Obed Mediterranean Cuisine,94085.0,94085.0,911 E Duane Ave,911 E Duane Ave
331,338,Pizza My Heart,Pizza My Heart,95050.0,95050.0,700 Bellomy St,"2855 Stevens Creek Blvd, Ste B171"
1287,1235,China Village Seafood Restaurant,China Village Seafood Restaurant,94002.0,94002.0,600 Ralston Ave,600 Ralston Ave
856,889,China Bee,China Bee,94401.0,94401.0,31 S B St,31 S B St
3124,3084,Imoto,Imoto,33480.0,33480.0,350 S County Rd,350 S County Rd
1646,1742,Chantilly Restaurant,Chantilly Restaurant,94061.0,94061.0,3001 El Camino Real,3001 El Camino Real
855,891,Izakaya Mai Restaurant,Izakaya Mai,94401.0,94401.0,212 2nd Ave,212 2nd Ave
1921,2048,Delicias Restaurant,Delicias,92067.0,92067.0,,6106 Paseo Delicias
1583,2233,Starbucks Coffee,Starbucks,94025.0,94025.0,3590 Alameda De Las Pulgas,325 Sharon Park Dr
4536,4506,Johnny Rockets,Johnny Rockets,30326.0,30326.0,3500 Peachtree Rd NE Ste G3,"3500 Peachtree Road, Suite G9"
5673,5617,House of India,House Of India,63124.0,63124.0,8501 Delmar Blvd,8501 Delmar Blvd
1437,1382,Gombei Japanese Restaurant,Gombei Japanese Restaurant,94025.0,94025.0,1438 El Camino Real,1438 El Camino Real
2778,2838,El Toro Mexican Grill,El Toro Mexican Grill,10004.0,10004.0,69 New St,69 New St
2770,2871,Pizza Pizza,Pizza Pizza,10004.0,10004.0,77 Pearl St,77 Pearl St
2169,1129,Il Fornaio,Il Fornaio,94301.0,94301.0,520 Cowper Street (At The Garden Court Hotel),520 Cowper Street
2336,2395,Da Pasquale,Da Pasquale Restaurant,90210.0,90210.0,9749 Santa Monica Blvd,9749 S Santa Monica Blvd
4920,4764,Seasons 52,Seasons 52,34108.0,34108.0,8930 Tamiami Trl N,8930 Tamiami Trl N
1610,1721,Shiok Singapore Kitchen,Shiok Singapore Kitchen,94025.0,94025.0,1137 Chestnut St,1137 Chestnut St
4577,4505,Sarku Japan,Sarku Japan,30326.0,30326.0,"3393 Peachtree Rd NE , Space#1013",3393 Peachtree Rd NE
5887,5796,Quaker Hill Tavern,Quaker Hill Tavern,10514.0,10514.0,61 Bedford Rd,61 Bedford Rd
740,1442,Round Table Pizza,Round Table Pizza,94025.0,94025.0,1225 El Camino Real,1225 El Camino Real
4409,4346,La Madeleine,La Madeleine,75225.0,75225.0,628 Northpark Ctr,University Park
5040,4956,Friends Sushi,Friends Sushi,60611.0,60611.0,710 N Rush St,710 N Rush St
338,233,Yuki Sushi,Yuki Sushi,95050.0,95050.0,1827 Pruneridge Ave,1827 Pruneridge Ave
1385,1208,Guadalajara Grill,Guadalajara Grill,94403.0,94403.0,19 Laurie Meadows Dr,19 Laurie Meadows Dr
1055,1154,Siam Royal Authentic Thai Cuisine,Siam Royal Authentic Thai Cuisine,94301.0,94301.0,338 University Ave,338 University Ave
3844,3819,Bar Louie,Bar Louie,78256.0,78256.0,15900 La Cantera Pkwy Suite 22100,15900 La Cantera Pkwy
557,605,Red Robin Gourmet Burgers,Red Robin Gourmet Burgers,94404.0,94404.0,2204 Bridgepointe Pkwy,2204 Bridgepointe Pkwy
2338,2467,Via Alloro,Via Alloro,90210.0,90210.0,301 N Canon Dr,301 N Canon Dr
3915,4006,Trattoria Dario,Trattoria Dario,32963.0,32963.0,1555 Ocean Dr,1555 S Ocean Dr
4316,4368,Buca di Beppo,Buca di Beppo Italian Restaurant,75225.0,75225.0,7843 Park Ln,7843 Park Lane
6410,5655,Mai Lee Restaurant,Mai Lee,63144.0,63144.0,8396 Musick Memorial Dr.,8396 Musick Memorial Dr
1631,1780,J & J Hawaiian BBQ,J & J Hawaiian BBQ,94025.0,94025.0,1170 Alma St,1170 Alma St
1079,1732,Round Table Pizza,Round Table Pizza,94025.0,94025.0,1225 El Camino Real,1225 El Camino Real
1540,1707,Sultana,Sultana,94025.0,94025.0,1149 El Camino Real,1149 El Camino Real
1533,1810,Akasaka Sushi,Akasaka Sushi,94025.0,94025.0,925 El Camino Real,925 El Camino Real
3194,3294,Rivers,Rivers,60606.0,60606.0,30 S Wacker Dr,30 S Wacker Dr
3043,3072,Cafe Boulud,Cafe Boulud,33480.0,33480.0,301 Australian Ave,The Brazilian Court Hotel  301 Australian Ave
4378,4346,La Madeleine,La Madeleine,75225.0,75225.0,8319 Preston Rd,University Park
2964,3045,Villa Rustica Pizzeria,Villa Rustica Pizzeria,10573.0,10573.0,261 S Ridge St,261 S Ridge St
1976,2053,Caffe Positano (due),Caffe Positano,92067.0,92067.0,16079 San Dieguito Rd Ste. A-1,6027 Paseo Delicias
2863,2907,Silver Lake Wines & Liquors,Silver Lake,10604.0,10604.0,79 Lake St,87 Lake St
2311,2544,Beverly Hills Market,Beverly Hills Market,90210.0,90210.0,303 N Crescent Dr,303 N Crescent Dr
5915,5781,Le Jardin Du Roi,Le Jardin Du Roi,10514.0,10514.0,95 King St,95 King St
3788,3890,Subway,Subway,78257.0,78257.0,23535 W Interstate 10,23535 W Ih 10
819,1740,El Grullense E & E,El Grullense,94063.0,94063.0,999 El Camino Real,795 5th Ave
860,935,Tasty Thai Restaurant,Tasty Thai Restaurant,94401.0,94401.0,43 S B St,43 South B St
1422,1721,Shiok Singapore Kitchen,Shiok Singapore Kitchen,94025.0,94025.0,1137 Chestnut St,1137 Chestnut St
572,1742,Chantilly Restaurant,Chantilly Restaurant,94061.0,94061.0,3001 El Camino Real,3001 El Camino Real
1263,738,Chantilly Restaurant,Chantilly Restaurant,94061.0,94061.0,3001 El Camino Real,3001 El Camino Real
4917,4912,Burger King,Burger King,34108.0,34108.0,9271 Tamiami Trl N,9271 Tamiami Trl N
3809,3769,Topgolf San Antonio,Topgolf,78257.0,78257.0,5539 North Loop 1604 W,5539 North Loop 1604 W
901,892,Viognier,Viognier,94401.0,94401.0,222 E 4th Ave,222 E 4th Ave
4696,4709,Subway,Subway,11030.0,11030.0,69 E Shore Rd,69 E Shore Rd
4880,4778,Skillets,Skillets,34108.0,34108.0,875 Vanderbilt Beach Rd,847 Vanderbilt Beach Rd
2041,2122,Tabu Sushi Bar & Grill II,Tabu Sushi Bar & Grill,92014.0,92014.0,2689 Via De La Valle,2689 Via De La Valle
4918,4767,Pub Naples,The Pub Naples,34108.0,34108.0,9118 Strada Pl,9118 Strada Pl
11,13,Pho Lovers,Pho Lovers,94085.0,94085.0,253 E Maude Ave,253 E Maude Ave
6095,5963,Market House on the Square,Market House On The Square,60045.0,60045.0,655 Forest Ave,655 Forest Ave
3980,3985,Ay Jalisco II,Ay Jalisco II,32960.0,32960.0,469 21st St,465 21st St
5505,5441,Pizza By Elizabeths,Pizza by Elizabeths,19807.0,19807.0,3801 Kennett Pike # Ste E220,3801 Kennett Pike
5118,4994,Tre Soldi,Tre Soldi,60611.0,60611.0,212 E Ohio St,212 E Ohio St
1628,1468,Naomi Sushi,Naomi Sushi,94025.0,94025.0,1328 El Camino Real,1328 El Camino Real
2117,2216,Parkside Grille,Parkside Grille,94028.0,94028.0,884 Portola Rd Ste A1,884 Portola Rd
4495,4442,Tomo Japanese Restaurant,Tomo Japanese Restaurant,30326.0,30326.0,3630 Peachtree Road NE #140,3630 Peachtree Rd
4927,4910,LaPlaya Beach & Golf Resort,LaPlaya Beach & Golf Resort,34108.0,34108.0,9891 Gulf Shore Dr,9891 Gulf Shore Drive
1845,1873,Hinoki & The Bird,Hinoki & The Bird,90067.0,90067.0,10 W Century Dr,10 W Century Dr
71,13,Pho Lovers,Pho Lovers,94085.0,94085.0,253 E Maude Ave,253 E Maude Ave
4618,4617,Cipollini,Cipollini Restaurant,11030.0,11030.0,2110C Northern Blvd,"2110 Northern Blvd, Ste C"
2987,2924,Via Veneto 26,Via Veneto 26,10601.0,10601.0,8 City Pl,8 City Pl
1407,639,Pho Little Saigon,Pho Little Saigon,94403.0,94403.0,2978 S Norfolk St,2978 S Norfolk St
4888,4852,"The Grill - The Ritz-Carlton, Naples","The Ritz-Carlton, Naples",34108.0,34108.0,280 Vanderbilt Beach Rd,280 Vanderbilt Beach Rd
1136,1089,Asian Box,Asian Box,94301.0,94301.0,855 El Camino Real,855 El Camino Real
1365,1360,Panda Express,Panda Express,94002.0,94002.0,1050 El Camino Real,1050 El Camino Real
332,338,Pizza My Heart,Pizza My Heart,95050.0,95050.0,2855 Stevens Creek Blvd,"2855 Stevens Creek Blvd, Ste B171"
974,954,Best Of Burma,Best Of Burma,94401.0,94401.0,146 E 3rd Ave,146 E 3rd Ave
3279,3251,Starbucks Coffee,Starbucks,60606.0,60606.0,150 N Wacker Dr,150 N Wacker Dr
3202,3355,Sushi Sai,Sushi Sai,60606.0,60606.0,123 N Wacker Dr,123 N Wacker Dr
1463,1442,Round Table Pizza,Round Table Pizza,94025.0,94025.0,1225 El Camino Real,1225 El Camino Real
662,687,Sushi Plus,Sushi Plus,94061.0,94061.0,30 Woodside Plz,30 Woodside Plz
5916,5791,Chappaqua Restaurant & Cafe,Chappaqua Restaurant & Cafe,10514.0,10514.0,10 S Greeley Ave,10 S Greeley Ave
1609,738,Chantilly Restaurant,Chantilly Restaurant,94061.0,94061.0,3001 El Camino Real,3001 El Camino Real
4246,4170,Guadalajara Del Centro,Guadalajara Del Centro,77002.0,77002.0,1201 San Jacinto St,1201 San Jacinto St
697,1742,Chantilly Restaurant,Chantilly Restaurant,94061.0,94061.0,3001 El Camino Real,3001 El Camino Real
6044,5963,Market House on the Square,Market House On The Square,60045.0,60045.0,655 Forest Ave,655 Forest Ave
1619,1743,Iberia Restaurant,Iberia Restaurant,94025.0,94025.0,1026 Alma St,1026 Alma St
4532,4482,Panera Bread,Panera Bread,30326.0,30326.0,3393 Peachtree Rd NE,3393 Peachtree Rd NE
4061,4151,Fish,The Blue Fish,77002.0,77002.0,309 Gray St # 107,550 Texas St
875,1076,Jing-Jing Szechwan Hunan Gourmet,Jing-Jing Szechwan Hunan Gourmet,94301.0,94301.0,443 Emerson St,443 Emerson St
3919,3921,The Tides Restaurant,The Tides Restaurant,32963.0,32963.0,3103 Cardinal Dr,3103 Cardinal Dr
1775,1053,Garden Fresh & Vegetarian Restaurant,Garden Fresh,94301.0,94301.0,460 Ramona St,460 Ramona St
1490,1417,Koma Sushi Restaurant,Koma Sushi Restaurant,94025.0,94025.0,211 El Camino Real,211 El Camino Real
5786,5759,Panera Bread,Panera Bread,63117.0,63117.0,1445 Saint Louis Galleria,1445 St. Louis Galleria
1625,1486,Left Bank Menlo Park Brasserie,Left Bank Menlo Park Brasserie,94025.0,94025.0,635 Santa Cruz Ave,635 Santa Cruz Ave
372,338,Pizza My Heart,Pizza My Heart,95050.0,95050.0,700 Bellomy St,"2855 Stevens Creek Blvd, Ste B171"
1283,1219,Sushi Monster,Sushi Monster,94002.0,94002.0,955 Ralston Ave,955 Ralston Ave
3968,3986,Squid Lips,Squid Lips,32958.0,32958.0,"1660 N Indian River Dr, Sebastian FL, 32958",1660 N Indian River Dr
649,1742,Chantilly Restaurant,Chantilly Restaurant,94061.0,94061.0,3001 El Camino Real,3001 El Camino Real
919,950,Saigon City Restaurant,Saigon City,94401.0,94401.0,418 E 3rd Ave,418 E 3rd Ave
604,518,Sandwich Monkey,Sandwich Monkey,94404.0,94404.0,3 Plaza View Ln,Three Plaza View Ln
301,294,Sushi O Sushi Japanese Cuisine,Sushi O Sushi,95051.0,95051.0,2789 El Camino Real,2789 El Camino Real
1888,2013,Park Grill,Park Grill Restaurant,90067.0,90067.0,2151 Avenue Of The Stars,2151 Ave of the Stars
654,692,Pronto Rotisserie & Pizzeria,Pronto Rotisserie & Pizzeria,94061.0,94061.0,2560 El Camino Real,2560 El Camino Real
1936,2104,Firenze Trattoria,Firenze Trattoria,92024.0,92024.0,162 S Rancho Santa Fe Rd,162 S Rancho Santa Fe Rd
4131,4142,Treebeards Restaurant,Treebeards,77002.0,77002.0,801 Louisiana St # 100,315 Travis St
1462,738,Chantilly Restaurant,Chantilly Restaurant,94061.0,94061.0,3001 El Camino Real,3001 El Camino Real
2022,2096,Taste of Thai,Taste of Thai,92014.0,92014.0,15770 San Andres Dr,15770 San Andres Dr
5042,4951,Bandera Restaurant,Bandera Restaurant,60611.0,60611.0,535 N Michigan Ave Ste 208,535 N Michigan Ave
3379,3414,Starbucks Coffee,Starbucks,90077.0,90077.0,2952 N Beverly Glen Cir,2952 N Beverly Glen Cir
4066,4235,Spindletop,Spindletop,77002.0,77002.0,1200 Louisiana St,1200 Louisiana St
1913,2485,Mulberry Street Pizzeria,Mulberry Street Pizzeria,90212.0,90212.0,240 S Beverly Dr,240 S Beverly Dr
2617,2700,The Cheesecake Factory,The Cheesecake Factory,92660.0,92660.0,1141 Newport Center Dr,1141 Newport Ctr Dr
4866,4790,LongHorn Steakhouse,LongHorn Steakhouse,34108.0,34108.0,8010 Trail Blvd,8010 Trail Blvd
4429,4252,Hopdoddy Burger Bar,Hopdoddy Burger Bar,75225.0,75225.0,6030 Luther Ln,6030 Luther Ln
3279,3296,Starbucks Coffee,Starbucks,60606.0,60606.0,150 N Wacker Dr,200 W Madison St
96,294,Sushi O Sushi Japanese Cuisine,Sushi O Sushi,95051.0,95051.0,2789 El Camino Real,2789 El Camino Real
4270,4316,Rock & Roll Sushi,Rock & Roll Sushi,75225.0,75225.0,6109 Berkshire Ln,6109 Berkshire Ln
1435,1743,Iberia Restaurant,Iberia Restaurant,94025.0,94025.0,1026 Alma St,1026 Alma St
1745,814,Thai House Restaurant,Thai House Restaurant,94063.0,94063.0,1742 El Camino Real,1742 El Camino Real
2294,2393,Il Tramezzino,Il Tramezzino - Beverly Hills,90210.0,90210.0,460 N Canon Dr,454 N Canon Dr
3501,3574,Bedford Village Pastry,Bedford Village Pastry,10506.0,10506.0,426 Old Post Rd,426 Old Post Rd
3843,3776,Yard House,Yard House,78256.0,78256.0,15900 La Cantera Pkwy,15900 La Cantera Pkwy
1715,1129,Il Fornaio,Il Fornaio,94301.0,94301.0,520 Cowper Street (At The Garden Court Hotel),520 Cowper Street
3778,3797,Whataburger,Whataburger,78257.0,78257.0,18303 W Interstate 10,18303 IH-10 West
4145,4199,Bombay Indian Grill,Bombay Indian Grill,77002.0,77002.0,706 Main St,706 Main St
1620,1702,Gombei Japanese Restaurant,Gombei Japanese Restaurant,94025.0,94025.0,1438 El Camino Real,1438 El Camino Real
1472,1762,Trellis Restaurant,Trellis Restaurant,94025.0,94025.0,1077 El Camino Real,1077 El Camino Real
3985,3939,Kata Restaurant & Lounge,Kata,32960.0,32960.0,1306 20th St,1306 20th St
3279,3384,Starbucks Coffee,Starbucks,60606.0,60606.0,150 N Wacker Dr,400 W Madison St
4924,4799,Blue Martini,Blue Martini Naples,34108.0,34108.0,9114 Strada Pl Ste 12105,9114 Strada Pl
3049,3061,Buccan,Buccan,33480.0,33480.0,350 S County Rd Ste 212,350 S County Rd
2349,2494,Farm of Beverly Hills,The Farm of Beverly Hills,90210.0,90210.0,439 N Beverly Dr,439 N Beverly Dr
1223,1340,Marvin Gardens,Marvin Gardens,94002.0,94002.0,1160 Old County Rd,1160 Old County Rd
5926,5786,Starbucks Coffee,Starbucks,10514.0,10514.0,2 S Greeley Ave,2 S Greeley Ave
930,1473,Jing-Jing Szechwan Hunan Gourmet,Jing-Jing Szechwan Hunan Gourmet,94301.0,94301.0,443 Emerson St,443 Emerson St
1477,1442,Round Table Pizza,Round Table Pizza,94025.0,94025.0,1225 El Camino Real,1225 El Camino Real
2413,2451,Roxbury Cafe,Roxbury Cafe,90210.0,90210.0,459 N Roxbury Dr,459 N Roxbury Dr
1899,2396,CUT,CUT,90212.0,90212.0,9500 Wilshire Blvd,9500 Wilshire Blvd
789,802,Vino Santo Bistro,Vino Santo Bistro,94063.0,94063.0,2030 Broadway St,2030 Broadway St
1615,1415,LB Steak,LB Steak,94025.0,94025.0,898 Santa Cruz Ave,898 Santa Cruz Ave
720,690,Prima Deli,Prima Deli,94061.0,94061.0,2115 Roosevelt Ave,2115 Roosevelt Ave
1168,1132,Bangkok Cuisine,Bangkok Cuisine,94301.0,94301.0,407 Lytton Ave,407 Lytton Ave
2566,2604,La Fogata Restaurant,La Fogata,92625.0,92625.0,3025 E Coast Hwy,3025 E Coast Hwy
2470,2569,Coliseum Pool & Grill,Coliseum Pool & Grill,92657.0,92657.0,22701 Pelican Hill Rd S,22701 Pelican Hill Rd S
3899,3955,Di Mare,Di Mare Vero Beach,32963.0,32963.0,1517 Ocean Dr,1517 Ocean Dr
1975,2063,The Inn at Rancho Santa Fe,The Inn at Rancho Santa Fe,92067.0,92067.0,5951 Linea Del Cielo,5951 Linea Del Cielo
5519,5447,Capers & Lemons Restaurant,Capers & Lemons Restaurant,19808.0,19808.0,301 Little Falls Dr,301 Little Falls Dr
3719,3748,Cosi,Cosi,78257.0,78257.0,17503 La Cantera Pkwy Ste 108,17503 La Cantera Pkwy
828,1424,Taco's El Grullense,El Grullense,94063.0,94063.0,1243 Middlefield Rd,795 5th Ave
2301,2467,Via Alloro,Via Alloro,90210.0,90210.0,301 N Canon Dr,301 N Canon Dr
1942,2109,The Original Pancake House,The Original Pancake House,92024.0,92024.0,160 S Rancho Santa Fe Rd,160 S Rancho Santa Fe Rd
3178,3225,Allora,Allora,33407.0,33407.0,402 Northwood Rd,402 Northwood Rd
20,71,Luv Pho,Luv Pho Restaurant,94085.0,94085.0,500 Lawrence Expy,500 Lawrence Expy
697,738,Chantilly Restaurant,Chantilly Restaurant,94061.0,94061.0,3001 El Camino Real,3001 El Camino Real
4653,4639,Benihana,Benihana,11030.0,11030.0,2105 Northern Blvd,2105 Northern Blvd
419,331,Starbucks Coffee,Starbucks,95050.0,95050.0,200 Saratoga Ave,71 Washington St
4813,4875,M Waterfront Grille,M Waterfront Grille,34103.0,34103.0,4300 Gulf Shore Blvd N,4300 Gulf Shore Blvd N
1560,1734,Bagel Street Cafe,Bagel Street Cafe,94025.0,94025.0,746 Santa Cruz Ave,746 Santa Cruz Ave
1803,2020,Habanero Grill,Habanero Grill,90067.0,90067.0,2000 Avenue Of The Stars Ste 25,2000 Avenue of the Stars
2376,2421,Sfixio Restaurant,Sfixio,90210.0,90210.0,9737 Santa Monica Blvd,9737 S Santa Monica Blvd
594,535,Kobe Japanese Cuisine & Bar,Kobe Japanese Cuisine & Bar,94404.0,94404.0,929 Edgewater Blvd Ste B,929 Edgewater Blvd
5434,5283,Haiku Asian Bistro & Sushi Bar,Haiku Asian Bistro & Sushi Bar,10518.0,10518.0,1 Cross River Shopping Ctr,1 Cross River Shopping Ctr
1470,1827,Angelo Mio,Angelo Mio,94025.0,94025.0,820 Santa Cruz Ave,820 Santa Cruz Ave
3267,3271,Arturo Express,Arturo Express,60606.0,60606.0,130 S Canal St,122 S Canal St
2046,2045,Market Restaurant & Bar,Market,92014.0,92014.0,3702 Via De La Valle,3702 Via De La Valle
1589,2233,Starbucks Coffee,Starbucks,94025.0,94025.0,325 Sharon Park Dr,325 Sharon Park Dr
3060,3199,Thai Bay Restaurant,Thai Bay Restaurant,33401.0,33401.0,1000 Okeechobee Rd,1000 Okeechobee Rd
1783,2236,Restaurant Mitsunobu,Mitsunobu,94025.0,94025.0,325 Sharon Park Dr Ste A2,325 Sharon Park Dr
850,999,Thai Satay Restaurant,Thai Satay Restaurant,94401.0,94401.0,173 E 4th Ave,173 E 4th Ave
5443,5341,Sushi 25,Sushi 25,6840.0,6840.0,25 Elm St,25 Elm St
1778,1473,Jing-Jing Szechwan Hunan Gourmet,Jing-Jing Szechwan Hunan Gourmet,94301.0,94301.0,443 Emerson St,443 Emerson St
5554,5586,Greenville Country Club,Greenville Country Club,19807.0,19807.0,201 Owls Nest Rd,201 Owls Nest Rd
1662,1735,LB Steak,LB Steak,94025.0,94025.0,898 Santa Cruz Ave,898 Santa Cruz Ave
3272,3367,Caffe Baci,Caffe Baci,60606.0,60606.0,10 S Riverside Plz,10 S Riverside Plz
948,906,Bangkok Patio,Bangkok Patio,94401.0,94401.0,615 E 3rd Ave,615 E 3rd Ave
190,69,Bay Leaf Restaurant,Bay Leaf Restaurant,94086.0,94086.0,122 S Sunnyvale Ave,122 S Sunnyvale Ave
918,964,Everyday Beijing,Everyday Beijing,94401.0,94401.0,637 S B St,637 S B St
644,1208,Guadalajara Grill,Guadalajara Grill,94403.0,94403.0,19 Laurie Meadows Dr,19 Laurie Meadows Dr
906,917,Hotaru Japanese Restaurant,Hotaru Japanese Restaurant,94401.0,94401.0,33 E 3rd Ave,33 E 3rd Ave
3845,3817,Va Bene,Va Bene,78256.0,78256.0,15900 La Cantera Pkwy,15900 Cantera Pkwy
3993,4035,Plum Tomato,Plum Tomato,32960.0,32960.0,1415 16th St,1415 16th St
890,951,Kingfish Restaurant,Kingfish Restaurant,94401.0,94401.0,201 S B St,201 S B St
5823,5757,IHOP,IHOP,63117.0,63117.0,8049 Clayton Rd,8049 Clayton Rd
3941,3955,Di Mare,Di Mare Vero Beach,32963.0,32963.0,1517 Ocean Dr,1517 Ocean Dr
1238,1304,Classic 101 Burgers & Shakes,Classic 101 Burgers & Shakes,94002.0,94002.0,575 Ralston Ave,575 Ralston Ave
3492,3614,The Farmhouse,The Farmhouse,10506.0,10506.0,954 Old Post Rd,954 Old Post Rd
5881,5789,Spoon Asian Fusion,Spoon Asian Fusion,10514.0,10514.0,415 King St,415 King St
1091,1036,Tamarine Restaurant,Tamarine Restaurant,94301.0,94301.0,546 University Ave,546 University Ave
5856,5644,801 Chophouse,801 Chophouse St. Louis,63105.0,63105.0,137 Carondelet Plz,137 Carondelet Plz
4792,4864,Brio Tuscan Grille,Brio Tuscan Grille,34108.0,34108.0,5505 Tamiami Trl N,5505 Tamiami Trl N
597,565,Starbucks Coffee,Starbucks,94404.0,94404.0,1066 Foster City Blvd,1000 Metro Center Blvd
1508,1473,Jing-Jing Szechwan Hunan Gourmet,Jing-Jing Szechwan Hunan Gourmet,94301.0,94301.0,443 Emerson St,443 Emerson St
965,922,Ben Tre Vietnamese Homestyle Cuisine,Ben Tre Vietnamese Homestyle Cuisine,94401.0,94401.0,213 2nd Ave,213 2nd Ave
850,1003,Thai Satay Restaurant,Thai Satay Restaurant,94401.0,94401.0,173 E 4th Ave,173 E 4th Ave
4281,4269,Lyfe Kitchen,Lyfe Kitchen,75225.0,75225.0,8315 Westchester Dr,8315 Westchester Dr
3322,3335,Protein Bar,Protein Bar,60606.0,60606.0,120 S Riverside Plz,120 S Riverside Plz
145,32,Mission City Cafe,Mission City Cafe,94085.0,94085.0,510 Lawrence Expy,510 Lawrence Expy
6108,6016,Lake Forest Food & Wine,Lake Forest Food & Wine Specialties,60045.0,60045.0,645 N Bank Ln # 120,272 E Deerpath Rd
1278,1205,Shalizaar Restaurant,Shalizaar,94002.0,94002.0,3416 Hillcrest Dr,300 El Camino Real
5581,5452,Southeast Kitchen,Southeast Kitchen,19806.0,19806.0,1901 Delaware Ave,1901 Delaware Ave
4970,5006,Wow Bao,Wow Bao,60611.0,60611.0,835 N Michigan Ave # 1030,835 N Michigan Ave
4207,4177,Andalucia Tapas Restaurant & Bar,Andalucia Tapas Restaurant & Bar,77002.0,77002.0,1201 San Jacinto St,1201 San Jacinto St
3023,3141,Flagler Steakhouse at The Breakers,Flagler Steakhouse,33480.0,33480.0,2 S County Rd,1 S County Rd
4026,4003,Fujiyama Japanese Steakhouse & Sushi Bar,Fujiyama Japanese Steakhouse,32966.0,32966.0,5959 20th St,5959 20th St
1536,1369,Cafe Del Sol,Cafe Del Sol Restaurant,94025.0,94025.0,1010 Doyle St,1010 Doyle St
674,681,Bravo Taqueria,Bravo Taqueria,94061.0,94061.0,980 Woodside Rd,980 Woodside Rd
128,29,Little India Cafe,Little India Cafe,94085.0,94085.0,415 N Mary Ave,415 N Mary Ave
4469,4501,On The Border Mexican Grill & Cantina,On The Border Mexican Grill & Cantina,30326.0,30326.0,3495 Buckhead Loop NE,1 Buckhead Loop NE
1795,1955,Johnnies New York Pizzeria,Johnnies,90067.0,90067.0,10251 Santa Monica Blvd,10251 Santa Monica Blvd.
719,707,Karlitas Ta,Karlitas Taco Place,94061.0,94061.0,512 Woodside Rd,512 Woodside Rd
6174,5983,Inovasi,Inovasi,60044.0,60044.0,28 E Center Ave Ste LL,28 E Center Ave
5911,5833,A Taste Of China,A Taste Of China,10514.0,10514.0,55 King St,55 King St
817,846,Quinto Sol,Quinto Sol,94063.0,94063.0,2201 Broadway St,2201 Broadway St
4798,4812,Masa Restaurant,Masa,34108.0,34108.0,9123 Strada Pl,9123 Strada Pl
1694,1442,Round Table Pizza,Round Table Pizza,94025.0,94025.0,1225 El Camino Real,1225 El Camino Real
978,964,Everyday Beijing,Everyday Beijing,94401.0,94401.0,637 S B St,637 S B St
3535,3614,The Farmhouse,The Farmhouse,10506.0,10506.0,954 Old Post Rd,954 Old Post Rd
2149,1732,Round Table Pizza,Round Table Pizza,94025.0,94025.0,1225 El Camino Real,1225 El Camino Real
199,110,Katana Sushi & Sake,Katana Sushi & Sake,94087.0,94087.0,411 E El Camino Real,411 E El Camino Real
1075,1473,Jing-Jing Szechwan Hunan Gourmet,Jing-Jing Szechwan Hunan Gourmet,94301.0,94301.0,443 Emerson St,443 Emerson St
3198,3284,Siam Rice,Siam Rice,60606.0,60606.0,117 N Wells St,117 N Wells St
1165,1520,Tava Indian Kitchen,Tava Indian Kitchen,94301.0,94301.0,855 El Camino Real,855 El Camino Real Ste 162
3335,3441,Beverly Glen Deli,Beverly Glen Deli,90077.0,90077.0,2948 N Beverly Glen Cir,2948 N Beverly Glen Cir
2252,1453,Menlo BBQ,Menlo BBQ,94025.0,94025.0,555 Willow Rd,555 Willow Rd
5876,5917,Desert Moon Cafe Inc,Desert Moon Cafe,10514.0,10514.0,89 Oak Hill Rd,89 Oak Hill Rd
1153,1152,The Cheesecake Factory,The Cheesecake Factory,94301.0,94301.0,375 University Ave,375 University Ave
851,917,Hotaru Japanese Restaurant,Hotaru Japanese Restaurant,94401.0,94401.0,33 E 3rd Ave,33 E 3rd Ave
2147,1742,Chantilly Restaurant,Chantilly Restaurant,94061.0,94061.0,3001 El Camino Real,3001 El Camino Real
1039,1053,Garden Fresh & Vegetarian Restaurant,Garden Fresh,94301.0,94301.0,460 Ramona St,460 Ramona St
2310,2502,Il Fornaio,Il Fornaio,90210.0,90210.0,301 N Beverly Dr,301 North Beverly Drive
4933,4848,First Watch Restaurant,First Watch,34110.0,34110.0,1000 Immokalee Rd,1000 Immokalee Rd
1057,1530,Pizza My Heart,Pizza My Heart,94301.0,94301.0,220 University Ave,220 University Ave
5785,5667,Posh Nosh,The Posh Nosh,63105.0,63105.0,8115 Maryland Ave,8115 Maryland Ave
6145,6076,Subway,Subway,60045.0,60045.0,13783 W Oasis Service Rd,225 E Deerpath
756,803,Tacos El Camino,Tacos El Camino,94061.0,94061.0,2627 El Camino Real,2627 El Camino Real
1772,1487,Osteria - Palo Alto,Osteria,94301.0,94301.0,247 Hamilton Ave,247 Hamilton Ave
2411,2410,Euro Caffee,Euro Caffe,90210.0,90210.0,9559 Santa Monica Blvd,9559 S Santa Monica Blvd
1038,1487,Osteria - Palo Alto,Osteria,94301.0,94301.0,247 Hamilton Ave,247 Hamilton Ave
428,186,Viva Taqueria,Viva Taqueria,95050.0,95050.0,444 N Winchester Blvd,444 N Winchester Blvd
3323,3263,Pret A Manger,Pret A Manger,60606.0,60606.0,120 S Riverside Plz,211 W Adams St
1614,1433,Juban Yakiniku House Japanese BBQ,Juban Yakiniku House,94025.0,94025.0,712 Santa Cruz Ave,712 Santa Cruz Ave
4610,4609,Greens Irish Pub,Greens Irish Pub,11030.0,11030.0,436 Plandome Rd,436 Plandome Rd
2295,2401,Scarpetta,Scarpetta,90210.0,90210.0,225 N Canon Dr,225 N Canon Dr
596,562,New Saigon,Pho New Saigon,94404.0,94404.0,1088 Foster City Blvd,1088 Foster City Blvd
4024,3999,Olive Garden Italian Restaurant,Olive Garden Italian Restaurant,32966.0,32966.0,5945 20th St,5995 20th Street
3871,3938,Citrus Grillhouse,Citrus Grillhouse,32963.0,32963.0,1050 Easter Lily Ln,1050 Easter Lily Ln
1260,1076,Jing-Jing Szechwan Hunan Gourmet,Jing-Jing Szechwan Hunan Gourmet,94301.0,94301.0,443 Emerson St,443 Emerson St
2775,2857,Yip Yick Ming Inc,Yip Yick Ming Inc,10004.0,10004.0,18 Beaver St,18 Beaver St
2147,738,Chantilly Restaurant,Chantilly Restaurant,94061.0,94061.0,3001 El Camino Real,3001 El Camino Real
5324,5272,North Star Restaurant,North Star Restaurant,10576.0,10576.0,85 Westchester Ave,85 Westchester Ave
5325,5271,Inn At Pound Ridge,The Inn At Pound Ridge,10576.0,10576.0,258 Westchester Ave,258 Westchester Ave
4826,4780,Azn Azian Cuizine,AZN,34108.0,34108.0,9118 Strada Pl,9118 Strada Pl
810,754,El Grullense E & E,El Grullense,94063.0,94063.0,2401 Middlefield Rd,1243 Middlefield Rd
4870,4789,Sushi Thai Of Naples,Sushi Thai of Naples,34108.0,34108.0,869 103rd Ave N,869 103rd Ave N
5870,5787,Old Stone Trattoria,Old Stone Trattoria,10514.0,10514.0,425 King St,425 King St
5367,5272,North Star Restaurant,North Star Restaurant,10576.0,10576.0,85 Westchester Ave,85 Westchester Ave
1692,1473,Jing-Jing Szechwan Hunan Gourmet,Jing-Jing Szechwan Hunan Gourmet,94301.0,94301.0,443 Emerson St,443 Emerson St
1009,861,B Street & Vine,B Street & Vine,94401.0,94401.0,320 S B St,320 S B St
3161,3089,Palm Beach Cafe,Palm Beach Cafe,33401.0,33401.0,206 S Olive Ave,206 S Olive Ave
3689,3827,La Gloria Dominion,La Gloria,78257.0,78257.0,21819 W Interstate 10,21819 IH-10
1085,1063,Osteria - Palo Alto,Osteria,94301.0,94301.0,247 Hamilton Ave,247 Hamilton Ave
5112,5095,Epic Burger,Epic Burger,60611.0,60611.0,227 E Ontario St Ste B,40 E Pearson St
3501,5295,Bedford Village Pastry,Bedford Village Pastry,10506.0,10506.0,426 Old Post Rd,426 Old Post Rd
4112,4235,Spindletop,Spindletop,77002.0,77002.0,1200 Louisiana St,1200 Louisiana St
2431,2391,Shiki Beverly Hills,Shiki Beverly Hills,90210.0,90210.0,410 N Canon Dr,410 N Canon Dr
1907,3508,Da Pasquale,Da Pasquale Restaurant,90210.0,90210.0,9749 Santa Monica Blvd,9749 S Santa Monica Blvd
1229,1209,Cafe Bliss,Cafe Bliss,94002.0,94002.0,2039 Ralston Ave,2039 Ralston Ave
3237,3371,Cosi,Cosi,60606.0,60606.0,230 W Monroe St,230 W Washington St
3077,3190,Trevini Restaurant,Trevini Restaurant,33480.0,33480.0,290 Sunset Ave,290 Sunset Ave
3275,3253,La Cocina,La Cocina,60606.0,60606.0,45 N Wells St,178 N Franklin St
826,813,Erawan Thai Restaurant,Erawan Thai Restaurant,94063.0,94063.0,2639 Broadway St,2639 Broadway St
1738,817,Las Juntas Restaurant,Las Juntas Restaurant,94063.0,94063.0,2505 Middlefield Rd,2505 Middlefield Rd
650,763,Lucias,Villa Lucias,94061.0,94061.0,1725 Woodside Rd,1725 Woodside Rd
4451,4442,Tomo Japanese Restaurant,Tomo Japanese Restaurant,30326.0,30326.0,3630 Peachtree Road NE #140,3630 Peachtree Rd
717,685,Woodside Delicatessen,Woodside Delicatessen,94061.0,94061.0,1453 Woodside Rd,1453 Woodside Rd
4787,4838,Lighthouse Restaurant,Lighthouse Restaurant,34108.0,34108.0,9180 Gulf Shore Dr,9180 Gulf Shore Dr
994,991,Bombay Garden,Bombay Garden,94401.0,94401.0,172 E 3rd Ave,172 E 3rd Ave
5555,5447,Capers & Lemons Restaurant,Capers & Lemons Restaurant,19808.0,19808.0,301 Little Falls Dr,301 Little Falls Dr
5841,5767,Manhattan Express,Manhattan Express,63105.0,63105.0,7641 Wydown Blvd,7641 Wydown Blvd
1918,2047,Mille Fleurs,Mille Fleurs Restaurant,92067.0,92067.0,6009 Paseo Delicias,6009 Paseo Delicias
4650,4605,La Coquille Restaurant,La Coquille,11030.0,11030.0,1669 Northern Blvd,1669 Northern Blvd
5155,5227,Cold Spring Plaza Delicatessen,Cold Spring,11724.0,11724.0,15 Harbor Rd,405 Main St
4513,4501,On The Border Mexican Grill & Cantina,On The Border Mexican Grill & Cantina,30326.0,30326.0,3495 Buckhead Loop NE,1 Buckhead Loop NE
615,679,Pizza Hut,Pizza Hut,94404.0,94404.0,1141 Triton Dr,1141 Triton Ave
991,915,Osteria Coppa,Osteria Coppa,94401.0,94401.0,139 S B St,139 S B St
5371,5333,Asia Hamachi Restaurant,Asia Hamachi Restaurant,10576.0,10576.0,54 Westchester Ave,54 Westchester Ave
3744,3808,Las Palapas,Las Palapas,78257.0,78257.0,23725 W Interstate 10,23725 W Ih 10
1752,1056,Darbar Indian Cuisine,Darbar Indian Cuisine,94301.0,94301.0,129 Lytton Ave,129 Lytton Ave
1227,1219,Sushi Monster,Sushi Monster,94002.0,94002.0,955 Ralston Ave,955 Ralston Ave
3918,3934,Cravings,Cravings,32963.0,32963.0,3149 Ocean Dr,3149 Ocean Dr
1535,1708,Cafe Borrone,Cafe Borrone,94025.0,94025.0,1010 El Camino Real,1010 El Camino Real
722,681,Bravo Taqueria,Bravo Taqueria,94061.0,94061.0,980 Woodside Rd,980 Woodside Rd
5835,5706,Shu Feng Restaurant,Shu Feng Restaurant,63132.0,63132.0,8435 Olive Blvd,8435 Olive Blvd
5772,5652,I Love Mr Sushi,I Love Mr Sushi,63132.0,63132.0,9443 Olive Blvd,9443 Olive Blvd
1477,1732,Round Table Pizza,Round Table Pizza,94025.0,94025.0,1225 El Camino Real,1225 El Camino Real
3877,3921,The Tides Restaurant,The Tides Restaurant,32963.0,32963.0,3103 Cardinal Dr,3103 Cardinal Dr
2511,2579,Bluefin Restaurant,Bluefin,92657.0,92657.0,7952 E Pacific Coast Hwy,7952 E Pacific Coast Hwy
5016,4931,The Capital Grille,The Capital Grille,60611.0,60611.0,633 N Saint Clair St,633 N Saint Clair St
3311,3296,Starbucks Coffee,Starbucks,60606.0,60606.0,10 S Riverside Plz Ste 130,200 W Madison St
1831,1890,Seasons 52,Seasons 52,90067.0,90067.0,10250 Santa Monica Blvd,10250 Santa Monica Blvd
1736,1390,Menlo Grill Bistro & Bar,Menlo Grill Bistro & Bar,94025.0,94025.0,100 El Camino Real,100 El Camino Real
2197,1442,Round Table Pizza,Round Table Pizza,94025.0,94025.0,1225 El Camino Real,1225 El Camino Real
2204,1827,Angelo Mio,Angelo Mio,94025.0,94025.0,820 Santa Cruz Ave,820 Santa Cruz Ave
4576,4462,Sarku Japan,Sushi Bar Sarku Japan,30326.0,30326.0,"3393 Peachtree Rd NE , Sp #K-113",Buckhead
125,64,Bibimbowl,Bibimbowl,94085.0,94085.0,415 N Mary Ave,415 N Mary Ave
2720,2825,Nebraska Steakhouse,Nebraska Steakhouse,10004.0,10004.0,15 Stone St,15 Stone St
1093,1135,Buca di Beppo,Buca di Beppo Italian Restaurant,94301.0,94301.0,643 Emerson St,643 Emerson St
3596,5280,One Twenty Three Restaurant & Bar,One Twenty Three Restaurant & Bar,10590.0,10590.0,407 Smith Ridge Rd,407 Smith Ridge Rd
5787,5695,Yen Ching,Yen Ching Restaurant,63117.0,63117.0,1012 S Brentwood Blvd,1012 S Brentwood Blvd
1753,1365,Mp Mongolian BBQ,MP Mongolian BBQ,94025.0,94025.0,700 El Camino Real,700 El Camino Real
4443,4448,Twist Restaurant,Twist Restaurant & Tapas Bar,30326.0,30326.0,3500 Peachtree Rd NE # D1,3500 Peachtree Rd NE
3572,5272,North Star Restaurant,North Star Restaurant,10576.0,10576.0,85 Westchester Ave,85 Westchester Ave
1781,1044,Nola Restaurant & Bar,NOLA Restaurant & Bar,94301.0,94301.0,535 Ramona St,535 Ramona St
1476,1735,LB Steak,LB Steak,94025.0,94025.0,898 Santa Cruz Ave,898 Santa Cruz Ave
1519,1414,Fey Restaurant,Fey Restaurant,94025.0,94025.0,1368 El Camino Real,1368 El Camino Real
2262,1154,Siam Royal Authentic Thai Cuisine,Siam Royal Authentic Thai Cuisine,94301.0,94301.0,338 University Ave,338 University Ave
3667,3748,Cosi,Cosi,78257.0,78257.0,17503 La Cantera Pkwy Ste 108,17503 La Cantera Pkwy
669,685,Woodside Delicatessen,Woodside Delicatessen,94061.0,94061.0,1453 Woodside Rd,1453 Woodside Rd
1510,1442,Round Table Pizza,Round Table Pizza,94025.0,94025.0,1225 El Camino Real,1225 El Camino Real
5803,5734,Choice Saint Louis,Choice Saint Louis,63105.0,63105.0,7807 Clayton Rd,7807 Clayton Rd
641,639,Pho Little Saigon,Pho Little Saigon,94403.0,94403.0,2978 S Norfolk St,2978 S Norfolk St
3308,3339,Nesh Mediterranean Grill Downtown,Nesh Mediterranean Grill,60606.0,60606.0,110 N Wells St,110 S  Wells St
2331,3565,Il Tramezzino,Il Tramezzino - Beverly Hills,90210.0,90210.0,460 N Canon Dr,454 N Canon Dr
1540,1368,Sultana,Sultana,94025.0,94025.0,1149 El Camino Real,1149 El Camino Real
3165,3117,Pizza Girls,Pizza Girls,33401.0,33401.0,114 S Clematis St,114 S Clematis St
4822,4784,Baleen Naples,Baleen Naples,34108.0,34108.0,9891 Gulf Shore Dr,9891 Gulf Shore Dr
2246,1400,Stacks,Stacks,94025.0,94025.0,600 Santa Cruz Ave,600 Santa Cruz Ave
2235,1036,Tamarine Restaurant,Tamarine Restaurant,94301.0,94301.0,546 University Ave,546 University Ave
4829,4797,Trattoria Abruzzo,Trattoria Abruzzo,34108.0,34108.0,835 Vanderbilt Beach Rd,835 Vanderbilt Beach Rd
4886,4794,Grill,Chipotle Mexican Grill,34108.0,34108.0,280 Vanderbilt Beach Rd,9100 Mercato Dr
2983,2915,Tre Angelina Ristoeante,Tre Angelina,10605.0,10605.0,478 Mamaroneck Ave,478 Mamaroneck Ave
1991,2054,Leucadia Pizzeria & Italian Restaurant,Leucadia Pizzeria,92091.0,92091.0,16085 San Dieguito Rd,16085 San Dieguito Rd
2845,2900,Cobble Stone,Cobble Stone,10577.0,10577.0,620 Anderson Hill Rd,620 Anderson Hill Rd
2158,2248,Portola Cafe Deli,Portola Cafe Deli,94028.0,94028.0,3 Portola Rd,3 Portola Rd
1647,1442,Round Table Pizza,Round Table Pizza,94025.0,94025.0,1225 El Camino Real,1225 El Camino Real
4380,4260,Top Pot Doughnuts,Top Pot Doughnuts,75225.0,75225.0,8611 Hillcrest Ave Ste 195,8611 Hillcrest Ave
207,152,Thai Spoons,Thai Spoons,94087.0,94087.0,909 W El Camino Real,909 W El Camino Real
1547,2233,Starbucks Coffee,Starbucks,94025.0,94025.0,863 El Camino Real,325 Sharon Park Dr
3089,3072,Cafe Boulud,Cafe Boulud,33480.0,33480.0,301 Australian Ave,The Brazilian Court Hotel  301 Australian Ave
4150,4152,Bangkok Chef,Bangkok Chef,77002.0,77002.0,914 Main St,914 Main St
3921,3974,Polo Grill,Polo Grill,32963.0,32963.0,2855 Ocean Drive,2855 Ocean Dr
1816,1873,Hinoki & The Bird,Hinoki & The Bird,90067.0,90067.0,10 W Century Dr.,10 W Century Dr
4397,4273,Miss Chi Vietnamese,Miss Chi Vietnamese,75225.0,75225.0,6030 Luther Ln Suite 130,6030 Luther Ln
235,242,White Elephant Gourmet,White Elephant,95050.0,95050.0,930 El Camino Real,930 El Camino Real
706,682,Diner Japonica,Diner Japonica,94061.0,94061.0,593 Woodside Rd,593 Woodside Rd
3319,3296,Starbucks Coffee,Starbucks,60606.0,60606.0,200 W Madison St,200 W Madison St
3906,3933,Ocean Grill,Ocean Grill,32963.0,32963.0,1050 Beachland Blvd,1050 Beachland Blvd
3635,5283,Haiku Asian Bistro & Sushi Bar,Haiku Asian Bistro & Sushi Bar,10518.0,10518.0,1 Cross River Shopping Ctr,1 Cross River Shopping Ctr
5117,4941,Gyu-Kaku,Gyu-Kaku Japanese BBQ,60611.0,60611.0,210 E Ohio St,210 E Ohio St
603,544,Rickshaw Corner Restaurant,Rickshaw Corner Restaurant,94404.0,94404.0,901 Edgewater Blvd,901 Edgewater Blvd
2402,2440,Bedford & Burns,Bedford & Burns,90210.0,90210.0,369 N Bedford Dr,369 Bedford Dr
1434,1453,Menlo BBQ,Menlo BBQ,94025.0,94025.0,555 Willow Rd,555 Willow Rd
1090,1437,Nola Restaurant & Bar,NOLA Restaurant & Bar,94301.0,94301.0,535 Ramona St,535 Ramona St
1609,1742,Chantilly Restaurant,Chantilly Restaurant,94061.0,94061.0,3001 El Camino Real,3001 El Camino Real
1479,1400,Stacks,Stacks,94025.0,94025.0,600 Santa Cruz Ave,600 Santa Cruz Ave
737,1473,Jing-Jing Szechwan Hunan Gourmet,Jing-Jing Szechwan Hunan Gourmet,94301.0,94301.0,443 Emerson St,443 Emerson St
4651,4600,Toku Modern Asian,Toku,11030.0,11030.0,2014 Northern Blvd,2014 Northern Blvd
2535,2599,The Resort at Pelican Hill,The Resort at Pelican Hill,92657.0,92657.0,22701 Pelican Hill Rd S,22701 S Pelican Hill Rd
3769,3763,Taste Crepes & More,Taste Crepes & More,78257.0,78257.0,17503 La Cantera Pkwy,17503 La Cantera Pkwy
3502,3575,Bedford Gourmet,Bedford Gourmet,10506.0,10506.0,652 Old Post Rd,460 Old Post Rd
5152,5103,Harbor Mist Restaurant,Harbor Mist,11724.0,11724.0,105 Route 25A,105 Harbor Rd
914,901,Kaz Teriyaki Grill,Kaz Teriyaki Grill,94401.0,94401.0,71 E 4th Ave,71 E 4th Ave
1833,1939,Greenleaf Gourmet Chopshop,Greenleaf Gourmet Chopshop,90067.0,90067.0,1888 Century Park E,1888 Century Park E
738,1742,Chantilly Restaurant,Chantilly Restaurant,94061.0,94061.0,3001 El Camino Real,3001 El Camino Real
2306,2489,Caffe Roma,Caffe Roma,90210.0,90210.0,350 N Canon Dr,350 N Canon Dr
4322,4255,True Food Kitchen,True Food Kitchen,75225.0,75225.0,833 Preston Center Plz,"8383 Preston Ctr Plz, Ste 100"
3835,3789,The Cheesecake Factory,The Cheesecake Factory,78256.0,78256.0,15900 La Cantera Pkwy,15900 La Cantera Parkway
873,1251,The Counter,The Counter - San Mateo,94403.0,94403.0,41 W Hillsdale Blvd,41 W Hillsdale Blvd
2146,1473,Jing-Jing Szechwan Hunan Gourmet,Jing-Jing Szechwan Hunan Gourmet,94301.0,94301.0,443 Emerson St,443 Emerson St
1802,1875,Gulfstream,Gulfstream,90067.0,90067.0,10250 Santa Monica Blvd Ste 656,10250 Santa Monica Blvd
3967,3964,Bonefish Grill,Bonefish Grill,32960.0,32960.0,2075 Indian River Blvd,2075 Indian River Blvd.
3162,3076,Kabuki Sushi Thai Tapas,Kabuki Sushi Thai Tapas,33401.0,33401.0,308 Clematis St,308 Clematis St
1519,1714,Fey Restaurant,Fey Restaurant,94025.0,94025.0,1368 El Camino Real,1368 El Camino Real
3086,3216,Polo Steakhouse,The Polo Steakhouse,33480.0,33480.0,155 Hammon Ave,155 Hammon Ave
1472,1451,Trellis Restaurant,Trellis Restaurant,94025.0,94025.0,1077 El Camino Real,1077 El Camino Real
1969,2049,Morada,Morada,92067.0,92067.0,5951 Linea Del Cielo,5951 Linea Del Cielo
1189,1041,Bistro Maxine,Bistro Maxine,94301.0,94301.0,548 Ramona St,548 Ramona St
4913,4794,Chipotle Mexican Grill,Chipotle Mexican Grill,34108.0,34108.0,9100 Strada Pl Unit 2110,9100 Mercato Dr
5128,5053,Nico Osteria,Nico Osteria,60611.0,60611.0,1015 N Rush St,1015 N Rush St
3977,4005,Amalfi Grille,Amalfi Grille,32960.0,32960.0,398 21st St,398 21st St
3309,3279,Market Creations Cafe,Market Creations Cafe,60606.0,60606.0,20 N Wacker Dr Fl 3,233 S Wacker Dr
810,1424,El Grullense E & E,El Grullense,94063.0,94063.0,2401 Middlefield Rd,795 5th Ave
5773,5620,La Pizza,La Pizza,63130.0,63130.0,8137 Delmar Blvd,8137 Delmar Blvd
1907,2395,Da Pasquale,Da Pasquale Restaurant,90210.0,90210.0,9749 Santa Monica Blvd,9749 S Santa Monica Blvd
2972,2905,Nanase,Sushi Nanase,10605.0,10605.0,522 Mamaroneck Ave,522 Mamaroneck Ave
3176,3143,Il Bellagio,Il Bellagio,33401.0,33401.0,600 S Rosemary Ave,600 S Rosemary Ave
2665,2754,Pranzo,Pranzo,10004.0,10004.0,34 Water St,34 Water St
2346,2381,Urasawa Restaurant,Urasawa,90210.0,90210.0,218 N Rodeo Dr,218 N Rodeo Dr
2412,2384,Harajuku Crepe,Harajuku Crepe,90210.0,90210.0,9405 Santa Monica Blvd,9405 S Santa Monica Blvd
