ID_A,ID_B,Name_A,Name_B,Address_A,Address_B,Phone_A,Phone_B
771,6,'evergreen cafe','bernard\'s','1288 1st ave. at 69th st.','515 s. olive st.',212/744-3266,213-612-1580
735,317,'cafe bianco','campton place','1486 2nd ave.  between 77th and 78th sts.','340 stockton st.',212/988-2655,415-955-5555
936,273,'la grotta at ravinia dunwoody rd.',pisces,'holiday inn/crowne plaza at ravinia  dunwoody','95 ave. a',770/395-9925,212-260-6660
831,142,'lucky strike','103 west','59 grand st.  between wooster st. and w. broadway','103 w. paces ferry rd.',212/941-0479,404-233-5993
708,106,'west beach cafe','sam\'s noodle shop','60 n. venice blvd.','411 third ave.',310/823-5396,212-213-2288
1049,322,'stars cafe','khan toke thai house','500 van ness ave.','5937 geary blvd.',415/861-4344,415-668-6654
769,40,'empire korea','main course  the','6 e. 32nd st.','10509 w. pico blvd.',212/725-1333,310-475-7564
924,191,'city grill','cha cha cha\'s','50 hurt plaza','1805 haight st.',404/524-2489,415-386-5758
967,30,'cafe roma','johnny reb\'s southern smokehouse','3570 las vegas blvd. s','4663 long beach blvd.',702/731-7547,310-423-7327
590,149,'river cafe','brookhaven cafe','1 water st. at the east river','4274 peachtree rd.',718/522-5200,404-231-5907
588,44,pisces,'michael\'s (los angeles)','95 ave. a at 6th st.','1147 third st.',212/260-6660,310-451-0843
978,54,'margarita\'s mexican cantina','poquito mas','3120 las vegas blvd. s','2635 w. olive ave.',702/794-8200,818-563-2252
904,247,verbena,'carmine\'s','54 irving pl. at 17th st.','2450 broadway',212/260-5454,212-362-2200
987,15,2223,'chez melange','2223 market st.','1716 pch',415/431-0692,310-540-1222
888,2,'sweet\'n\'tart cafe','asahi ramen','76 mott st. at canal st.','2027 sawtelle blvd.',212/334-8088,310-479-2231
1013,63,helmand,'sweet lady jane','430 broadway','8360 melrose ave.',415/362-0641,213-653-7145
534,274,'arnie morton\'s of chicago','rainbow room','435 s. la cienega blv.','30 rockefeller plaza',310/246-1501,212-632-5000
1062,174,'yank sing','nuevo laredo cantina','427 battery st.','1495 chattahoochee ave. nw',415/541-4949,404-352-9009
744,250,'caffe lure',daniel,'169 sullivan st.  between houston and bleecker sts.','20 e. 76th st.',212/473-2642,212-288-0033
952,32,'south of france','killer shrimp','2345 cheshire bridge rd.','4000 colfax ave.',404/325-6963,818-508-1570
571,141,'island spice','tre visi','402 w. 44th st.','3799 las vegas blvd. s.',212/765-1737,702-891-7331
689,306,orleans,'nikolai\'s roof','11705 national blvd.','255 courtland st.',310/479-4187,404-221-6362
847,82,'new york kom tang soot bul house','il mulino','32 w. 32nd st.','86 w. third st.','212/ 947-8482',212-673-3783
729,192,bouterin,'doidge\'s','420 e. 59th st.  off 1st ave.','2217 union st.',212/758-0323,415-921-2149
615,78,'georgia grille','edison cafe','2290 peachtree rd.  peachtree square shopping center','228 w. 47th st.',404/352-3517,212-840-5000
985,215,'viva mercado\'s','trio cafe','6182 w. flamingo rd.','1870 fillmore st.',702/871-8826,415-563-2248
770,330,'ernie\'s','rose pistola','2150 broadway  between 75th and 76th sts.','532 columbus ave.',212/496-1588,415-399-0499
1015,5,'hong kong villa','benita\'s frites','2332 clement st.','1433 third st. promenade',415/752-8833,310-458-2889
1009,27,'harbor village','joe\'s','4 embarcadero center','1023 abbot kinney blvd.',415/781-8833,310-399-5811
989,226,'bardelli\'s','fenix at the argyle','243 o\'farrell st.','8358 sunset blvd.',415/982-0243,213-848-6677
665,220,dive!,'art\'s deli','10250 santa monica blvd.','12224 ventura blvd.',310/788-,818-762-1221
733,226,c3,'fenix at the argyle','103 waverly pl.  near washington sq.','8358 sunset blvd.',212/254-1200,213-848-6677
622,245,'pano\'s and paul\'s','cafe lalo','1232 w. paces ferry rd.','201 w. 83rd st.',404/261-3662,212-496-6031
1028,208,manora,'roosevelt tamale parlor','3226 mission st.','2817 24th st.',415/861-6224,415-550-9213
997,188,'california culinary academy','cafe flore','625 polk st.','2298 market st.',415/771-3500,415-621-8579
1049,209,'stars cafe','sally\'s cafe & bakery','500 van ness ave.','300 de haro st.',415/861-4344,415-626-6006
807,109,'jean lafitte','stick to your ribs','68 w. 58th st.','5-16 51st ave.',212/751-2323,718-937-3030
725,11,'big cup','bruno\'s','228 8th ave.  between 21st and 22nd sts.','3838 centinela ave.',212/206-0059,310-397-5703
613,246,ciboulette,'cafe des artistes','1529 piedmont ave.','1 w. 67th st.',404/874-7600,212-877-3500
951,24,'south city kitchen','jan\'s family restaurant','1144 crescent ave.','8424 beverly blvd.',404/873-7358,213-651-2866
850,267,odeon,'mi cocina','145 w. broadway at thomas st.','57 jane st.',212/233-0507,212-627-8273
622,135,'pano\'s and paul\'s','nicky blair\'s','1232 w. paces ferry rd.','3925 paradise rd.',404/261-3662,702-792-9900
589,286,'rainbow room','chin\'s','30 rockefeller plaza','3200 las vegas blvd. s.',212/632-5000,702-733-8899
651,237,beaurivage,'pinot bistro','26025 pacific coast hwy.','12969 ventura blvd.',310/456-5733,818-990-0500
778,324,firehouse,'lulu restaurant-bis-cafe','522 columbus ave.  between 85th and 86th sts.','816 folsom st.',212/595-3139,415-495-5775
610,167,'bone\'s','kalo\'s coffee house','3130 piedmont road','1248 clairmont rd.',404/237-2663,404-325-3733
1052,106,suppenkuche,'sam\'s noodle shop','601 hayes st.','411 third ave.',415/252-9289,212-213-2288
894,248,'the coffee pot','carnegie deli','350 9th ave. at 49th st.','854 seventh ave.',212/265-3566,212-757-2245
826,290,'le perigord','second street grill','405 e. 52nd st.','200 e. fremont st.',212/755-6244,702-385-6277
739,14,'cafe pierre','cassell\'s','2 e. 61st st.','3266 w. sixth st.',212/940-8185,213-480-8668
868,33,'red tulip','kokomo cafe','439 e. 75th st.','6333 w. third st.',212/734-4893,213-933-0773
851,91,orso,'lemongrass grill','322 w. 46th st.','61a seventh ave.',212/489-7212,718-399-7100
738,158,'cafe luxembourg','flying biscuit  the','200 w. 70th st.','1655 mclendon ave.',212/873-7411,404-687-8888
903,52,'veniero\'s pasticceria','pho hoa','342 e. 11th st.  near 1st ave.','642 broadway',212/674-7264,213-626-5530
553,2,'rex il ristorante','asahi ramen','617 s. olive st.','2027 sawtelle blvd.',213/627-2300,310-479-2231
664,290,'dining room','second street grill','9500 wilshire blvd.','200 e. fremont st.',310/275-5200,702-385-6277
1027,142,'macarthur park','103 west','607 front st.','103 w. paces ferry rd.',415/398-5700,404-233-5993
933,260,'hsu\'s gourmet','le bernardin','192 peachtree center ave.  at international blvd.','155 w. 51st st.',404/659-2788,212-489-1515
971,111,'circus circus','sylvia\'s','2880 las vegas blvd. s','328 lenox ave.',702/734-0410,212-996-0660
948,144,'rib ranch','baker\'s cajun cafe','25 irby ave.','1134 euclid ave.',404/233-7644,404-223-5039
1056,182,'ton kiang',tortillas,'3148 geary blvd.','774 ponce de leon ave. ne',415/752-4440,404-892-0193
800,248,'hudson river club','carnegie deli','4 world financial center','854 seventh ave.',212/786-1500,212-757-2245
558,302,aquavit,'heera of india','13 w. 54th st.','595 piedmont ave.',212/307-7311,404-876-4408
1044,262,sanppo,'lespinasse (new york city)','1702 post st.','2 e. 55th st.',415/346-3486,212-339-6719
846,224,'motown cafe','chinois on main','104 w. 57th st.  near 6th ave.','2709 main st.',212/581-8030,310-392-9025
840,161,'matthew\'s','harold\'s barbecue','1030 3rd ave. at 61st st.','171 mcdonough blvd.',212/838-4343,404-627-9268
538,317,campanile,'campton place','624 s. la brea ave.','340 stockton st.',213/938-1447,415-955-5555
1005,145,'garden court','barbecue kitchen','market and new montgomery sts.','1437 virginia ave.',415/546-5011,404-766-9906
940,214,'mambo restaurante cubano','ti couz','1402 n. highland ave.','3108 16th st.',404/874-2626,415-252-7373
980,174,mikado,'nuevo laredo cantina','3400 las vegas blvd. s','1495 chattahoochee ave. nw',702/791-7111,404-352-9009
821,242,'le colonial','21 club','149 e. 57th st.','21 w. 52nd st.','212/ 752-0808',212-582-7200
832,136,'mad fish','piero\'s restaurant','2182 broadway  between 77th and 78th sts.','355 convention center dr.',212/787-0202,702-369-2305
594,218,'shun lee west','wa-ha-ka oaxaca mexican grill','43 w. 65th st.','2141 polk st.',212/371-8844,415-775-1055
1039,86,pastis,'kelley & ping','1015 battery st.','127 greene st.',415/391-2555,212-228-1212
864,69,pomaire,'afghan kebab house','371 w. 46th st.  off 9th ave.','764 ninth ave.','212/ 956-3055',212-307-1612
664,265,'dining room',march,'9500 wilshire blvd.','405 e. 58th st.',310/275-5200,212-754-6272
688,142,'ocean avenue','103 west','1401 ocean ave.','103 w. paces ferry rd.',310/394-5669,404-233-5993
843,304,'monkey bar','la grotta','60 e. 54th st.','2637 peachtree rd. ne',212/838-2600,404-231-1368
836,194,'manila garden','dusit thai','325 e. 14th st.  between 1st and 2nd aves.','3221 mission st.',212/777-6314,415-826-4639
621,212,'nikolai\'s roof','swan oyster depot','255 courtland st.  at harris st.','1517 polk st.',404/221-6362,415-673-1101
701,54,swingers,'poquito mas','8020 beverly blvd.','2635 w. olive ave.',213/653-5858,818-563-2252
779,25,first,jiraffe,'87 1st ave.  between 5th and 6th sts.','502 santa monica blvd',212/674-3823,310-917-6671
882,331,sfuzzi,'ritz-carlton cafe (atlanta)','58 w. 65th st.','181 peachtree st.',212/873-3700,404-659-0400
673,240,'gladstone\'s',valentino,'4 fish 17300 pacific coast hwy. at sunset blvd.','3115 pico blvd.',310/454-3474,310-829-4313
542,223,granita,campanile,'23725 w. malibu rd.','624 s. la brea ave.',310/456-0488,213-938-1447
997,283,'california culinary academy','uncle nick\'s','625 polk st.','747 ninth ave.',415/771-3500,212-245-7992
586,262,petrossian,'lespinasse (new york city)','182 w. 58th st.','2 e. 55th st.',212/245-2214,212-339-6719
883,81,shaan,'gray\'s papaya','57 w. 48th st.','2090 broadway','212/ 977-8400',212-799-0243
762,225,'dean & deluca',citrus,'121 prince st.','6703 melrose ave.',212/254-8776,213-857-0034
855,167,palio,'kalo\'s coffee house','151 w. 51st. st.','1248 clairmont rd.',212/245-4850,404-325-3733
867,23,rain,'indo cafe','100 w. 82nd st.','10428 1/2 national blvd.',212/501-0776,310-815-1290
601,219,'chin\'s','arnie morton\'s of chicago','3200 las vegas blvd. s','435 s. la cienega blvd.',702/733-8899,310-246-1501
536,138,'hotel bel-air','steakhouse  the','701 stone canyon rd.','128 e. fremont st.',310/472-1211,702-382-1600
835,237,'manhattan cafe','pinot bistro','1161 1st ave.  between 63rd and 64th sts.','12969 ventura blvd.',212/888-6556,818-990-0500
808,89,'jewel of india','la caridad','15 w. 44th st.','2199 broadway',212/869-5544,212-874-2780
743,307,'caffe dell\'artista','pano\'s & paul\'s','46 greenwich ave.','1232 w. paces ferry rd.',212/645-4431,404-261-3662
582,30,'mi cocina','johnny reb\'s southern smokehouse','57 jane st.  off hudson st.','4663 long beach blvd.',212/627-8273,310-423-7327
700,56,sofi,'rae\'s','3rd st.','2901 pico blvd.',213/651-0346,310-828-7937
814,269,'l\'auberge du midi',oceana,'310 w. 4th st.  between w. 12th and bank sts.','55 e. 54th st.',212/242-4705,212-759-5941
747,144,'caffe vivaldi','baker\'s cajun cafe','32 jones st. at bleecker st.','1134 euclid ave.',212/691-7538,404-223-5039
823,262,'le jardin','lespinasse (new york city)','25 cleveland pl.  near spring st.','2 e. 55th st.',212/343-9599,212-339-6719
549,307,'the palm','pano\'s & paul\'s','9001 santa monica blvd.','1232 w. paces ferry rd.',310/550-8811,404-261-3662
579,265,'manhattan ocean club',march,'57 w. 58th st.','405 e. 58th st.','212/ 371-7777',212-754-6272
624,31,'dining room  ritz-carlton  buckhead','johnny rockets (la)','3434 peachtree rd.','7507 melrose ave.',404/237-2700,213-651-3361
786,256,'french roast cafe','island spice','2340 broadway at 85th st.','402 w. 44th st.',212/799-1533,212-765-1737
842,232,'milan cafe and coffee bar','locanda veneta','120 w. 23rd st.','8638 w. third st.',212/807-1801,310-274-1893
594,154,'shun lee west',chops,'43 w. 65th st.','70 w. paces ferry rd.',212/371-8844,404-262-2675
806,175,ipanema,'original pancake house (at)','13 w. 46th st.','4330 peachtree rd.',212/730-5848,404-237-4116
646,71,bolo,'benny\'s burritos','23 e. 22nd st.','93 ave. a',212/228-2200,212-254-2054
712,203,agrotikon,'mario\'s bohemian cigar store cafe','322 e. 14 st.  between 1st and 2nd aves.','2209 polk st.',212/473-2602,415-776-8226
893,320,terrace,fringale,'400 w. 119th st.  between amsterdam and morningside aves.','570 fourth st.',212/666-9490,415-543-0573
895,219,'the savannah club','arnie morton\'s of chicago','2420 broadway at 89th st.','435 s. la cienega blvd.',212/496-1066,310-246-1501
962,232,'binion\'s coffee shop','locanda veneta','128 fremont st.','8638 w. third st.',702/382-1600,310-274-1893
575,152,'le bernardin','carey\'s','155 w. 51st st.','1021 cobb pkwy. se',212/489-1515,770-422-8042
891,277,tapika,'second avenue deli','950 8th ave. at 56th st.','156 second ave.','212/ 397-3737',212-677-0606
874,61,'sal anthony\'s',shiro,'55 irving pl.','1505 mission st. s.',212/982-9030,818-799-4774
928,175,'dante\'s down the hatch','original pancake house (at)','underground underground mall  underground atlanta','4330 peachtree rd.',404/577-1800,404-237-4116
610,207,'bone\'s','phnom penh cambodian restaurant','3130 piedmont road','631 larkin st.',404/237-2663,415-775-5979
1039,241,pastis,'yujean kang\'s','1015 battery st.','67 n. raymond ave.',415/391-2555,818-585-0855
990,273,betelnut,pisces,'2030 union st.','95 ave. a',415/929-8855,212-260-6660
592,261,'second avenue deli','les celebrites','156 2nd ave. at 10th st.','155 w. 58th st.',212/677-0606,212-484-5113
637,231,'khan toke thai house','le chardonnay (los angeles)','5937 geary blvd.','8284 melrose ave.',415/668-6654,213-655-8880
795,171,'grand ticino','morton\'s of chicago (atlanta)','228 thompson st.  between w. 3rd and bleecker sts.','303 peachtree st. ne',212/777-5922,404-577-4366
564,220,chanterelle,'art\'s deli','2 harrison st.  near hudson st.','12224 ventura blvd.',212/966-6960,818-762-1221
1018,188,'izzy\'s steak & chop house','cafe flore','3345 steiner st.','2298 market st.',415/563-0487,415-621-8579
706,240,'trader vic\'s',valentino,'9876 wilshire blvd.','3115 pico blvd.',310/276-6345,310-829-4313
572,45,'jo jo',mishima,'160 e. 64th st.','8474 w. third st.',212/223-5656,213-782-0181
668,242,'dynasty room','21 club','930 hilgard ave.','21 w. 52nd st.',310/208-8765,212-582-7200
951,79,'south city kitchen','elias corner','1144 crescent ave.','24-02 31st st.',404/873-7358,718-932-1510
993,232,bizou,'locanda veneta','598 fourth st.','8638 w. third st.',415/543-2222,310-274-1893
995,182,'cafe adriano',tortillas,'3347 fillmore st.','774 ponce de leon ave. ne',415/474-4180,404-892-0193
1043,116,rumpus,'thailand restaurant','1 tillman pl.','106 bayard st.',415/421-2300,212-349-3132
853,43,otabe,'maxwell\'s cafe','68 e. 56th st.','13329 washington blvd.',212/223-7575,310-306-7829
977,267,'mandarin court','mi cocina','1510 e. flamingo rd.','57 jane st.',702/737-1234,212-627-8273
791,215,'gianni\'s','trio cafe','15 fulton st.','1870 fillmore st.',212/608-7300,415-563-2248
540,173,citrus,nava,'6703 melrose ave.','3060 peachtree rd.',213/857-0034,404-240-1984
746,21,'caffe roma','gumbo pot  the','385 broome st. at mulberry','6333 w. third st.',212/226-8413,213-933-0358
557,295,'21 club','bone\'s restaurant','21 w. 52nd st.','3130 piedmont rd. ne',212/582-7200,404-237-2663
556,327,'yujean kang\'s gourmet chinese cuisine','plumpjack cafe','67 n. raymond ave.','3127 fillmore st.',818/585-0855,415-563-4755
580,307,march,'pano\'s & paul\'s','405 e. 58th st.','1232 w. paces ferry rd.',212/754-6272,404-261-3662
623,273,'cafe  ritz-carlton  buckhead',pisces,'3434 peachtree rd.','95 ave. a',404/237-2700,212-260-6660
668,25,'dynasty room',jiraffe,'930 hilgard ave.','502 santa monica blvd',310/208-8765,310-917-6671
1041,92,'r&g lounge','lombardi\'s','631 b kearny st.','32 spring st.',415/982-7877,212-941-7994
1056,250,'ton kiang',daniel,'3148 geary blvd.','20 e. 76th st.',415/752-4440,212-288-0033
889,108,'t salon','sparks steak house','143 mercer st. at prince st.','210 e. 46th st.',212/925-3700,212-687-4855
616,278,'hedgerose heights inn',seryna,'490 e. paces ferry rd.','11 e. 53rd st.',404/233-7673,212-980-9393
916,293,anthonys,abruzzi,'3109 piedmont rd.  just south of peachtree rd.','2355 peachtree rd. ne',404/262-7379,404-261-8186
755,32,'china grill','killer shrimp','60 w. 53rd st.','4000 colfax ave.',212/333-7788,818-508-1570
750,242,'captain\'s table','21 club','860 2nd ave. at 46th st.','21 w. 52nd st.',212/697-9538,212-582-7200
1008,258,greens,'la caravelle','bldg. a fort mason','33 w. 55th st.',415/771-6222,212-586-4252
774,65,ferrier,'tommy\'s','29 e. 65th st.','2575 beverly blvd.',212/772-9000,213-389-9060
661,72,'cha cha cha','cafe con leche','656 n. virgil ave.','424 amsterdam ave.',213/664-7723,212-595-7000
1052,236,suppenkuche,'philippe the original','601 hayes st.','1001 n. alameda st.',415/252-9289,213-628-3781
1053,68,'tadich grill','zankou chicken','240 california st.','1415 e. colorado st.',415/391-2373,818-244-1937
582,250,'mi cocina',daniel,'57 jane st.  off hudson st.','20 e. 76th st.',212/627-8273,212-288-0033
1003,263,faz,lutece,'161 sutter st.','249 e. 50th st.',415/362-0404,212-752-2225
658,86,'california pizza kitchen','kelley & ping','207 s. beverly dr.','127 greene st.',310/275-1101,212-228-1212
698,3,'roscoe\'s house of chicken \'n\' waffles','baja fresh','1514 n. gower st.','3345 kimber dr.',213/466-9329,805-498-4049
877,94,'sant ambroeus',menchanko-tei,'1000 madison ave.  between 77th and 78th sts.','39 w. 55th st.',212/570-2211,212-247-1585
666,189,drago,'caffe greco','2628 wilshire blvd.','423 columbus ave.',310/828-1585,415-397-6261
772,150,'f. ille ponte ristorante','cafe sunflower','39 desbrosses st.  near west st.','5975 roswell rd.',212/226-4621,404-256-1675
789,63,'gabriela\'s','sweet lady jane','685 amsterdam ave. at 93rd st.','8360 melrose ave.',212/961-0574,213-653-7145
776,97,'film center cafe',moustache,'635 9th ave.  between 44th and 45th sts.','405 atlantic ave.','212/ 262-2525',718-852-5555
747,180,'caffe vivaldi',soto,'32 jones st. at bleecker st.','3330 piedmont rd.',212/691-7538,404-233-2005
938,232,'lowcountry barbecue','locanda veneta','6301 roswell rd.  sandy springs plaza  sandy springs','8638 w. third st.',404/255-5160,310-274-1893
729,304,bouterin,'la grotta','420 e. 59th st.  off 1st ave.','2637 peachtree rd. ne',212/758-0323,404-231-1368
928,74,'dante\'s down the hatch','cucina della fontana','underground underground mall  underground atlanta','368 bleecker st.',404/577-1800,212-242-0636
980,218,mikado,'wa-ha-ka oaxaca mexican grill','3400 las vegas blvd. s','2141 polk st.',702/791-7111,415-775-1055
598,156,'uncle nick\'s','deacon burton\'s soulfood restaurant','747 9th ave.  between 50th and 51st sts.','1029 edgewood ave. se',212/315-1726,404-523-1929
717,264,'american place','manhattan ocean club','2 park ave. at 32nd st.','57 w. 58th st.',212/684-2122,212-371-7777
817,103,'lanza restaurant','patsy\'s pizza','168 1st ave.  between 10th and 11th sts.','19 old fulton st.',212/674-7014,718-858-4300
678,183,'jackson\'s farm','van gogh\'s restaurant & bar','439 n. beverly drive','70 w. crossville rd.',310/273-5578,770-993-1156
848,159,'new york noodletown',frijoleros,'28 1/2 bowery at bayard st.','1031 peachtree st. ne',212/349-0923,404-892-8226
619,35,'la grotta','la cachette','2637 peachtree rd.  peachtree house condominium','10506 little santa monica blvd.',404/231-1368,310-470-4992
817,86,'lanza restaurant','kelley & ping','168 1st ave.  between 10th and 11th sts.','127 greene st.',212/674-7014,212-228-1212
894,125,'the coffee pot','buzio\'s in the rio','350 9th ave. at 49th st.','3700 w. flamingo rd.',212/265-3566,702-252-7697
956,261,tomtom,'les celebrites','3393 peachtree rd.','155 w. 58th st.',404/264-1163,212-484-5113
719,232,arizona,'locanda veneta','206 206 e. 60th st.','8638 w. third st.',212/838-0440,310-274-1893
938,33,'lowcountry barbecue','kokomo cafe','6301 roswell rd.  sandy springs plaza  sandy springs','6333 w. third st.',404/255-5160,213-933-0773
875,281,'sammy\'s roumanian steak house','smith & wollensky','157 chrystie st. at delancey st.','797 third ave.',212/673-0330,212-753-1530
682,257,'le dome','jo jo','8720 sunset blvd.','160 e. 64th st.',310/659-6919,212-223-5656
891,4,tapika,'belvedere  the','950 8th ave. at 56th st.','9882 little santa monica blvd.','212/ 397-3737',310-788-2306
952,106,'south of france','sam\'s noodle shop','2345 cheshire bridge rd.','411 third ave.',404/325-6963,212-213-2288
1061,61,'wu kong',shiro,'101 spear st.','1505 mission st. s.',415/957-9300,818-799-4774
898,171,'tribeca grill','morton\'s of chicago (atlanta)','375 greenwich st.  near franklin st.','303 peachtree st. ne',212/941-3900,404-577-4366
654,101,'broadway deli',palm,'3rd st. promenade','837 second ave.',310/451-0616,212-687-2953
737,282,'cafe la fortuna','tavern on the green','69 w. 71st st.','central park west',212/724-5846,212-873-3200
810,271,'joe allen',petrossian,'326 w. 46th st.','182 w. 58th st.',212/581-6464,212-245-2214
778,272,firehouse,picholine,'522 columbus ave.  between 85th and 86th sts.','35 w. 64th st.',212/595-3139,212-724-8585
938,208,'lowcountry barbecue','roosevelt tamale parlor','6301 roswell rd.  sandy springs plaza  sandy springs','2817 24th st.',404/255-5160,415-550-9213
822,8,'le gamin','brent\'s deli','50 macdougal st.  between houston and prince sts.','19565 parthenia ave.',212/254-4678,818-886-5679
751,232,'casa la femme','locanda veneta','150 wooster st.  between houston and prince sts.','8638 w. third st.',212/505-0005,310-274-1893
671,125,'el cholo','buzio\'s in the rio','1121 s. western ave.','3700 w. flamingo rd.',213/734-2773,702-252-7697
622,325,'pano\'s and paul\'s','masa\'s','1232 w. paces ferry rd.','648 bush st.',404/261-3662,415-989-7154
660,201,cava,'la mediterranee','3rd st.','288 noe st.',213/658-8898,415-431-7210
787,198,'frico bar','hamburger mary\'s','402 w. 43rd st.  off 9th ave.','1582 folsom st.',212/564-7272,415-626-1985
878,154,'sarabeth\'s kitchen',chops,'423 amsterdam ave.  between 80th and 81st sts.','70 w. paces ferry rd.',212/496-6280,404-262-2675
869,223,republic,campanile,'37a union sq. w  between 16th and 17th sts.','624 s. la brea ave.',212/627-7172,213-938-1447
932,95,'horseradish grill','mitali east-west','4320 powers ferry rd.','296 bleecker st.',404/255-7277,212-989-1367
1017,33,'il fornaio levi\'s plaza','kokomo cafe','1265 battery st.','6333 w. third st.',415/986-0100,213-933-0773
834,143,'mangia e bevi','alon\'s at the terrace','800 9th ave. at 53rd st.','659 peachtree st.',212/956-3976,404-724-0444
627,130,'veni vidi vici','mayflower cuisinier','41 14th st.','4750 w. sahara ave.',404/875-8424,702-870-8432
912,144,zoe,'baker\'s cajun cafe','90 prince st.  between broadway and mercer st.','1134 euclid ave.',212/966-6722,404-223-5039
625,156,'restaurant  ritz-carlton  atlanta','deacon burton\'s soulfood restaurant','181 peachtree st.','1029 edgewood ave. se',404/659-0400,404-523-1929
561,113,'cafe des artistes','szechuan kitchen','1 w. 67th st.','1460 first ave.',212/877-3500,212-249-4615
807,102,'jean lafitte','palm too','68 w. 58th st.','840 second ave.',212/751-2323,212-697-5198
591,37,'san domenico','la serenata de garibaldi','240 central park s','1842 e. first',212/265-5959,213-265-2887
751,256,'casa la femme','island spice','150 wooster st.  between houston and prince sts.','402 w. 44th st.',212/505-0005,212-765-1737
1000,194,chevys,'dusit thai','4th and howard sts.','3221 mission st.',415/543-8060,415-826-4639
895,110,'the savannah club',sushisay,'2420 broadway at 89th st.','38 e. 51st st.',212/496-1066,212-755-1780
569,127,'gotham bar & grill','fiore rotisserie & grille','12 e. 12th st.','3700 w. flamingo rd.',212/620-4020,702-252-7702
613,165,ciboulette,'java jive','1529 piedmont ave.','790 ponce de leon ave.',404/874-7600,404-876-6161
565,19,daniel,'falafel king','20 e. 76th st.','1059 broxton ave.',212/288-0033,310-208-4444
562,50,'carmine\'s','original pantry bakery','2450 broadway  between 90th and 91st sts.','875 s. figueroa st. downtown',212/362-2200,213-627-6879
880,5,serendipity,'benita\'s frites','3 225 e. 60th st.','1433 third st. promenade',212/838-3531,310-458-2889
661,295,'cha cha cha','bone\'s restaurant','656 n. virgil ave.','3130 piedmont rd. ne',213/664-7723,404-237-2663
694,185,prego,'white house restaurant','362 n. camden dr.','3172 peachtree rd. ne',310/277-7346,404-237-7601
842,254,'milan cafe and coffee bar','gotham bar & grill','120 w. 23rd st.','12 e. 12th st.',212/807-1801,212-620-4020
786,221,'french roast cafe','bel-air hotel','2340 broadway at 85th st.','701 stone canyon rd.',212/799-1533,310-472-1211
1064,109,'yoyo tsumami bistro','stick to your ribs','1611 post st.','5-16 51st ave.',415/922-7788,718-937-3030
684,74,'mon kee seafood restaurant','cucina della fontana','679 n. spring st.','368 bleecker st.',213/628-6717,212-242-0636
644,187,'ritz-carlton restaurant and dining room','bill\'s place','600 stockton st.','2315 clement st.',415/296-7465,415-221-5262
608,90,abruzzi,'la grenouille','2355 peachtree rd.  peachtree battle shopping center','3 e. 52nd st.',404/261-8186,212-752-1495
811,178,'judson grill',riviera,'152 w. 52nd st.','519 e. paces ferry rd.',212/582-5252,404-262-7112
1043,61,rumpus,shiro,'1 tillman pl.','1505 mission st. s.',415/421-2300,818-799-4774
549,91,'the palm','lemongrass grill','9001 santa monica blvd.','61a seventh ave.',310/550-8811,718-399-7100
762,272,'dean & deluca',picholine,'121 prince st.','35 w. 64th st.',212/254-8776,212-724-8585
715,147,'alley\'s end','bobby & june\'s kountry kitchen','311 w. 17th st.','375 14th st.',212/627-8899,404-876-3872
655,61,'ca\'brea',shiro,'346 s. la brea ave.','1505 mission st. s.',213/938-2863,818-799-4774
637,310,'khan toke thai house','ritz-carlton restaurant','5937 geary blvd.','181 peachtree st.',415/668-6654,404-659-0400
836,73,'manila garden','corner bistro','325 e. 14th st.  between 1st and 2nd aves.','331 w. fourth st.',212/777-6314,212-242-9502
869,270,republic,'park avenue cafe (new york city)','37a union sq. w  between 16th and 17th sts.','100 e. 63rd st.',212/627-7172,212-644-1900
764,101,'dix et sept',palm,'181 w. 10th st.','837 second ave.',212/645-8023,212-687-2953
939,65,'luna si','tommy\'s','1931 peachtree rd.','2575 beverly blvd.',404/355-5993,213-389-9060
648,286,remi,'chin\'s','145 w. 53rd st.','3200 las vegas blvd. s.',212/581-4242,702-733-8899
943,241,'nickiemoto\'s: a sushi bar','yujean kang\'s','247 buckhead ave.  east village sq.','67 n. raymond ave.',404/842-0334,818-585-0855
991,59,'bistro roti','russell\'s burgers','155 steuart st.','1198 pch',415/495-6500,310-596-9556
626,313,toulouse,'alain rondelli','b peachtree rd.','126 clement st.',404/351-9533,415-387-0408
1046,249,'south park cafe',chanterelle,'108 south park','2 harrison st.',415/495-7275,212-966-6960
769,119,'empire korea','windows on the world','6 e. 32nd st.','107th fl.',212/725-1333,212-524-7000
646,72,bolo,'cafe con leche','23 e. 22nd st.','424 amsterdam ave.',212/228-2200,212-595-7000
821,2,'le colonial','asahi ramen','149 e. 57th st.','2027 sawtelle blvd.','212/ 752-0808',310-479-2231
929,2,'fat matt\'s rib shack','asahi ramen','1811 piedmont ave.  near cheshire bridge rd.','2027 sawtelle blvd.',404/607-1622,310-479-2231
991,150,'bistro roti','cafe sunflower','155 steuart st.','5975 roswell rd.',415/495-6500,404-256-1675
537,43,'cafe bizou','maxwell\'s cafe','14016 ventura blvd.','13329 washington blvd.',818/788-3536,310-306-7829
808,56,'jewel of india','rae\'s','15 w. 44th st.','2901 pico blvd.',212/869-5544,310-828-7937
936,290,'la grotta at ravinia dunwoody rd.','second street grill','holiday inn/crowne plaza at ravinia  dunwoody','200 e. fremont st.',770/395-9925,702-385-6277
629,55,aqua,r-23,'252 california st.','923 e. third st.',415/956-9662,213-687-7178
768,297,'emily\'s','buckhead diner','1325 5th ave. at 111th st.','3073 piedmont rd.',212/996-1212,404-262-3336
776,235,'film center cafe',patina,'635 9th ave.  between 44th and 45th sts.','5955 melrose ave.','212/ 262-2525',213-467-1108
846,152,'motown cafe','carey\'s','104 w. 57th st.  near 6th ave.','1021 cobb pkwy. se',212/581-8030,770-422-8042
653,52,'border grill','pho hoa','4th st.','642 broadway',310/451-1655,213-626-5530
614,82,delectables,'il mulino','1 margaret mitchell sq.','86 w. third st.',404/681-2909,212-673-3783
806,184,ipanema,veggieland,'13 w. 46th st.','220 sandy springs circle',212/730-5848,404-231-3111
877,186,'sant ambroeus',zab-e-lee,'1000 madison ave.  between 77th and 78th sts.','4837 old national hwy.',212/570-2211,404-768-2705
819,180,layla,soto,'211 w. broadway at franklin st.','3330 piedmont rd.',212/431-0700,404-233-2005
619,9,'la grotta','brighton coffee shop','2637 peachtree rd.  peachtree house condominium','9600 brighton way',404/231-1368,310-276-7732
609,257,bacchanalia,'jo jo','3125 piedmont rd.  near peachtree rd.','160 e. 64th st.',404/365-0410,212-223-5656
962,277,'binion\'s coffee shop','second avenue deli','128 fremont st.','156 second ave.',702/382-1600,212-677-0606
1015,135,'hong kong villa','nicky blair\'s','2332 clement st.','3925 paradise rd.',415/752-8833,702-792-9900
577,52,lespinasse,'pho hoa','2 e. 55th st.','642 broadway',212/339-6719,213-626-5530
659,188,'canter\'s','cafe flore','419 n. fairfax ave.','2298 market st.',213/651-2030.,415-621-8579
773,256,felix,'island spice','340 w. broadway at grand st.','402 w. 44th st.',212/431-0021,212-765-1737
625,281,'restaurant  ritz-carlton  atlanta','smith & wollensky','181 peachtree st.','797 third ave.',404/659-0400,212-753-1530
580,91,march,'lemongrass grill','405 e. 58th st.','61a seventh ave.',212/754-6272,718-399-7100
751,71,'casa la femme','benny\'s burritos','150 wooster st.  between houston and prince sts.','93 ave. a',212/505-0005,212-254-2054
904,301,verbena,'hedgerose heights inn  the','54 irving pl. at 17th st.','490 e. paces ferry rd. ne',212/260-5454,404-233-7673
556,186,'yujean kang\'s gourmet chinese cuisine',zab-e-lee,'67 n. raymond ave.','4837 old national hwy.',818/585-0855,404-768-2705
958,19,'bally\'s big kitchen','falafel king','3645 las vegas blvd. s','1059 broxton ave.',702/739-4111,310-208-4444
996,6,'cafe marimba','bernard\'s','2317 chestnut st.','515 s. olive st.',415/776-1506,213-612-1580
889,279,'t salon','shun lee palace','143 mercer st. at prince st.','155 e. 55th st.',212/925-3700,212-371-8844
790,48,'gallagher\'s','ocean park cafe','228 w. 52nd st.','3117 ocean park blvd.',212/245-5336,310-452-5728
645,103,'rose pistola','patsy\'s pizza','532 columbus ave.','19 old fulton st.',415/399-0499,718-858-4300
641,90,'mifune japan center  kintetsu building','la grenouille','1737 post st.','3 e. 52nd st.',415/922-0337,212-752-1495
847,76,'new york kom tang soot bul house',darbar,'32 w. 32nd st.','44 w. 56th st.','212/ 947-8482',212-432-7227
1019,255,'jack\'s','gramercy tavern','615 sacramento st.','42 e. 20th st.',415/986-9854,212-477-0777
717,9,'american place','brighton coffee shop','2 park ave. at 32nd st.','9600 brighton way',212/684-2122,310-276-7732
705,214,'tra di noi','ti couz','3835 cross creek rd.','3108 16th st.',310/456-0169,415-252-7373
704,76,'tommy tang\'s',darbar,'7313 melrose ave.','44 w. 56th st.',213/937-5733,212-432-7227
844,122,montien,zarela,'1134 1st ave.   between 62nd and 63rd sts.','953 second ave.',212/421-4433,212-644-6740
933,12,'hsu\'s gourmet','cafe \'50s','192 peachtree center ave.  at international blvd.','838 lincoln blvd.',404/659-2788,310-399-1955
877,23,'sant ambroeus','indo cafe','1000 madison ave.  between 77th and 78th sts.','10428 1/2 national blvd.',212/570-2211,310-815-1290
563,89,'carnegie deli','la caridad','854 7th ave.  between 54th and 55th sts.','2199 broadway',212/757-2245,212-874-2780
609,289,bacchanalia,'palace court','3125 piedmont rd.  near peachtree rd.','3570 las vegas blvd. s.',404/365-0410,702-731-7110
590,200,'river cafe','la cumbre','1 water st. at the east river','515 valencia st.',718/522-5200,415-863-8205
768,285,'emily\'s','virgil\'s real bbq','1325 5th ave. at 111th st.','152 w. 44th st.',212/996-1212,212-921-9494
680,318,joss,'chez michel','9255 sunset blvd.','804 north point st.',310/276-1886,415-775-7036
838,68,'marquet patisserie','zankou chicken','15 e. 12th st.  between 5th ave. and university pl.','1415 e. colorado st.',212/229-9313,818-244-1937
838,208,'marquet patisserie','roosevelt tamale parlor','15 e. 12th st.  between 5th ave. and university pl.','2817 24th st.',212/229-9313,415-550-9213
1015,20,'hong kong villa','feast from the east','2332 clement st.','1949 westwood blvd.',415/752-8833,310-475-0400
732,200,'bryant park grill  roof restaurant and bp cafe','la cumbre','25 w. 40th st.  between 5th and 6th aves.','515 valencia st.',212/840-6500,415-863-8205
1023,289,'kyo-ya. sheraton palace hotel','palace court','2 new montgomery st.  at market st.','3570 las vegas blvd. s.',415/546-5000,702-731-7110
683,113,'louise\'s trattoria','szechuan kitchen','4500 los feliz blvd.','1460 first ave.',213/667-0777,212-249-4615
677,294,'jack sprat\'s grill',bacchanalia,'10668 w. pico blvd.','3125 piedmont rd.',310/837-6662,404-365-0410
546,208,'le chardonnay','roosevelt tamale parlor','8284 melrose ave.','2817 24th st.',213/655-8880,415-550-9213
915,276,'annie\'s thai castle','san domenico','3195 roswell rd.','240 central park s.',404/264-9546,212-265-5959
606,66,'steak house','uncle bill\'s pancake house','2880 las vegas blvd. s','1305 highland ave.',702/734-0410,310-545-5177
836,308,'manila garden','ritz-carlton cafe (buckhead)','325 e. 14th st.  between 1st and 2nd aves.','3434 peachtree rd. ne',212/777-6314,404-237-2700
813,170,'l\'auberge',majestic,'1191 1st ave.  between 64th and 65th sts.','1031 ponce de leon ave.',212/288-8791,404-875-0276
889,14,'t salon','cassell\'s','143 mercer st. at prince st.','3266 w. sixth st.',212/925-3700,213-480-8668
787,68,'frico bar','zankou chicken','402 w. 43rd st.  off 9th ave.','1415 e. colorado st.',212/564-7272,818-244-1937
1056,209,'ton kiang','sally\'s cafe & bakery','3148 geary blvd.','300 de haro st.',415/752-4440,415-626-6006
856,87,pamir,kiev,'1065 1st ave.  at 58th st.','117 second ave.',212/644-9258,212-674-4040
880,129,serendipity,'madame ching\'s','3 225 e. 60th st.','3300 las vegas blvd. s.',212/838-3531,702-894-7111
908,7,'water club','bistro 45','500 e. 30th st.','45 s. mentor ave.',212/683-3333,818-795-2478
804,95,indochine,'mitali east-west','430 lafayette st.  between 4th st. and astor pl.','296 bleecker st.',212/505-5111,212-989-1367
709,152,'20 mott','carey\'s','20 mott st.  between bowery and pell st.','1021 cobb pkwy. se',212/964-0380,770-422-8042
1041,274,'r&g lounge','rainbow room','631 b kearny st.','30 rockefeller plaza',415/982-7877,212-632-5000
1006,320,'gaylord\'s',fringale,'ghirardelli sq.','570 fourth st.',415/771-8822,415-543-0573
1000,252,chevys,felidia,'4th and howard sts.','243 e. 58th st.',415/543-8060,212-758-1479
548,3,matsuhisa,'baja fresh','129 n. la cienega blvd.','3345 kimber dr.',310/659-9639,805-498-4049
913,184,abbey,veggieland,'163 ponce de leon ave.','220 sandy springs circle',404/876-8532,404-231-3111
770,230,'ernie\'s','l\'orangerie','2150 broadway  between 75th and 76th sts.','903 n. la cienega blvd.',212/496-1588,310-652-9770
800,92,'hudson river club','lombardi\'s','4 world financial center','32 spring st.',212/786-1500,212-941-7994
924,295,'city grill','bone\'s restaurant','50 hurt plaza','3130 piedmont rd. ne',404/524-2489,404-237-2663
777,106,'fiorello\'s roman cafe','sam\'s noodle shop','1900 broadway  between 63rd and 64th sts.','411 third ave.',212/595-5330,212-213-2288
882,292,sfuzzi,'tillerman  the','58 w. 65th st.','2245 e. flamingo rd.',212/873-3700,702-731-4036
1021,258,'katia\'s','la caravelle','600 5th ave.','33 w. 55th st.',415/668-9292,212-586-4252
560,239,'cafe lalo','spago (los angeles)','201 w. 83rd st.','8795 sunset blvd.',212/496-6031,310-652-4025
1029,256,maykadeh,'island spice','470 green st.','402 w. 44th st.',415/362-8286,212-765-1737
954,118,'sundown cafe','westside cottage','2165 cheshire bridge rd.','689 ninth ave.',404/321-1118,212-245-0800
892,171,'teresa\'s','morton\'s of chicago (atlanta)','103 1st ave.  between 6th and 7th sts.','303 peachtree st. ne',212/228-0604,404-577-4366
642,243,'plumpjack cafe',aquavit,'3201 fillmore st.','13 w. 54th st.',415/563-4755,212-307-7311
760,218,'cupcake cafe','wa-ha-ka oaxaca mexican grill','522 9th ave. at 39th st.','2141 polk st.',212/465-1530,415-775-1055
1039,103,pastis,'patsy\'s pizza','1015 battery st.','19 old fulton st.',415/391-2555,718-858-4300
888,20,'sweet\'n\'tart cafe','feast from the east','76 mott st. at canal st.','1949 westwood blvd.',212/334-8088,310-475-0400
758,261,'columbus bakery','les celebrites','53rd sts.','155 w. 58th st.',212/421-0334,212-484-5113
994,65,'buca giovanni','tommy\'s','800 greenwich st.','2575 beverly blvd.',415/776-7766,213-389-9060
1020,59,'kabuto sushi','russell\'s burgers','5116 geary blvd.','1198 pch',415/752-5652,310-596-9556
782,298,flowers,'ciboulette restaurant','21 west 17th st.  between 5th and 6th aves.','1529 piedmont ave.',212/691-8888,404-874-7600
1011,172,'harry denton\'s','my thai','161 steuart st.','1248 clairmont rd.',415/882-1333,404-636-4280
1062,84,'yank sing','joe\'s shanghai','427 battery st.','9 pell st.',415/541-4949,718-539-3838
1045,46,'scala\'s bistro','mo better meatty meat','432 powell st.','7261 melrose ave.',415/395-8555,213-935-5280
884,81,'sofia fabulous pizza','gray\'s papaya','1022 madison ave.  near 79th st.','2090 broadway',212/734-2676,212-799-0243
1015,130,'hong kong villa','mayflower cuisinier','2332 clement st.','4750 w. sahara ave.',415/752-8833,702-870-8432
676,149,'il fornaio cucina italiana','brookhaven cafe','301 n. beverly dr.','4274 peachtree rd.',310/550-8330,404-231-5907
782,28,flowers,'john o\'groats','21 west 17th st.  between 5th and 6th aves.','10516 w. pico blvd.',212/691-8888,310-204-0692
990,114,betelnut,'teresa\'s','2030 union st.','80 montague st.',415/929-8855,718-520-2910
872,191,'ruth\'s chris','cha cha cha\'s','148 w. 51st st.','1805 haight st.',212/245-9600,415-386-5758
875,25,'sammy\'s roumanian steak house',jiraffe,'157 chrystie st. at delancey st.','502 santa monica blvd',212/673-0330,310-917-6671
788,266,'fujiyama mama','mesa grill','467 columbus ave.  between 82nd and 83rd sts.','102 fifth ave.',212/769-1144,212-807-7400
573,66,'la caravelle','uncle bill\'s pancake house','33 w. 55th st.','1305 highland ave.',212/586-4252,310-545-5177
666,245,drago,'cafe lalo','2628 wilshire blvd.','201 w. 83rd st.',310/828-1585,212-496-6031
773,151,felix,canoe,'340 w. broadway at grand st.','4199 paces ferry rd.',212/431-0021,770-432-2663
1062,274,'yank sing','rainbow room','427 battery st.','30 rockefeller plaza',415/541-4949,212-632-5000
773,307,felix,'pano\'s & paul\'s','340 w. broadway at grand st.','1232 w. paces ferry rd.',212/431-0021,404-261-3662
667,132,'drai\'s','monte carlo','730 n. la cienega blvd.','3145 las vegas blvd. s.',310/358-8585,702-733-4524
1042,8,rubicon,'brent\'s deli','558 sacramento st.','19565 parthenia ave.',415/434-4100,818-886-5679
739,42,'cafe pierre','martha\'s','2 e. 61st st.','22nd street grill 25 22nd',212/940-8185,310-376-7786
768,260,'emily\'s','le bernardin','1325 5th ave. at 111th st.','155 w. 51st st.',212/996-1212,212-489-1515
781,192,'fleur de jour','doidge\'s','348 e. 62nd st.','2217 union st.',212/355-2020,415-921-2149
724,86,'ben benson\'s','kelley & ping','123 w. 52nd st.','127 greene st.',212/581-8888,212-228-1212
1051,194,'straits cafe','dusit thai','3300 geary blvd.','3221 mission st.',415/668-1783,415-826-4639
809,276,'jimmy sung\'s','san domenico','219 e. 44th st.  between 2nd and 3rd aves.','240 central park s.',212/682-5678,212-265-5959
901,267,'turkish kitchen','mi cocina','386 3rd ave.  between 27th and 28th sts.','57 jane st.',212/679-1810,212-627-8273
853,104,otabe,'peter luger steak house','68 e. 56th st.','178 broadway',212/223-7575,718-387-7400
910,282,xunta,'tavern on the green','174 1st ave.  between 10th and 11th sts.','central park west',212/614-0620,212-873-3200
842,169,'milan cafe and coffee bar','lettuce souprise you (at)','120 w. 23rd st.','3525 mall blvd.',212/807-1801,770-418-9969
830,147,lola,'bobby & june\'s kountry kitchen','30 west 22nd st.  between 5th and 6th ave.','375 14th st.',212/675-6700,404-876-3872
685,273,'morton\'s',pisces,'8764 melrose ave.','95 ave. a',310/276-5205,212-260-6660
876,112,'san pietro','szechuan hunan cottage','18 e. 54th st.','1588 york ave.',212/753-9015,212-535-5223
838,72,'marquet patisserie','cafe con leche','15 e. 12th st.  between 5th ave. and university pl.','424 amsterdam ave.',212/229-9313,212-595-7000
618,90,'indigo coastal grill','la grenouille','1397 n. highland ave.','3 e. 52nd st.',404/876-0676,212-752-1495
660,307,cava,'pano\'s & paul\'s','3rd st.','1232 w. paces ferry rd.',213/658-8898,404-261-3662
549,66,'the palm','uncle bill\'s pancake house','9001 santa monica blvd.','1305 highland ave.',310/550-8811,310-545-5177
833,47,'main street','mulberry st.','446 columbus ave.  between 81st and 82nd sts.','17040 ventura blvd.',212/873-5025,818-906-8881
920,162,bistango,'havana sandwich shop','1100 peachtree st.','2905 buford hwy.',404/724-0901,404-636-4094
890,154,'tang pavillion',chops,'65 w. 55th st.','70 w. paces ferry rd.',212/956-6888,404-262-2675
594,50,'shun lee west','original pantry bakery','43 w. 65th st.','875 s. figueroa st. downtown',212/371-8844,213-627-6879
697,44,'restaurant horikawa','michael\'s (los angeles)','111 s. san pedro st.','1147 third st.',213/680-9355,310-451-0843
596,227,'smith & wollensky',granita,'201 e. 49th st.','23725 w. malibu rd.',212/753-1530,310-456-0488
904,331,verbena,'ritz-carlton cafe (atlanta)','54 irving pl. at 17th st.','181 peachtree st.',212/260-5454,404-659-0400
728,227,boonthai,granita,'1393a 2nd ave.  between 72nd and 73rd sts.','23725 w. malibu rd.',212/249-8484,310-456-0488
803,227,'inca grill',granita,'492 broome st.  near w. broadway','23725 w. malibu rd.',212/966-3371,310-456-0488
1035,8,oritalia,'brent\'s deli','1915 fillmore st.','19565 parthenia ave.',415/346-1333,818-886-5679
799,226,home,'fenix at the argyle','20 cornelia st.  between bleecker and w. 4th st.','8358 sunset blvd.',212/243-9579,213-848-6677
854,115,pacifica,'thai house cafe','138 lafayette st.  between canal and howard sts.','151 hudson st.',212/941-4168,212-334-1085
679,297,'jimmy\'s','buckhead diner','201 moreno dr.','3073 piedmont rd.',310/552-2394,404-262-3336
1008,67,greens,'water grill','bldg. a fort mason','544 s. grand ave.',415/771-6222,213-891-0900
929,286,'fat matt\'s rib shack','chin\'s','1811 piedmont ave.  near cheshire bridge rd.','3200 las vegas blvd. s.',404/607-1622,702-733-8899
848,36,'new york noodletown','la salsa (la)','28 1/2 bowery at bayard st.','22800 pch',212/349-0923,310-456-6299
567,78,felidia,'edison cafe','243 e. 58th st.','228 w. 47th st.',212/758-1479,212-840-5000
995,5,'cafe adriano','benita\'s frites','3347 fillmore st.','1433 third st. promenade',415/474-4180,310-458-2889
1064,158,'yoyo tsumami bistro','flying biscuit  the','1611 post st.','1655 mclendon ave.',415/922-7788,404-687-8888
675,44,'harry\'s bar & american grill','michael\'s (los angeles)','2020 ave. of the stars','1147 third st.',310/277-2333,310-451-0843
860,262,'pen & pencil','lespinasse (new york city)','205 e. 45th st.','2 e. 55th st.',212/682-8660,212-339-6719
1062,315,'yank sing',boulevard,'427 battery st.','1 mission st.',415/541-4949,415-543-6084
763,210,diva,'san francisco bbq','341 w. broadway  near grand st.','1328 18th st.',212/941-9024,415-431-8956
555,58,valentino,'ruby\'s (la)','3115 pico blvd.','45 s. fair oaks ave.',310/829-4313,818-796-7829
815,42,'l\'udo','martha\'s','432 lafayette st.  near astor pl.','22nd street grill 25 22nd',212/388-0978,310-376-7786
870,207,'roettelle a. g','phnom penh cambodian restaurant','126 e. 7th st.  between 1st ave. and ave. a','631 larkin st.',212/674-4140,415-775-5979
616,262,'hedgerose heights inn','lespinasse (new york city)','490 e. paces ferry rd.','2 e. 55th st.',404/233-7673,212-339-6719
627,152,'veni vidi vici','carey\'s','41 14th st.','1021 cobb pkwy. se',404/875-8424,770-422-8042
780,137,'fishin eddie','spago (las vegas)','73 w. 71st st.','3500 las vegas blvd. s.',212/874-3474,702-369-6300
585,150,'park avenue cafe','cafe sunflower','100 e. 63rd st.','5975 roswell rd.',212/644-1900,404-256-1675
869,245,republic,'cafe lalo','37a union sq. w  between 16th and 17th sts.','201 w. 83rd st.',212/627-7172,212-496-6031
929,33,'fat matt\'s rib shack','kokomo cafe','1811 piedmont ave.  near cheshire bridge rd.','6333 w. third st.',404/607-1622,213-933-0773
830,213,lola,'thep phanom','30 west 22nd st.  between 5th and 6th ave.','400 waller st.',212/675-6700,415-431-2526
622,326,'pano\'s and paul\'s',mifune,'1232 w. paces ferry rd.','1737 post st.',404/261-3662,415-922-0337
973,234,feast,'palm  the (los angeles)','2411 w. sahara ave.','9001 santa monica blvd.',702/367-2411,310-550-8811
1046,319,'south park cafe','fleur de lys','108 south park','777 sutter st.',415/495-7275,415-673-7779
751,181,'casa la femme','thelma\'s kitchen','150 wooster st.  between houston and prince sts.','764 marietta st. nw',212/505-0005,404-688-5855
571,77,'island spice','ej\'s luncheonette','402 w. 44th st.','432 sixth ave.',212/765-1737,212-473-5555
651,176,beaurivage,'palm  the (atlanta)','26025 pacific coast hwy.','3391 peachtree rd. ne',310/456-5733,404-814-1955
545,70,'l\'orangerie',arcadia,'903 n. la cienega blvd.','21 e. 62nd st.',310/652-9770,212-223-2900
850,107,odeon,'sarabeth\'s','145 w. broadway at thomas st.','1295 madison ave.',212/233-0507,212-410-7335
803,272,'inca grill',picholine,'492 broome st.  near w. broadway','35 w. 64th st.',212/966-3371,212-724-8585
669,69,eclipse,'afghan kebab house','8800 melrose ave.','764 ninth ave.',310/724-5959,212-307-1612
794,271,'golden unicorn',petrossian,'18 e. broadway at catherine st.','182 w. 58th st.','212/ 941-0911',212-245-2214
659,151,'canter\'s',canoe,'419 n. fairfax ave.','4199 paces ferry rd.',213/651-2030.,770-432-2663
949,265,'sa tsu ki',march,'3043 buford hwy.','405 e. 58th st.',404/325-5285,212-754-6272
886,172,'stage deli','my thai','834 7th ave.  between 53rd and 54th sts.','1248 clairmont rd.',212/245-7850,404-636-4280
655,105,'ca\'brea','rose of india','346 s. la brea ave.','308 e. sixth st.',213/938-2863,212-533-5011
581,199,'mesa grill','kelly\'s on trinity','102 5th ave.  between 15th and 16th sts.','333 bush st.',212/807-7400,415-362-4454
883,46,shaan,'mo better meatty meat','57 w. 48th st.','7261 melrose ave.','212/ 977-8400',213-935-5280
784,113,'fraunces tavern','szechuan kitchen','54 pearl st. at broad st.','1460 first ave.',212/269-0144,212-249-4615
667,139,'drai\'s','stefano\'s','730 n. la cienega blvd.','129 fremont st.',310/358-8585,702-385-7111
974,281,'golden nugget hotel','smith & wollensky','129 e. fremont st.','797 third ave.',702/385-7111,212-753-1530
552,41,'pinot bistro','mani\'s bakery & espresso bar','12969 ventura blvd.','519 s. fairfax ave.',818/990-0500,213-938-8800
534,55,'arnie morton\'s of chicago',r-23,'435 s. la cienega blv.','923 e. third st.',310/246-1501,213-687-7178
940,151,'mambo restaurante cubano',canoe,'1402 n. highland ave.','4199 paces ferry rd.',404/874-2626,770-432-2663
860,105,'pen & pencil','rose of india','205 e. 45th st.','308 e. sixth st.',212/682-8660,212-533-5011
723,269,barbetta,oceana,'321 w. 46th st.','55 e. 54th st.',212/246-9171,212-759-5941
806,288,ipanema,'le montrachet bistro','13 w. 46th st.','3000 paradise rd.',212/730-5848,702-732-5651
615,297,'georgia grille','buckhead diner','2290 peachtree rd.  peachtree square shopping center','3073 piedmont rd.',404/352-3517,404-262-3336
619,279,'la grotta','shun lee palace','2637 peachtree rd.  peachtree house condominium','155 e. 55th st.',404/231-1368,212-371-8844
557,233,'21 club',matsuhisa,'21 w. 52nd st.','129 n. la cienega blvd.',212/582-7200,310-659-9639
967,1,'cafe roma','apple pan  the','3570 las vegas blvd. s','10801 w. pico blvd.',702/731-7547,310-475-3585
972,8,'empress court','brent\'s deli','3570 las vegas blvd. s','19565 parthenia ave.',702/731-7888,818-886-5679
1040,253,'perry\'s','four seasons','1944 union st.','99 e. 52nd st.',415/922-9022,212-754-9494
534,34,'arnie morton\'s of chicago','koo koo roo','435 s. la cienega blv.','8393 w. beverly blvd.',310/246-1501,213-655-9045
987,168,2223,'la fonda latina','2223 market st.','4427 roswell rd.',415/431-0692,404-303-8201
932,10,'horseradish grill','bristol farms market cafe','4320 powers ferry rd.','1570 rosecrans ave. s.',404/255-7277,310-643-5229
819,40,layla,'main course  the','211 w. broadway at franklin st.','10509 w. pico blvd.',212/431-0700,310-475-7564
729,1,bouterin,'apple pan  the','420 e. 59th st.  off 1st ave.','10801 w. pico blvd.',212/758-0323,310-475-3585
684,216,'mon kee seafood restaurant','tu lan','679 n. spring st.','8 sixth st.',213/628-6717,415-626-0927
719,114,arizona,'teresa\'s','206 206 e. 60th st.','80 montague st.',212/838-0440,718-520-2910
869,77,republic,'ej\'s luncheonette','37a union sq. w  between 16th and 17th sts.','432 sixth ave.',212/627-7172,212-473-5555
951,43,'south city kitchen','maxwell\'s cafe','1144 crescent ave.','13329 washington blvd.',404/873-7358,310-306-7829
878,296,'sarabeth\'s kitchen','brasserie le coze','423 amsterdam ave.  between 80th and 81st sts.','3393 peachtree rd.',212/496-6280,404-266-1440
876,173,'san pietro',nava,'18 e. 54th st.','3060 peachtree rd.',212/753-9015,404-240-1984
861,230,'penang soho','l\'orangerie','109 spring st.  between greene and mercer sts.','903 n. la cienega blvd.',212/274-8883,310-652-9770
884,212,'sofia fabulous pizza','swan oyster depot','1022 madison ave.  near 79th st.','1517 polk st.',212/734-2676,415-673-1101
751,235,'casa la femme',patina,'150 wooster st.  between houston and prince sts.','5955 melrose ave.',212/505-0005,213-467-1108
843,217,'monkey bar','vicolo pizzeria','60 e. 54th st.','201 ivy st.',212/838-2600,415-863-2382
930,93,'french quarter food shop','marnie\'s noodle shop','923 peachtree st.  at 8th st.','466 hudson st.',404/875-2489,212-741-3214
905,10,'victor\'s cafe','bristol farms market cafe','52 236 w. 52nd st.','1570 rosecrans ave. s.',212/586-7714,310-643-5229
833,146,'main street','bistro  the','446 columbus ave.  between 81st and 82nd sts.','56 e. andrews dr. nw',212/873-5025,404-231-5733
648,230,remi,'l\'orangerie','145 w. 53rd st.','903 n. la cienega blvd.',212/581-4242,310-652-9770
873,43,s.p.q.r,'maxwell\'s cafe','133 mulberry st.  between hester and grand sts.','13329 washington blvd.',212/925-3120,310-306-7829
855,131,palio,'michael\'s (las vegas)','151 w. 51st. st.','3595 las vegas blvd. s.',212/245-4850,702-737-7111
973,248,feast,'carnegie deli','2411 w. sahara ave.','854 seventh ave.',702/367-2411,212-757-2245
799,328,home,postrio,'20 cornelia st.  between bleecker and w. 4th st.','545 post st.',212/243-9579,415-776-7825
587,114,picholine,'teresa\'s','35 w. 64th st.','80 montague st.',212/724-8585,718-520-2910
989,321,'bardelli\'s','hawthorne lane','243 o\'farrell st.','22 hawthorne st.',415/982-0243,415-777-9779
657,188,'cafe pinot','cafe flore','700 w. fifth st.','2298 market st.',213/239-6500,415-621-8579
1003,79,faz,'elias corner','161 sutter st.','24-02 31st st.',415/362-0404,718-932-1510
840,105,'matthew\'s','rose of india','1030 3rd ave. at 61st st.','308 e. sixth st.',212/838-4343,212-533-5011
775,165,'fifty seven fifty seven','java jive','57 e. 57th st.','790 ponce de leon ave.',212/758-5757,404-876-6161
884,116,'sofia fabulous pizza','thailand restaurant','1022 madison ave.  near 79th st.','106 bayard st.',212/734-2676,212-349-3132
880,132,serendipity,'monte carlo','3 225 e. 60th st.','3145 las vegas blvd. s.',212/838-3531,702-733-4524
620,135,'mary mac\'s tea room','nicky blair\'s','224 ponce de leon ave.','3925 paradise rd.',404/876-1800,702-792-9900
994,258,'buca giovanni','la caravelle','800 greenwich st.','33 w. 55th st.',415/776-7766,212-586-4252
825,113,'le marais','szechuan kitchen','150 w. 46th st.','1460 first ave.',212/869-0900,212-249-4615
634,191,'fleur de lys','cha cha cha\'s','777 sutter st.','1805 haight st.',415/673-7779,415-386-5758
967,35,'cafe roma','la cachette','3570 las vegas blvd. s','10506 little santa monica blvd.',702/731-7547,310-470-4992
789,152,'gabriela\'s','carey\'s','685 amsterdam ave. at 93rd st.','1021 cobb pkwy. se',212/961-0574,770-422-8042
714,235,alamo,patina,'304 e. 48th st.','5955 melrose ave.','212/ 759-0590',213-467-1108
975,219,'golden steer','arnie morton\'s of chicago','308 w. sahara ave.','435 s. la cienega blvd.',702/384-4470,310-246-1501
721,195,'au mandarin',ebisu,'200-250 vesey st. world financial center','1283 ninth ave.',212/385-0313,415-566-1770
750,221,'captain\'s table','bel-air hotel','860 2nd ave. at 46th st.','701 stone canyon rd.',212/697-9538,310-472-1211
801,85,'i trulli','john\'s pizzeria','122 e. 27th st.  between lexington and park aves.','48 w. 65th st.',212/481-7372,212-721-7001
683,115,'louise\'s trattoria','thai house cafe','4500 los feliz blvd.','151 hudson st.',213/667-0777,212-334-1085
829,211,'lincoln tavern','slanted door','51 w. 64th st.','584 valencia st.',212/721-8271,415-861-8032
903,34,'veniero\'s pasticceria','koo koo roo','342 e. 11th st.  near 1st ave.','8393 w. beverly blvd.',212/674-7264,213-655-9045
565,150,daniel,'cafe sunflower','20 e. 76th st.','5975 roswell rd.',212/288-0033,404-256-1675
933,124,'hsu\'s gourmet','buccaneer bay club','192 peachtree center ave.  at international blvd.','3300 las vegas blvd. s.',404/659-2788,702-894-7350
987,256,2223,'island spice','2223 market st.','402 w. 44th st.',415/431-0692,212-765-1737
545,318,'l\'orangerie','chez michel','903 n. la cienega blvd.','804 north point st.',310/652-9770,415-775-7036
921,133,'cafe renaissance',moongate,'7050 jimmy carter blvd.  norcross','3400 las vegas blvd. s.',770/441--0291,702-791-7352
793,256,global,'island spice','33 93 2nd ave.  between 5th and 6th sts.','402 w. 44th st.',212/477-8427,212-765-1737
904,74,verbena,'cucina della fontana','54 irving pl. at 17th st.','368 bleecker st.',212/260-5454,212-242-0636
746,10,'caffe roma','bristol farms market cafe','385 broome st. at mulberry','1570 rosecrans ave. s.',212/226-8413,310-643-5229
536,31,'hotel bel-air','johnny rockets (la)','701 stone canyon rd.','7507 melrose ave.',310/472-1211,213-651-3361
882,131,sfuzzi,'michael\'s (las vegas)','58 w. 65th st.','3595 las vegas blvd. s.',212/873-3700,702-737-7111
835,17,'manhattan cafe','don antonio\'s','1161 1st ave.  between 63rd and 64th sts.','1136 westwood blvd.',212/888-6556,310-209-1422
976,64,'lillie langtry\'s',taiko,'129 e. fremont st.','11677 san vicente blvd.',702/385-7111,310-207-7782
1043,205,rumpus,'mel\'s drive-in','1 tillman pl.','3355 geary st.',415/421-2300,415-387-2244
986,222,'yolie\'s','cafe bizou','3900 paradise rd.','14016 ventura blvd.',702/794-0700,818-788-3536
925,250,'coco loco',daniel,'40  buckhead crossing mall on the sidney marcus blvd.','20 e. 76th st.',404/364-0212,212-288-0033
578,169,lutece,'lettuce souprise you (at)','249 e. 50th st.','3525 mall blvd.',212/752-2225,770-418-9969
765,207,docks,'phnom penh cambodian restaurant','633 3rd ave. at 40th st.','631 larkin st.','212/ 986-8080',415-775-5979
777,169,'fiorello\'s roman cafe','lettuce souprise you (at)','1900 broadway  between 63rd and 64th sts.','3525 mall blvd.',212/595-5330,770-418-9969
850,269,odeon,oceana,'145 w. broadway at thomas st.','55 e. 54th st.',212/233-0507,212-759-5941
734,68,ct,'zankou chicken','111 e. 22nd st.  between park ave. s and lexington ave.','1415 e. colorado st.',212/995-8500,818-244-1937
906,10,'vince & eddie\'s','bristol farms market cafe','70 w. 68th st.','1570 rosecrans ave. s.',212/721-0068,310-643-5229
790,305,'gallagher\'s','mary mac\'s tea room','228 w. 52nd st.','224 ponce de leon ave.',212/245-5336,404-876-1800
783,50,follonico,'original pantry bakery','6 w. 24th st.','875 s. figueroa st. downtown',212/691-6359,213-627-6879
1012,133,'hayes street grill',moongate,'320 hayes st.','3400 las vegas blvd. s.',415/863-5545,702-791-7352
810,45,'joe allen',mishima,'326 w. 46th st.','8474 w. third st.',212/581-6464,213-782-0181
611,71,'brasserie le coze','benny\'s burritos','3393 peachtree rd.  lenox square mall  near neiman marcus','93 ave. a',404/266-1440,212-254-2054
1052,30,suppenkuche,'johnny reb\'s southern smokehouse','601 hayes st.','4663 long beach blvd.',415/252-9289,310-423-7327
795,75,'grand ticino','cucina di pesce','228 thompson st.  between w. 3rd and bleecker sts.','87 e. fourth st.',212/777-5922,212-260-6800
879,172,'sea grill','my thai','19 w. 49th st.','1248 clairmont rd.',212/332-7610,404-636-4280
961,193,'bertolini\'s','dottie\'s true blue cafe','3570 las vegas blvd. s','522 jones st.',702/735-4663,415-885-2767
896,42,'trattoria dell\'arte','martha\'s','900 7th ave.  between 56th and 57th sts.','22nd street grill 25 22nd',212/245-9800,310-376-7786
1003,243,faz,aquavit,'161 sutter st.','13 w. 54th st.',415/362-0404,212-307-7311
759,181,'corrado cafe','thelma\'s kitchen','1013 3rd ave.  between 60th and 61st sts.','764 marietta st. nw',212/753-5100,404-688-5855
843,251,'monkey bar',dawat,'60 e. 54th st.','210 e. 58th st.',212/838-2600,212-355-7555
748,298,'caffe bondi ristorante','ciboulette restaurant','7 w. 20th st.','1529 piedmont ave.',212/691-8136,404-874-7600
990,254,betelnut,'gotham bar & grill','2030 union st.','12 e. 12th st.',415/929-8855,212-620-4020
610,186,'bone\'s',zab-e-lee,'3130 piedmont road','4837 old national hwy.',404/237-2663,404-768-2705
905,306,'victor\'s cafe','nikolai\'s roof','52 236 w. 52nd st.','255 courtland st.',212/586-7714,404-221-6362
992,89,bix,'la caridad','56 gold st.','2199 broadway',415/433-6300,212-874-2780
831,244,'lucky strike',aureole,'59 grand st.  between wooster st. and w. broadway','34 e. 61st st.',212/941-0479,212-319-1660
954,13,'sundown cafe','cafe blanc','2165 cheshire bridge rd.','9777 little santa monica blvd.',404/321-1118,310-888-0108
1044,175,sanppo,'original pancake house (at)','1702 post st.','4330 peachtree rd.',415/346-3486,404-237-4116
648,28,remi,'john o\'groats','145 w. 53rd st.','10516 w. pico blvd.',212/581-4242,310-204-0692
534,132,'arnie morton\'s of chicago','monte carlo','435 s. la cienega blv.','3145 las vegas blvd. s.',310/246-1501,702-733-4524
580,64,march,taiko,'405 e. 58th st.','11677 san vicente blvd.',212/754-6272,310-207-7782
741,185,'cafe fes','white house restaurant','246 w. 4th st. at charles st.','3172 peachtree rd. ne',212/924-7653,404-237-7601
681,200,'le colonial','la cumbre','8783 beverly blvd.','515 valencia st.',310/289-0660,415-863-8205
872,329,'ruth\'s chris','ritz-carlton dining room (san francisco)','148 w. 51st st.','600 stockton st.',212/245-9600,415-296-7465
983,110,'the bacchanal',sushisay,'3570 las vegas blvd. s','38 e. 51st st.',702/731-7525,212-755-1780
1049,216,'stars cafe','tu lan','500 van ness ave.','8 sixth st.',415/861-4344,415-626-0927
580,301,march,'hedgerose heights inn  the','405 e. 58th st.','490 e. paces ferry rd. ne',212/754-6272,404-233-7673
743,73,'caffe dell\'artista','corner bistro','46 greenwich ave.','331 w. fourth st.',212/645-4431,212-242-9502
850,311,odeon,toulouse,'145 w. broadway at thomas st.','293-b peachtree rd.',212/233-0507,404-351-9533
846,21,'motown cafe','gumbo pot  the','104 w. 57th st.  near 6th ave.','6333 w. third st.',212/581-8030,213-933-0358
738,234,'cafe luxembourg','palm  the (los angeles)','200 w. 70th st.','9001 santa monica blvd.',212/873-7411,310-550-8811
959,225,'bamboo garden',citrus,'4850 flamingo rd.','6703 melrose ave.',702/871-3262,213-857-0034
581,8,'mesa grill','brent\'s deli','102 5th ave.  between 15th and 16th sts.','19565 parthenia ave.',212/807-7400,818-886-5679
548,232,matsuhisa,'locanda veneta','129 n. la cienega blvd.','8638 w. third st.',310/659-9639,310-274-1893
954,315,'sundown cafe',boulevard,'2165 cheshire bridge rd.','1 mission st.',404/321-1118,415-543-6084
752,110,'cendrillon asian grill & marimba bar',sushisay,'45 mercer st.  between broome and grand sts.','38 e. 51st st.',212/343-9012,212-755-1780
825,225,'le marais',citrus,'150 w. 46th st.','6703 melrose ave.',212/869-0900,213-857-0034
1055,99,thepin,'one if by land  tibs','298 gough st.','17 barrow st.',415/863-9335,212-228-0822
862,129,persepolis,'madame ching\'s','1423 2nd ave.  between 74th and 75th sts.','3300 las vegas blvd. s.',212/535-1100,702-894-7111
1002,250,'des alpes',daniel,'732 broadway','20 e. 76th st.',415/788-9900,212-288-0033
861,75,'penang soho','cucina di pesce','109 spring st.  between greene and mercer sts.','87 e. fourth st.',212/274-8883,212-260-6800
805,175,'internet cafe','original pancake house (at)','82 e. 3rd st.  between 1st and 2nd aves.','4330 peachtree rd.','212/ 614-0747',404-237-4116
765,17,docks,'don antonio\'s','633 3rd ave. at 40th st.','1136 westwood blvd.','212/ 986-8080',310-209-1422
972,279,'empress court','shun lee palace','3570 las vegas blvd. s','155 e. 55th st.',702/731-7888,212-371-8844
882,172,sfuzzi,'my thai','58 w. 65th st.','1248 clairmont rd.',212/873-3700,404-636-4280
1027,78,'macarthur park','edison cafe','607 front st.','228 w. 47th st.',415/398-5700,212-840-5000
675,259,'harry\'s bar & american grill','la cote basque','2020 ave. of the stars','60 w. 55th st.',310/277-2333,212-688-6525
807,173,'jean lafitte',nava,'68 w. 58th st.','3060 peachtree rd.',212/751-2323,404-240-1984
722,276,'bar anise','san domenico','1022 3rd ave.  between 60th and 61st sts.','240 central park s.',212/355-1112,212-265-5959
1029,105,maykadeh,'rose of india','470 green st.','308 e. sixth st.',415/362-8286,212-533-5011
887,150,stingray,'cafe sunflower','428 amsterdam ave.  between 80th and 81st sts.','5975 roswell rd.',212/501-7515,404-256-1675
800,43,'hudson river club','maxwell\'s cafe','4 world financial center','13329 washington blvd.',212/786-1500,310-306-7829
585,91,'park avenue cafe','lemongrass grill','100 e. 63rd st.','61a seventh ave.',212/644-1900,718-399-7100
921,17,'cafe renaissance','don antonio\'s','7050 jimmy carter blvd.  norcross','1136 westwood blvd.',770/441--0291,310-209-1422
1001,113,'cypress club','szechuan kitchen','500 jackson st.','1460 first ave.',415/296-8555,212-249-4615
681,99,'le colonial','one if by land  tibs','8783 beverly blvd.','17 barrow st.',310/289-0660,212-228-0822
646,274,bolo,'rainbow room','23 e. 22nd st.','30 rockefeller plaza',212/228-2200,212-632-5000
582,192,'mi cocina','doidge\'s','57 jane st.  off hudson st.','2217 union st.',212/627-8273,415-921-2149
534,23,'arnie morton\'s of chicago','indo cafe','435 s. la cienega blv.','10428 1/2 national blvd.',310/246-1501,310-815-1290
764,62,'dix et sept','sushi nozawa','181 w. 10th st.','11288 ventura blvd.',212/645-8023,818-508-7017
589,147,'rainbow room','bobby & june\'s kountry kitchen','30 rockefeller plaza','375 14th st.',212/632-5000,404-876-3872
784,189,'fraunces tavern','caffe greco','54 pearl st. at broad st.','423 columbus ave.',212/269-0144,415-397-6261
786,48,'french roast cafe','ocean park cafe','2340 broadway at 85th st.','3117 ocean park blvd.',212/799-1533,310-452-5728
801,297,'i trulli','buckhead diner','122 e. 27th st.  between lexington and park aves.','3073 piedmont rd.',212/481-7372,404-262-3336
941,75,'mckinnon\'s louisiane','cucina di pesce','3209 maple dr.','87 e. fourth st.',404/237-1313,212-260-6800
534,143,'arnie morton\'s of chicago','alon\'s at the terrace','435 s. la cienega blv.','659 peachtree st.',310/246-1501,404-724-0444
888,243,'sweet\'n\'tart cafe',aquavit,'76 mott st. at canal st.','13 w. 54th st.',212/334-8088,212-307-7311
595,45,'sign of the dove',mishima,'1110 3rd ave. at 65th st.','8474 w. third st.',212/861-8080,213-782-0181
750,81,'captain\'s table','gray\'s papaya','860 2nd ave. at 46th st.','2090 broadway',212/697-9538,212-799-0243
1029,62,maykadeh,'sushi nozawa','470 green st.','11288 ventura blvd.',415/362-8286,818-508-7017
1000,160,chevys,'greenwood\'s','4th and howard sts.','1087 green st.',415/543-8060,770-992-5383
777,30,'fiorello\'s roman cafe','johnny reb\'s southern smokehouse','1900 broadway  between 63rd and 64th sts.','4663 long beach blvd.',212/595-5330,310-423-7327
610,64,'bone\'s',taiko,'3130 piedmont road','11677 san vicente blvd.',404/237-2663,310-207-7782
937,95,'little szechuan','mitali east-west','c buford hwy.  northwoods plaza  doraville','296 bleecker st.',770/451-0192,212-989-1367
832,180,'mad fish',soto,'2182 broadway  between 77th and 78th sts.','3330 piedmont rd.',212/787-0202,404-233-2005
735,143,'cafe bianco','alon\'s at the terrace','1486 2nd ave.  between 77th and 78th sts.','659 peachtree st.',212/988-2655,404-724-0444
1000,314,chevys,aqua,'4th and howard sts.','252 california st.',415/543-8060,415-956-9662
955,193,'taste of new orleans','dottie\'s true blue cafe','889 w. peachtree st.','522 jones st.',404/874-5535,415-885-2767
729,178,bouterin,riviera,'420 e. 59th st.  off 1st ave.','519 e. paces ferry rd.',212/758-0323,404-262-7112
1002,225,'des alpes',citrus,'732 broadway','6703 melrose ave.',415/788-9900,213-857-0034
938,290,'lowcountry barbecue','second street grill','6301 roswell rd.  sandy springs plaza  sandy springs','200 e. fremont st.',404/255-5160,702-385-6277
740,143,'cafe centro','alon\'s at the terrace','200 park ave.  between 45th st. and vanderbilt ave.','659 peachtree st.',212/818-1222,404-724-0444
761,52,'da nico','pho hoa','164 mulberry st.  between grand and broome sts.','642 broadway',212/343-1212,213-626-5530
702,312,'tavola calda','veni vidi vici','7371 melrose ave.','41 14th st.',213/658-6340,404-875-8424
626,213,toulouse,'thep phanom','b peachtree rd.','400 waller st.',404/351-9533,415-431-2526
588,123,pisces,'andre\'s french restaurant','95 ave. a at 6th st.','401 s. 6th st.',212/260-6660,702-385-5016
673,204,'gladstone\'s','marnee thai','4 fish 17300 pacific coast hwy. at sunset blvd.','2225 irving st.',310/454-3474,415-665-9500
809,111,'jimmy sung\'s','sylvia\'s','219 e. 44th st.  between 2nd and 3rd aves.','328 lenox ave.',212/682-5678,212-996-0660
553,114,'rex il ristorante','teresa\'s','617 s. olive st.','80 montague st.',213/627-2300,718-520-2910
866,143,'post house','alon\'s at the terrace','28 e. 63rd st.','659 peachtree st.',212/935-2888,404-724-0444
552,81,'pinot bistro','gray\'s papaya','12969 ventura blvd.','2090 broadway',818/990-0500,212-799-0243
973,233,feast,matsuhisa,'2411 w. sahara ave.','129 n. la cienega blvd.',702/367-2411,310-659-9639
687,155,nicola,chopstix,'601 s. figueroa st.','4279 roswell rd.',213/485-0927,404-255-4868
1013,152,helmand,'carey\'s','430 broadway','1021 cobb pkwy. se',415/362-0641,770-422-8042
808,146,'jewel of india','bistro  the','15 w. 44th st.','56 e. andrews dr. nw',212/869-5544,404-231-5733
904,102,verbena,'palm too','54 irving pl. at 17th st.','840 second ave.',212/260-5454,212-697-5198
638,22,'la folie','hollywood hills coffee shop','2316 polk st.','6145 franklin ave.',415/776-5577,213-467-7678
987,103,2223,'patsy\'s pizza','2223 market st.','19 old fulton st.',415/431-0692,718-858-4300
614,160,delectables,'greenwood\'s','1 margaret mitchell sq.','1087 green st.',404/681-2909,770-992-5383
730,165,'brothers bar-b-q','java jive','225 varick st. at clarkston st.','790 ponce de leon ave.',212/727-2775,404-876-6161
832,22,'mad fish','hollywood hills coffee shop','2182 broadway  between 77th and 78th sts.','6145 franklin ave.',212/787-0202,213-467-7678
538,153,campanile,'carey\'s corner','624 s. la brea ave.','1215 powers ferry rd.',213/938-1447,770-933-0909
551,202,'philippe\'s the original','la taqueria','1001 n. alameda st.','2889 mission st.',213/628-3781,415-285-7117
949,138,'sa tsu ki','steakhouse  the','3043 buford hwy.','128 e. fremont st.',404/325-5285,702-382-1600
675,194,'harry\'s bar & american grill','dusit thai','2020 ave. of the stars','3221 mission st.',310/277-2333,415-826-4639
991,221,'bistro roti','bel-air hotel','155 steuart st.','701 stone canyon rd.',415/495-6500,310-472-1211
910,71,xunta,'benny\'s burritos','174 1st ave.  between 10th and 11th sts.','93 ave. a',212/614-0620,212-254-2054
543,298,'grill on the alley','ciboulette restaurant','9560 dayton way','1529 piedmont ave.',310/276-0615,404-874-7600
698,134,'roscoe\'s house of chicken \'n\' waffles','morton\'s of chicago (las vegas)','1514 n. gower st.','3200 las vegas blvd. s.',213/466-9329,702-893-0703
974,228,'golden nugget hotel','grill  the','129 e. fremont st.','9560 dayton way',702/385-7111,310-276-0615
719,137,arizona,'spago (las vegas)','206 206 e. 60th st.','3500 las vegas blvd. s.',212/838-0440,702-369-6300
996,78,'cafe marimba','edison cafe','2317 chestnut st.','228 w. 47th st.',415/776-1506,212-840-5000
798,236,'hi-life restaurant and lounge','philippe the original','1340 1st ave. at 72nd st.','1001 n. alameda st.',212/249-3600,213-628-3781
909,60,west,'ruth\'s chris steak house (los angeles)','63rd street steakhouse 44 w. 63rd st.','224 s. beverly dr.',212/246-6363,310-859-8744
778,7,firehouse,'bistro 45','522 columbus ave.  between 85th and 86th sts.','45 s. mentor ave.',212/595-3139,818-795-2478
656,91,'ca\'del sol','lemongrass grill','4100 cahuenga blvd.','61a seventh ave.',818/985-4669,718-399-7100
927,269,'dante\'s down the hatch  buckhead',oceana,'3380 peachtree rd.','55 e. 54th st.',404/266-1600,212-759-5941
670,90,'ed debevic\'s','la grenouille','134 n. la cienega','3 e. 52nd st.',310/659-1952,212-752-1495
841,134,'mavalli palace','morton\'s of chicago (las vegas)','46 e. 29th st.','3200 las vegas blvd. s.',212/679-5535,702-893-0703
694,62,prego,'sushi nozawa','362 n. camden dr.','11288 ventura blvd.',310/277-7346,818-508-7017
774,24,ferrier,'jan\'s family restaurant','29 e. 65th st.','8424 beverly blvd.',212/772-9000,213-651-2866
824,330,'le madri','rose pistola','168 w. 18th st.','532 columbus ave.',212/727-8022,415-399-0499
807,64,'jean lafitte',taiko,'68 w. 58th st.','11677 san vicente blvd.',212/751-2323,310-207-7782
1016,256,'hyde street bistro','island spice','1521 hyde st.','402 w. 44th st.',415/441-7778,212-765-1737
916,43,anthonys,'maxwell\'s cafe','3109 piedmont rd.  just south of peachtree rd.','13329 washington blvd.',404/262-7379,310-306-7829
964,11,broiler,'bruno\'s','4111 boulder hwy.','3838 centinela ave.',702/432-7777,310-397-5703
852,74,'osteria al droge','cucina della fontana','142 w. 44th st.','368 bleecker st.',212/944-3643,212-242-0636
907,155,vong,chopstix,'200 e. 54th st.','4279 roswell rd.',212/486-9592,404-255-4868
647,32,'il nido','killer shrimp','251 e. 53rd st.','4000 colfax ave.',212/753-8450,818-508-1570
590,92,'river cafe','lombardi\'s','1 water st. at the east river','32 spring st.',718/522-5200,212-941-7994
1022,329,'kuleto\'s','ritz-carlton dining room (san francisco)','221 powell st.','600 stockton st.',415/397-7720,415-296-7465
572,26,'jo jo','jody maroni\'s sausage kingdom','160 e. 64th st.','2011 ocean front walk',212/223-5656,310-306-1995
637,70,'khan toke thai house',arcadia,'5937 geary blvd.','21 e. 62nd st.',415/668-6654,212-223-2900
612,65,'buckhead diner','tommy\'s','3073 piedmont road','2575 beverly blvd.',404/262-3336,213-389-9060
621,302,'nikolai\'s roof','heera of india','255 courtland st.  at harris st.','595 piedmont ave.',404/221-6362,404-876-4408
930,92,'french quarter food shop','lombardi\'s','923 peachtree st.  at 8th st.','32 spring st.',404/875-2489,212-941-7994
692,298,'pinot hollywood','ciboulette restaurant','1448 n. gower st.','1529 piedmont ave.',213/461-8800,404-874-7600
992,176,bix,'palm  the (atlanta)','56 gold st.','3391 peachtree rd. ne',415/433-6300,404-814-1955
981,143,pamplemousse,'alon\'s at the terrace','400 e. sahara ave.','659 peachtree st.',702/733-2066,404-724-0444
965,34,'bugsy\'s diner','koo koo roo','3555 las vegas blvd. s','8393 w. beverly blvd.',702/733-3111,213-655-9045
913,222,abbey,'cafe bizou','163 ponce de leon ave.','14016 ventura blvd.',404/876-8532,818-788-3536
910,32,xunta,'killer shrimp','174 1st ave.  between 10th and 11th sts.','4000 colfax ave.',212/614-0620,818-508-1570
881,78,'seventh regiment mess and bar','edison cafe','643 park ave. at 66th st.','228 w. 47th st.',212/744-4107,212-840-5000
696,127,remi,'fiore rotisserie & grille','3rd st. promenade','3700 w. flamingo rd.',310/393-6545,702-252-7702
941,78,'mckinnon\'s louisiane','edison cafe','3209 maple dr.','228 w. 47th st.',404/237-1313,212-840-5000
893,78,terrace,'edison cafe','400 w. 119th st.  between amsterdam and morningside aves.','228 w. 47th st.',212/666-9490,212-840-5000
628,51,'alain rondelli','parkway grill','126 clement st.','510 s. arroyo pkwy.',415/387-0408,818-795-1001
622,271,'pano\'s and paul\'s',petrossian,'1232 w. paces ferry rd.','182 w. 58th st.',404/261-3662,212-245-2214
798,312,'hi-life restaurant and lounge','veni vidi vici','1340 1st ave. at 72nd st.','41 14th st.',212/249-3600,404-875-8424
1020,199,'kabuto sushi','kelly\'s on trinity','5116 geary blvd.','333 bush st.',415/752-5652,415-362-4454
924,37,'city grill','la serenata de garibaldi','50 hurt plaza','1842 e. first',404/524-2489,213-265-2887
665,173,dive!,nava,'10250 santa monica blvd.','3060 peachtree rd.',310/788-,404-240-1984
780,67,'fishin eddie','water grill','73 w. 71st st.','544 s. grand ave.',212/874-3474,213-891-0900
956,110,tomtom,sushisay,'3393 peachtree rd.','38 e. 51st st.',404/264-1163,212-755-1780
1041,125,'r&g lounge','buzio\'s in the rio','631 b kearny st.','3700 w. flamingo rd.',415/982-7877,702-252-7697
542,213,granita,'thep phanom','23725 w. malibu rd.','400 waller st.',310/456-0488,415-431-2526
1057,222,vertigo,'cafe bizou','600 montgomery st.','14016 ventura blvd.',415/433-7250,818-788-3536
1058,84,'vivande porta via','joe\'s shanghai','2125 fillmore st.','9 pell st.',415/346-4430,718-539-3838
952,10,'south of france','bristol farms market cafe','2345 cheshire bridge rd.','1570 rosecrans ave. s.',404/325-6963,310-643-5229
537,287,'cafe bizou','coyote cafe (las vegas)','14016 ventura blvd.','3799 las vegas blvd. s.',818/788-3536,702-891-7349
992,177,bix,'rainbow restaurant','56 gold st.','2118 n. decatur rd.',415/433-6300,404-633-3538
795,123,'grand ticino','andre\'s french restaurant','228 thompson st.  between w. 3rd and bleecker sts.','401 s. 6th st.',212/777-5922,702-385-5016
661,182,'cha cha cha',tortillas,'656 n. virgil ave.','774 ponce de leon ave. ne',213/664-7723,404-892-0193
638,45,'la folie',mishima,'2316 polk st.','8474 w. third st.',415/776-5577,213-782-0181
764,135,'dix et sept','nicky blair\'s','181 w. 10th st.','3925 paradise rd.',212/645-8023,702-792-9900
673,51,'gladstone\'s','parkway grill','4 fish 17300 pacific coast hwy. at sunset blvd.','510 s. arroyo pkwy.',310/454-3474,818-795-1001
789,103,'gabriela\'s','patsy\'s pizza','685 amsterdam ave. at 93rd st.','19 old fulton st.',212/961-0574,718-858-4300
885,317,'spring street natural restaurant & bar','campton place','62 spring st. at lafayette st.','340 stockton st.',212/966-0290,415-955-5555
926,169,'colonnade restaurant','lettuce souprise you (at)','1879 cheshire bridge rd.','3525 mall blvd.',404/874-5642,770-418-9969
936,23,'la grotta at ravinia dunwoody rd.','indo cafe','holiday inn/crowne plaza at ravinia  dunwoody','10428 1/2 national blvd.',770/395-9925,310-815-1290
934,277,'imperial fez','second avenue deli','2285 peachtree rd.  peachtree battle condominium','156 second ave.',404/351-0870,212-677-0606
939,150,'luna si','cafe sunflower','1931 peachtree rd.','5975 roswell rd.',404/355-5993,404-256-1675
789,75,'gabriela\'s','cucina di pesce','685 amsterdam ave. at 93rd st.','87 e. fourth st.',212/961-0574,212-260-6800
763,246,diva,'cafe des artistes','341 w. broadway  near grand st.','1 w. 67th st.',212/941-9024,212-877-3500
666,233,drago,matsuhisa,'2628 wilshire blvd.','129 n. la cienega blvd.',310/828-1585,310-659-9639
743,278,'caffe dell\'artista',seryna,'46 greenwich ave.','11 e. 53rd st.',212/645-4431,212-980-9393
710,213,'9 jones street','thep phanom','9 jones st.','400 waller st.',212/989-1220,415-431-2526
991,326,'bistro roti',mifune,'155 steuart st.','1737 post st.',415/495-6500,415-922-0337
743,85,'caffe dell\'artista','john\'s pizzeria','46 greenwich ave.','48 w. 65th st.',212/645-4431,212-721-7001
1047,235,'splendido embarcadero',patina,4,'5955 melrose ave.',415/986-3222,213-467-1108
757,263,'coco pazzo',lutece,'23 e. 74th st.','249 e. 50th st.',212/794-0205,212-752-2225
803,267,'inca grill','mi cocina','492 broome st.  near w. broadway','57 jane st.',212/966-3371,212-627-8273
543,254,'grill on the alley','gotham bar & grill','9560 dayton way','12 e. 12th st.',310/276-0615,212-620-4020
1051,201,'straits cafe','la mediterranee','3300 geary blvd.','288 noe st.',415/668-1783,415-431-7210
719,56,arizona,'rae\'s','206 206 e. 60th st.','2901 pico blvd.',212/838-0440,310-828-7937
553,201,'rex il ristorante','la mediterranee','617 s. olive st.','288 noe st.',213/627-2300,415-431-7210
1030,27,'mccormick & kuleto\'s','joe\'s','ghirardelli sq.','1023 abbot kinney blvd.',415/929-1730,310-399-5811
938,327,'lowcountry barbecue','plumpjack cafe','6301 roswell rd.  sandy springs plaza  sandy springs','3127 fillmore st.',404/255-5160,415-563-4755
607,83,tillerman,'jackson diner','2245 e. flamingo rd.','37-03 74th st.',702/731-4036,718-672-1232
787,193,'frico bar','dottie\'s true blue cafe','402 w. 43rd st.  off 9th ave.','522 jones st.',212/564-7272,415-885-2767
1047,278,'splendido embarcadero',seryna,4,'11 e. 53rd st.',415/986-3222,212-980-9393
755,170,'china grill',majestic,'60 w. 53rd st.','1031 ponce de leon ave.',212/333-7788,404-875-0276
628,27,'alain rondelli','joe\'s','126 clement st.','1023 abbot kinney blvd.',415/387-0408,310-399-5811
729,74,bouterin,'cucina della fontana','420 e. 59th st.  off 1st ave.','368 bleecker st.',212/758-0323,212-242-0636
778,218,firehouse,'wa-ha-ka oaxaca mexican grill','522 columbus ave.  between 85th and 86th sts.','2141 polk st.',212/595-3139,415-775-1055
1030,13,'mccormick & kuleto\'s','cafe blanc','ghirardelli sq.','9777 little santa monica blvd.',415/929-1730,310-888-0108
644,43,'ritz-carlton restaurant and dining room','maxwell\'s cafe','600 stockton st.','13329 washington blvd.',415/296-7465,310-306-7829
704,43,'tommy tang\'s','maxwell\'s cafe','7313 melrose ave.','13329 washington blvd.',213/937-5733,310-306-7829
1030,123,'mccormick & kuleto\'s','andre\'s french restaurant','ghirardelli sq.','401 s. 6th st.',415/929-1730,702-385-5016
734,242,ct,'21 club','111 e. 22nd st.  between park ave. s and lexington ave.','21 w. 52nd st.',212/995-8500,212-582-7200
740,107,'cafe centro','sarabeth\'s','200 park ave.  between 45th st. and vanderbilt ave.','1295 madison ave.',212/818-1222,212-410-7335
837,217,marichu,'vicolo pizzeria','342 e. 46th st.  between 1st and 2nd aves.','201 ivy st.',212/370-1866,415-863-2382
678,149,'jackson\'s farm','brookhaven cafe','439 n. beverly drive','4274 peachtree rd.',310/273-5578,404-231-5907
696,182,remi,tortillas,'3rd st. promenade','774 ponce de leon ave. ne',310/393-6545,404-892-0193
747,5,'caffe vivaldi','benita\'s frites','32 jones st. at bleecker st.','1433 third st. promenade',212/691-7538,310-458-2889
940,186,'mambo restaurante cubano',zab-e-lee,'1402 n. highland ave.','4837 old national hwy.',404/874-2626,404-768-2705
713,282,aja,'tavern on the green','937 broadway at 22nd st.','central park west',212/473-8388,212-873-3200
928,250,'dante\'s down the hatch',daniel,'underground underground mall  underground atlanta','20 e. 76th st.',404/577-1800,212-288-0033
1009,270,'harbor village','park avenue cafe (new york city)','4 embarcadero center','100 e. 63rd st.',415/781-8833,212-644-1900
977,218,'mandarin court','wa-ha-ka oaxaca mexican grill','1510 e. flamingo rd.','2141 polk st.',702/737-1234,415-775-1055
559,302,aureole,'heera of india','34 e. 61st st.','595 piedmont ave.','212/ 319-1660',404-876-4408
1042,20,rubicon,'feast from the east','558 sacramento st.','1949 westwood blvd.',415/434-4100,310-475-0400
1055,192,thepin,'doidge\'s','298 gough st.','2217 union st.',415/863-9335,415-921-2149
598,163,'uncle nick\'s','house of chan','747 9th ave.  between 50th and 51st sts.','2469 cobb pkwy.',212/315-1726,770-955-9444
885,265,'spring street natural restaurant & bar',march,'62 spring st. at lafayette st.','405 e. 58th st.',212/966-0290,212-754-6272
968,69,'capozzoli\'s','afghan kebab house','3333 s. maryland pkwy.','764 ninth ave.',702/731-5311,212-307-1612
565,246,daniel,'cafe des artistes','20 e. 76th st.','1 w. 67th st.',212/288-0033,212-877-3500
802,248,'il cortile','carnegie deli','125 mulberry st.  between canal and hester sts.','854 seventh ave.',212/226-6060,212-757-2245
936,261,'la grotta at ravinia dunwoody rd.','les celebrites','holiday inn/crowne plaza at ravinia  dunwoody','155 w. 58th st.',770/395-9925,212-484-5113
854,3,pacifica,'baja fresh','138 lafayette st.  between canal and howard sts.','3345 kimber dr.',212/941-4168,805-498-4049
638,86,'la folie','kelley & ping','2316 polk st.','127 greene st.',415/776-5577,212-228-1212
961,260,'bertolini\'s','le bernardin','3570 las vegas blvd. s','155 w. 51st st.',702/735-4663,212-489-1515
748,3,'caffe bondi ristorante','baja fresh','7 w. 20th st.','3345 kimber dr.',212/691-8136,805-498-4049
805,257,'internet cafe','jo jo','82 e. 3rd st.  between 1st and 2nd aves.','160 e. 64th st.','212/ 614-0747',212-223-5656
1026,232,'le soleil','locanda veneta','133 clement st.','8638 w. third st.',415/668-4848,310-274-1893
784,214,'fraunces tavern','ti couz','54 pearl st. at broad st.','3108 16th st.',212/269-0144,415-252-7373
613,188,ciboulette,'cafe flore','1529 piedmont ave.','2298 market st.',404/874-7600,415-621-8579
1064,304,'yoyo tsumami bistro','la grotta','1611 post st.','2637 peachtree rd. ne',415/922-7788,404-231-1368
675,98,'harry\'s bar & american grill',nobu,'2020 ave. of the stars','105 hudson st.',310/277-2333,212-219-0500
959,136,'bamboo garden','piero\'s restaurant','4850 flamingo rd.','355 convention center dr.',702/871-3262,702-369-2305
1035,78,oritalia,'edison cafe','1915 fillmore st.','228 w. 47th st.',415/346-1333,212-840-5000
895,68,'the savannah club','zankou chicken','2420 broadway at 89th st.','1415 e. colorado st.',212/496-1066,818-244-1937
788,13,'fujiyama mama','cafe blanc','467 columbus ave.  between 82nd and 83rd sts.','9777 little santa monica blvd.',212/769-1144,310-888-0108
670,200,'ed debevic\'s','la cumbre','134 n. la cienega','515 valencia st.',310/659-1952,415-863-8205
839,163,match,'house of chan','160 mercer st.  between houston and prince sts.','2469 cobb pkwy.',212/906-9173,770-955-9444
1033,175,'north india','original pancake house (at)','3131 webster st.','4330 peachtree rd.',415/931-1556,404-237-4116
919,176,'bertolini\'s','palm  the (atlanta)','3500 peachtree rd.  phipps plaza','3391 peachtree rd. ne',404/233-2333,404-814-1955
648,178,remi,riviera,'145 w. 53rd st.','519 e. paces ferry rd.',212/581-4242,404-262-7112
1023,4,'kyo-ya. sheraton palace hotel','belvedere  the','2 new montgomery st.  at market st.','9882 little santa monica blvd.',415/546-5000,310-788-2306
867,146,rain,'bistro  the','100 w. 82nd st.','56 e. andrews dr. nw',212/501-0776,404-231-5733
617,205,'heera of india','mel\'s drive-in','595 piedmont ave.  rio shopping mall','3355 geary st.',404/876-4408,415-387-2244
785,111,'french roast','sylvia\'s','458 6th ave. at 11th st.','328 lenox ave.',212/533-2233,212-996-0660
1002,58,'des alpes','ruby\'s (la)','732 broadway','45 s. fair oaks ave.',415/788-9900,818-796-7829
960,18,'battista\'s hole in the wall','duke\'s','4041 audrie st. at flamingo rd.','8909 sunset blvd.',702/732-1424,310-652-3100
894,320,'the coffee pot',fringale,'350 9th ave. at 49th st.','570 fourth st.',212/265-3566,415-543-0573
1053,129,'tadich grill','madame ching\'s','240 california st.','3300 las vegas blvd. s.',415/391-2373,702-894-7111
935,55,kamogawa,r-23,'3300 peachtree rd.  grand hyatt','923 e. third st.',404/841-0314,213-687-7178
731,95,bruno,'mitali east-west','240 e. 58th st.','296 bleecker st.',212/688-4190,212-989-1367
698,266,'roscoe\'s house of chicken \'n\' waffles','mesa grill','1514 n. gower st.','102 fifth ave.',213/466-9329,212-807-7400
543,201,'grill on the alley','la mediterranee','9560 dayton way','288 noe st.',310/276-0615,415-431-7210
828,114,'les halles','teresa\'s','411 park ave. s  between 28th and 29th sts.','80 montague st.',212/679-4111,718-520-2910
903,272,'veniero\'s pasticceria',picholine,'342 e. 11th st.  near 1st ave.','35 w. 64th st.',212/674-7264,212-724-8585
1059,96,'vivande ristorante','monsoon (ny)','670 golden gate ave.','435 amsterdam ave.',415/673-9245,212-580-8686
720,180,'arturo\'s',soto,'106 w. houston st.  off thompson st.','3330 piedmont rd.',212/677-3820,404-233-2005
849,73,newsbar,'corner bistro','2 w. 19th st.','331 w. fourth st.',212/255-3996,212-242-9502
1066,121,'zuni cafe & grill',yama,'1658 market st.','122 e. 17th st.',415/552-2522,212-475-0969
940,39,'mambo restaurante cubano','local nochol','1402 n. highland ave.','30869 thousand oaks blvd.',404/874-2626,818-706-7706
913,4,abbey,'belvedere  the','163 ponce de leon ave.','9882 little santa monica blvd.',404/876-8532,310-788-2306
615,24,'georgia grille','jan\'s family restaurant','2290 peachtree rd.  peachtree square shopping center','8424 beverly blvd.',404/352-3517,213-651-2866
541,223,fenix,campanile,'8358 sunset blvd. west','624 s. la brea ave.',213/848-6677,213-938-1447
667,163,'drai\'s','house of chan','730 n. la cienega blvd.','2469 cobb pkwy.',310/358-8585,770-955-9444
891,193,tapika,'dottie\'s true blue cafe','950 8th ave. at 56th st.','522 jones st.','212/ 397-3737',415-885-2767
804,308,indochine,'ritz-carlton cafe (buckhead)','430 lafayette st.  between 4th st. and astor pl.','3434 peachtree rd. ne',212/505-5111,404-237-2700
865,159,'popover cafe',frijoleros,'551 amsterdam ave.  between 86th and 87th sts.','1031 peachtree st. ne',212/595-8555,404-892-8226
964,85,broiler,'john\'s pizzeria','4111 boulder hwy.','48 w. 65th st.',702/432-7777,212-721-7001
965,15,'bugsy\'s diner','chez melange','3555 las vegas blvd. s','1716 pch',702/733-3111,310-540-1222
608,213,abruzzi,'thep phanom','2355 peachtree rd.  peachtree battle shopping center','400 waller st.',404/261-8186,415-431-2526
949,272,'sa tsu ki',picholine,'3043 buford hwy.','35 w. 64th st.',404/325-5285,212-724-8585
793,118,global,'westside cottage','33 93 2nd ave.  between 5th and 6th sts.','689 ninth ave.',212/477-8427,212-245-0800
875,250,'sammy\'s roumanian steak house',daniel,'157 chrystie st. at delancey st.','20 e. 76th st.',212/673-0330,212-288-0033
953,75,'stringer\'s fish camp and oyster bar','cucina di pesce','3384 shallowford rd.  chamblee','87 e. fourth st.',770/458-7145,212-260-6800
786,255,'french roast cafe','gramercy tavern','2340 broadway at 85th st.','42 e. 20th st.',212/799-1533,212-477-0777
618,69,'indigo coastal grill','afghan kebab house','1397 n. highland ave.','764 ninth ave.',404/876-0676,212-307-1612
542,74,granita,'cucina della fontana','23725 w. malibu rd.','368 bleecker st.',310/456-0488,212-242-0636
715,110,'alley\'s end',sushisay,'311 w. 17th st.','38 e. 51st st.',212/627-8899,212-755-1780
854,63,pacifica,'sweet lady jane','138 lafayette st.  between canal and howard sts.','8360 melrose ave.',212/941-4168,213-653-7145
785,123,'french roast','andre\'s french restaurant','458 6th ave. at 11th st.','401 s. 6th st.',212/533-2233,702-385-5016
725,105,'big cup','rose of india','228 8th ave.  between 21st and 22nd sts.','308 e. sixth st.',212/206-0059,212-533-5011
629,280,aqua,'sign of the dove','252 california st.','1110 third ave.',415/956-9662,212-861-8080
779,77,first,'ej\'s luncheonette','87 1st ave.  between 5th and 6th sts.','432 sixth ave.',212/674-3823,212-473-5555
911,328,'zen palate',postrio,'34 union sq. e at 16th st.','545 post st.',212/614-9291,415-776-7825
933,254,'hsu\'s gourmet','gotham bar & grill','192 peachtree center ave.  at international blvd.','12 e. 12th st.',404/659-2788,212-620-4020
1061,60,'wu kong','ruth\'s chris steak house (los angeles)','101 spear st.','224 s. beverly dr.',415/957-9300,310-859-8744
716,46,'ambassador grill','mo better meatty meat','1 united nations plaza at 44th st.','7261 melrose ave.',212/702-5014,213-935-5280
590,304,'river cafe','la grotta','1 water st. at the east river','2637 peachtree rd. ne',718/522-5200,404-231-1368
582,259,'mi cocina','la cote basque','57 jane st.  off hudson st.','60 w. 55th st.',212/627-8273,212-688-6525
601,304,'chin\'s','la grotta','3200 las vegas blvd. s','2637 peachtree rd. ne',702/733-8899,404-231-1368
1000,3,chevys,'baja fresh','4th and howard sts.','3345 kimber dr.',415/543-8060,805-498-4049
831,304,'lucky strike','la grotta','59 grand st.  between wooster st. and w. broadway','2637 peachtree rd. ne',212/941-0479,404-231-1368
836,199,'manila garden','kelly\'s on trinity','325 e. 14th st.  between 1st and 2nd aves.','333 bush st.',212/777-6314,415-362-4454
1055,41,thepin,'mani\'s bakery & espresso bar','298 gough st.','519 s. fairfax ave.',415/863-9335,213-938-8800
769,50,'empire korea','original pantry bakery','6 e. 32nd st.','875 s. figueroa st. downtown',212/725-1333,213-627-6879
901,34,'turkish kitchen','koo koo roo','386 3rd ave.  between 27th and 28th sts.','8393 w. beverly blvd.',212/679-1810,213-655-9045
776,292,'film center cafe','tillerman  the','635 9th ave.  between 44th and 45th sts.','2245 e. flamingo rd.','212/ 262-2525',702-731-4036
777,22,'fiorello\'s roman cafe','hollywood hills coffee shop','1900 broadway  between 63rd and 64th sts.','6145 franklin ave.',212/595-5330,213-467-7678
1019,323,'jack\'s','la folie','615 sacramento st.','2316 polk st.',415/986-9854,415-776-5577
887,297,stingray,'buckhead diner','428 amsterdam ave.  between 80th and 81st sts.','3073 piedmont rd.',212/501-7515,404-262-3336
863,290,'planet hollywood','second street grill','140 w. 57th st.','200 e. fremont st.',212/333-7827,702-385-6277
875,188,'sammy\'s roumanian steak house','cafe flore','157 chrystie st. at delancey st.','2298 market st.',212/673-0330,415-621-8579
711,117,adrienne,veselka,'700 5th ave. at 55th st.','144 second ave.',212/903-3918,212-228-9682
593,242,seryna,'21 club','11 e. 53rd st.','21 w. 52nd st.',212/980-9393,212-582-7200
1029,278,maykadeh,seryna,'470 green st.','11 e. 53rd st.',415/362-8286,212-980-9393
956,27,tomtom,'joe\'s','3393 peachtree rd.','1023 abbot kinney blvd.',404/264-1163,310-399-5811
811,103,'judson grill','patsy\'s pizza','152 w. 52nd st.','19 old fulton st.',212/582-5252,718-858-4300
766,21,'duane park cafe','gumbo pot  the','157 duane st.  between w. broadway and hudson st.','6333 w. third st.',212/732-5555,213-933-0358
817,92,'lanza restaurant','lombardi\'s','168 1st ave.  between 10th and 11th sts.','32 spring st.',212/674-7014,212-941-7994
567,309,felidia,'ritz-carlton dining room (buckhead)','243 e. 58th st.','3434 peachtree rd. ne',212/758-1479,404-237-2700
730,52,'brothers bar-b-q','pho hoa','225 varick st. at clarkston st.','642 broadway',212/727-2775,213-626-5530
801,71,'i trulli','benny\'s burritos','122 e. 27th st.  between lexington and park aves.','93 ave. a',212/481-7372,212-254-2054
999,17,carta,'don antonio\'s','1772 market st.','1136 westwood blvd.',415/863-3516,310-209-1422
925,247,'coco loco','carmine\'s','40  buckhead crossing mall on the sidney marcus blvd.','2450 broadway',404/364-0212,212-362-2200
558,174,aquavit,'nuevo laredo cantina','13 w. 54th st.','1495 chattahoochee ave. nw',212/307-7311,404-352-9009
573,318,'la caravelle','chez michel','33 w. 55th st.','804 north point st.',212/586-4252,415-775-7036
734,235,ct,patina,'111 e. 22nd st.  between park ave. s and lexington ave.','5955 melrose ave.',212/995-8500,213-467-1108
659,136,'canter\'s','piero\'s restaurant','419 n. fairfax ave.','355 convention center dr.',213/651-2030.,702-369-2305
628,22,'alain rondelli','hollywood hills coffee shop','126 clement st.','6145 franklin ave.',415/387-0408,213-467-7678
1041,185,'r&g lounge','white house restaurant','631 b kearny st.','3172 peachtree rd. ne',415/982-7877,404-237-7601
724,91,'ben benson\'s','lemongrass grill','123 w. 52nd st.','61a seventh ave.',212/581-8888,718-399-7100
576,211,'les celebrites','slanted door','160 central park s','584 valencia st.',212/484-5113,415-861-8032
676,311,'il fornaio cucina italiana',toulouse,'301 n. beverly dr.','293-b peachtree rd.',310/550-8330,404-351-9533
838,127,'marquet patisserie','fiore rotisserie & grille','15 e. 12th st.  between 5th ave. and university pl.','3700 w. flamingo rd.',212/229-9313,702-252-7702
975,323,'golden steer','la folie','308 w. sahara ave.','2316 polk st.',702/384-4470,415-776-5577
714,7,alamo,'bistro 45','304 e. 48th st.','45 s. mentor ave.','212/ 759-0590',818-795-2478
1033,275,'north india','river cafe','3131 webster st.','1 water st.',415/931-1556,718-522-5200
631,271,'cafe claude',petrossian,'7 claude la.','182 w. 58th st.',415/392-3505,212-245-2214
602,83,'coyote cafe','jackson diner','3799 las vegas blvd. s','37-03 74th st.',702/891-7349,718-672-1232
608,198,abruzzi,'hamburger mary\'s','2355 peachtree rd.  peachtree battle shopping center','1582 folsom st.',404/261-8186,415-626-1985
666,63,drago,'sweet lady jane','2628 wilshire blvd.','8360 melrose ave.',310/828-1585,213-653-7145
765,304,docks,'la grotta','633 3rd ave. at 40th st.','2637 peachtree rd. ne','212/ 986-8080',404-231-1368
1041,12,'r&g lounge','cafe \'50s','631 b kearny st.','838 lincoln blvd.',415/982-7877,310-399-1955
699,141,'schatzi on main','tre visi','3110 main st.','3799 las vegas blvd. s.',310/399-4800,702-891-7331
855,320,palio,fringale,'151 w. 51st. st.','570 fourth st.',212/245-4850,415-543-0573
883,17,shaan,'don antonio\'s','57 w. 48th st.','1136 westwood blvd.','212/ 977-8400',310-209-1422
686,34,'nate \'n\' al\'s','koo koo roo','414 n. beverly dr.','8393 w. beverly blvd.',310/274-0101,213-655-9045
848,63,'new york noodletown','sweet lady jane','28 1/2 bowery at bayard st.','8360 melrose ave.',212/349-0923,213-653-7145
629,69,aqua,'afghan kebab house','252 california st.','764 ninth ave.',415/956-9662,212-307-1612
717,179,'american place','silver skillet  the','2 park ave. at 32nd st.','200 14th st. nw',212/684-2122,404-874-1388
841,305,'mavalli palace','mary mac\'s tea room','46 e. 29th st.','224 ponce de leon ave.',212/679-5535,404-876-1800
877,219,'sant ambroeus','arnie morton\'s of chicago','1000 madison ave.  between 77th and 78th sts.','435 s. la cienega blvd.',212/570-2211,310-246-1501
836,275,'manila garden','river cafe','325 e. 14th st.  between 1st and 2nd aves.','1 water st.',212/777-6314,718-522-5200
956,279,tomtom,'shun lee palace','3393 peachtree rd.','155 e. 55th st.',404/264-1163,212-371-8844
782,69,flowers,'afghan kebab house','21 west 17th st.  between 5th and 6th aves.','764 ninth ave.',212/691-8888,212-307-1612
698,197,'roscoe\'s house of chicken \'n\' waffles','eric\'s chinese restaurant','1514 n. gower st.','1500 church st.',213/466-9329,415-282-0919
618,67,'indigo coastal grill','water grill','1397 n. highland ave.','544 s. grand ave.',404/876-0676,213-891-0900
834,64,'mangia e bevi',taiko,'800 9th ave. at 53rd st.','11677 san vicente blvd.',212/956-3976,310-207-7782
878,224,'sarabeth\'s kitchen','chinois on main','423 amsterdam ave.  between 80th and 81st sts.','2709 main st.',212/496-6280,310-392-9025
916,183,anthonys,'van gogh\'s restaurant & bar','3109 piedmont rd.  just south of peachtree rd.','70 w. crossville rd.',404/262-7379,770-993-1156
914,243,'aleck\'s barbecue heaven',aquavit,'783 martin luther king jr. dr.','13 w. 54th st.',404/525-2062,212-307-7311
605,88,'second street grille','kuruma zushi','200 e. fremont st.','2nd fl.',702/385-3232,212-317-2802
916,312,anthonys,'veni vidi vici','3109 piedmont rd.  just south of peachtree rd.','41 14th st.',404/262-7379,404-875-8424
907,58,vong,'ruby\'s (la)','200 e. 54th st.','45 s. fair oaks ave.',212/486-9592,818-796-7829
1020,284,'kabuto sushi','union square cafe','5116 geary blvd.','21 e. 16th st.',415/752-5652,212-243-4020
1024,216,'l\'osteria del forno','tu lan','519 columbus ave.','8 sixth st.',415/982-1124,415-626-0927
637,146,'khan toke thai house','bistro  the','5937 geary blvd.','56 e. andrews dr. nw',415/668-6654,404-231-5733
664,295,'dining room','bone\'s restaurant','9500 wilshire blvd.','3130 piedmont rd. ne',310/275-5200,404-237-2663
904,126,verbena,'emeril\'s new orleans fish house','54 irving pl. at 17th st.','3799 las vegas blvd. s.',212/260-5454,702-891-7374
748,44,'caffe bondi ristorante','michael\'s (los angeles)','7 w. 20th st.','1147 third st.',212/691-8136,310-451-0843
844,130,montien,'mayflower cuisinier','1134 1st ave.   between 62nd and 63rd sts.','4750 w. sahara ave.',212/421-4433,702-870-8432
749,128,'capsouto freres','hugo\'s cellar','451 washington st.  near watts st.','202 e. fremont st.',212/966-4900,702-385-4011
601,12,'chin\'s','cafe \'50s','3200 las vegas blvd. s','838 lincoln blvd.',702/733-8899,310-399-1955
886,174,'stage deli','nuevo laredo cantina','834 7th ave.  between 53rd and 54th sts.','1495 chattahoochee ave. nw',212/245-7850,404-352-9009
705,328,'tra di noi',postrio,'3835 cross creek rd.','545 post st.',310/456-0169,415-776-7825
756,148,cite,'bradshaw\'s restaurant','120 w. 51st st.','2911 s. pharr court',212/956-7100,404-261-7015
705,279,'tra di noi','shun lee palace','3835 cross creek rd.','155 e. 55th st.',310/456-0169,212-371-8844
911,11,'zen palate','bruno\'s','34 union sq. e at 16th st.','3838 centinela ave.',212/614-9291,310-397-5703
955,53,'taste of new orleans','pink\'s famous chili dogs','889 w. peachtree st.','709 n. la brea ave.',404/874-5535,213-931-4223
913,318,abbey,'chez michel','163 ponce de leon ave.','804 north point st.',404/876-8532,415-775-7036
610,211,'bone\'s','slanted door','3130 piedmont road','584 valencia st.',404/237-2663,415-861-8032
800,7,'hudson river club','bistro 45','4 world financial center','45 s. mentor ave.',212/786-1500,818-795-2478
957,107,'antonio\'s','sarabeth\'s','3700 w. flamingo','1295 madison ave.',702/252-7737,212-410-7335
1047,197,'splendido embarcadero','eric\'s chinese restaurant',4,'1500 church st.',415/986-3222,415-282-0919
648,45,remi,mishima,'145 w. 53rd st.','8474 w. third st.',212/581-4242,213-782-0181
690,182,'pacific dining car',tortillas,'6th st.','774 ponce de leon ave. ne',213/483-6000,404-892-0193
746,191,'caffe roma','cha cha cha\'s','385 broome st. at mulberry','1805 haight st.',212/226-8413,415-386-5758
870,299,'roettelle a. g',delectables,'126 e. 7th st.  between 1st ave. and ave. a','1 margaret mitchell sq.',212/674-4140,404-681-2909
677,307,'jack sprat\'s grill','pano\'s & paul\'s','10668 w. pico blvd.','1232 w. paces ferry rd.',310/837-6662,404-261-3662
640,184,'masa\'s',veggieland,'648 bush st.','220 sandy springs circle',415/989-7154,404-231-3111
1037,181,'palio d\'asti','thelma\'s kitchen','640 sacramento st.','764 marietta st. nw',415/395-9800,404-688-5855
1008,328,greens,postrio,'bldg. a fort mason','545 post st.',415/771-6222,415-776-7825
577,24,lespinasse,'jan\'s family restaurant','2 e. 55th st.','8424 beverly blvd.',212/339-6719,213-651-2866
951,160,'south city kitchen','greenwood\'s','1144 crescent ave.','1087 green st.',404/873-7358,770-992-5383
871,3,'rosa mexicano','baja fresh','1063 1st ave. at 58th st.','3345 kimber dr.',212/753-7407,805-498-4049
714,80,alamo,'good enough to eat','304 e. 48th st.','483 amsterdam ave.','212/ 759-0590',212-496-0163
878,74,'sarabeth\'s kitchen','cucina della fontana','423 amsterdam ave.  between 80th and 81st sts.','368 bleecker st.',212/496-6280,212-242-0636
539,322,'chinois on main','khan toke thai house','2709 main st.','5937 geary blvd.',310/392-9025,415-668-6654
959,77,'bamboo garden','ej\'s luncheonette','4850 flamingo rd.','432 sixth ave.',702/871-3262,212-473-5555
828,237,'les halles','pinot bistro','411 park ave. s  between 28th and 29th sts.','12969 ventura blvd.',212/679-4111,818-990-0500
882,92,sfuzzi,'lombardi\'s','58 w. 65th st.','32 spring st.',212/873-3700,212-941-7994
846,247,'motown cafe','carmine\'s','104 w. 57th st.  near 6th ave.','2450 broadway',212/581-8030,212-362-2200
690,179,'pacific dining car','silver skillet  the','6th st.','200 14th st. nw',213/483-6000,404-874-1388
828,192,'les halles','doidge\'s','411 park ave. s  between 28th and 29th sts.','2217 union st.',212/679-4111,415-921-2149
821,183,'le colonial','van gogh\'s restaurant & bar','149 e. 57th st.','70 w. crossville rd.','212/ 752-0808',770-993-1156
836,172,'manila garden','my thai','325 e. 14th st.  between 1st and 2nd aves.','1248 clairmont rd.',212/777-6314,404-636-4280
802,134,'il cortile','morton\'s of chicago (las vegas)','125 mulberry st.  between canal and hester sts.','3200 las vegas blvd. s.',212/226-6060,702-893-0703
843,225,'monkey bar',citrus,'60 e. 54th st.','6703 melrose ave.',212/838-2600,213-857-0034
1046,147,'south park cafe','bobby & june\'s kountry kitchen','108 south park','375 14th st.',415/495-7275,404-876-3872
535,297,'art\'s delicatessen','buckhead diner','12224 ventura blvd.','3073 piedmont rd.',818/762-1221,404-262-3336
983,200,'the bacchanal','la cumbre','3570 las vegas blvd. s','515 valencia st.',702/731-7525,415-863-8205
698,151,'roscoe\'s house of chicken \'n\' waffles',canoe,'1514 n. gower st.','4199 paces ferry rd.',213/466-9329,770-432-2663
833,321,'main street','hawthorne lane','446 columbus ave.  between 81st and 82nd sts.','22 hawthorne st.',212/873-5025,415-777-9779
858,110,patria,sushisay,'250 park ave. s at 20th st.','38 e. 51st st.',212/777-6211,212-755-1780
773,123,felix,'andre\'s french restaurant','340 w. broadway at grand st.','401 s. 6th st.',212/431-0021,702-385-5016
601,155,'chin\'s',chopstix,'3200 las vegas blvd. s','4279 roswell rd.',702/733-8899,404-255-4868
836,66,'manila garden','uncle bill\'s pancake house','325 e. 14th st.  between 1st and 2nd aves.','1305 highland ave.',212/777-6314,310-545-5177
765,308,docks,'ritz-carlton cafe (buckhead)','633 3rd ave. at 40th st.','3434 peachtree rd. ne','212/ 986-8080',404-237-2700
1053,227,'tadich grill',granita,'240 california st.','23725 w. malibu rd.',415/391-2373,310-456-0488
919,225,'bertolini\'s',citrus,'3500 peachtree rd.  phipps plaza','6703 melrose ave.',404/233-2333,213-857-0034
1016,279,'hyde street bistro','shun lee palace','1521 hyde st.','155 e. 55th st.',415/441-7778,212-371-8844
687,78,nicola,'edison cafe','601 s. figueroa st.','228 w. 47th st.',213/485-0927,212-840-5000
858,72,patria,'cafe con leche','250 park ave. s at 20th st.','424 amsterdam ave.',212/777-6211,212-595-7000
736,192,'cafe botanica','doidge\'s','160 central park s','2217 union st.',212/484-5120,415-921-2149
656,316,'ca\'del sol','cafe claude','4100 cahuenga blvd.','7 claude ln.',818/985-4669,415-392-3505
557,127,'21 club','fiore rotisserie & grille','21 w. 52nd st.','3700 w. flamingo rd.',212/582-7200,702-252-7702
631,290,'cafe claude','second street grill','7 claude la.','200 e. fremont st.',415/392-3505,702-385-6277
945,186,'pleasant peasant',zab-e-lee,'555 peachtree st.  at linden ave.','4837 old national hwy.',404/874-3223,404-768-2705
901,12,'turkish kitchen','cafe \'50s','386 3rd ave.  between 27th and 28th sts.','838 lincoln blvd.',212/679-1810,310-399-1955
784,82,'fraunces tavern','il mulino','54 pearl st. at broad st.','86 w. third st.',212/269-0144,212-673-3783
839,88,match,'kuruma zushi','160 mercer st.  between houston and prince sts.','2nd fl.',212/906-9173,212-317-2802
1007,181,'grand cafe hotel monaco','thelma\'s kitchen','501 geary st.','764 marietta st. nw',415/292-0101,404-688-5855
605,69,'second street grille','afghan kebab house','200 e. fremont st.','764 ninth ave.',702/385-3232,212-307-1612
799,272,home,picholine,'20 cornelia st.  between bleecker and w. 4th st.','35 w. 64th st.',212/243-9579,212-724-8585
620,61,'mary mac\'s tea room',shiro,'224 ponce de leon ave.','1505 mission st. s.',404/876-1800,818-799-4774
720,164,'arturo\'s','indian delights','106 w. houston st.  off thompson st.','3675 satellite blvd.',212/677-3820,100-813-8212
770,246,'ernie\'s','cafe des artistes','2150 broadway  between 75th and 76th sts.','1 w. 67th st.',212/496-1588,212-877-3500
814,53,'l\'auberge du midi','pink\'s famous chili dogs','310 w. 4th st.  between w. 12th and bank sts.','709 n. la brea ave.',212/242-4705,213-931-4223
733,263,c3,lutece,'103 waverly pl.  near washington sq.','249 e. 50th st.',212/254-1200,212-752-2225
1060,62,'world wrapps','sushi nozawa','2257 chestnut st.','11288 ventura blvd.',415/563-9727,818-508-7017
672,21,'gilliland\'s','gumbo pot  the','2424 main st.','6333 w. third st.',310/392-3901,213-933-0358
716,223,'ambassador grill',campanile,'1 united nations plaza at 44th st.','624 s. la brea ave.',212/702-5014,213-938-1447
671,247,'el cholo','carmine\'s','1121 s. western ave.','2450 broadway',213/734-2773,212-362-2200
669,112,eclipse,'szechuan hunan cottage','8800 melrose ave.','1588 york ave.',310/724-5959,212-535-5223
602,92,'coyote cafe','lombardi\'s','3799 las vegas blvd. s','32 spring st.',702/891-7349,212-941-7994
622,30,'pano\'s and paul\'s','johnny reb\'s southern smokehouse','1232 w. paces ferry rd.','4663 long beach blvd.',404/261-3662,310-423-7327
752,34,'cendrillon asian grill & marimba bar','koo koo roo','45 mercer st.  between broome and grand sts.','8393 w. beverly blvd.',212/343-9012,213-655-9045
633,78,'chez michel','edison cafe','804 northpoint','228 w. 47th st.',415/775-7036,212-840-5000
620,324,'mary mac\'s tea room','lulu restaurant-bis-cafe','224 ponce de leon ave.','816 folsom st.',404/876-1800,415-495-5775
939,19,'luna si','falafel king','1931 peachtree rd.','1059 broxton ave.',404/355-5993,310-208-4444
634,271,'fleur de lys',petrossian,'777 sutter st.','182 w. 58th st.',415/673-7779,212-245-2214
966,97,'cafe michelle',moustache,'1350 e. flamingo rd.','405 atlantic ave.',702/735-8686,718-852-5555
714,24,alamo,'jan\'s family restaurant','304 e. 48th st.','8424 beverly blvd.','212/ 759-0590',213-651-2866
900,200,'tse yang','la cumbre','34 e. 51st st.','515 valencia st.',212/688-5447,415-863-8205
800,34,'hudson river club','koo koo roo','4 world financial center','8393 w. beverly blvd.',212/786-1500,213-655-9045
869,168,republic,'la fonda latina','37a union sq. w  between 16th and 17th sts.','4427 roswell rd.',212/627-7172,404-303-8201
545,96,'l\'orangerie','monsoon (ny)','903 n. la cienega blvd.','435 amsterdam ave.',310/652-9770,212-580-8686
624,286,'dining room  ritz-carlton  buckhead','chin\'s','3434 peachtree rd.','3200 las vegas blvd. s.',404/237-2700,702-733-8899
732,276,'bryant park grill  roof restaurant and bp cafe','san domenico','25 w. 40th st.  between 5th and 6th aves.','240 central park s.',212/840-6500,212-265-5959
1050,170,'stoyanof\'s cafe',majestic,'1240 9th ave.','1031 ponce de leon ave.',415/664-3664,404-875-0276
815,208,'l\'udo','roosevelt tamale parlor','432 lafayette st.  near astor pl.','2817 24th st.',212/388-0978,415-550-9213
817,24,'lanza restaurant','jan\'s family restaurant','168 1st ave.  between 10th and 11th sts.','8424 beverly blvd.',212/674-7014,213-651-2866
556,66,'yujean kang\'s gourmet chinese cuisine','uncle bill\'s pancake house','67 n. raymond ave.','1305 highland ave.',818/585-0855,310-545-5177
658,290,'california pizza kitchen','second street grill','207 s. beverly dr.','200 e. fremont st.',310/275-1101,702-385-6277
751,327,'casa la femme','plumpjack cafe','150 wooster st.  between houston and prince sts.','3127 fillmore st.',212/505-0005,415-563-4755
1020,119,'kabuto sushi','windows on the world','5116 geary blvd.','107th fl.',415/752-5652,212-524-7000
756,257,cite,'jo jo','120 w. 51st st.','160 e. 64th st.',212/956-7100,212-223-5656
846,273,'motown cafe',pisces,'104 w. 57th st.  near 6th ave.','95 ave. a',212/581-8030,212-260-6660
1039,77,pastis,'ej\'s luncheonette','1015 battery st.','432 sixth ave.',415/391-2555,212-473-5555
975,60,'golden steer','ruth\'s chris steak house (los angeles)','308 w. sahara ave.','224 s. beverly dr.',702/384-4470,310-859-8744
925,60,'coco loco','ruth\'s chris steak house (los angeles)','40  buckhead crossing mall on the sidney marcus blvd.','224 s. beverly dr.',404/364-0212,310-859-8744
683,270,'louise\'s trattoria','park avenue cafe (new york city)','4500 los feliz blvd.','100 e. 63rd st.',213/667-0777,212-644-1900
1040,59,'perry\'s','russell\'s burgers','1944 union st.','1198 pch',415/922-9022,310-596-9556
831,64,'lucky strike',taiko,'59 grand st.  between wooster st. and w. broadway','11677 san vicente blvd.',212/941-0479,310-207-7782
599,328,'union square cafe',postrio,'21 e. 16th st.','545 post st.',212/243-4020,415-776-7825
1062,80,'yank sing','good enough to eat','427 battery st.','483 amsterdam ave.',415/541-4949,212-496-0163
720,137,'arturo\'s','spago (las vegas)','106 w. houston st.  off thompson st.','3500 las vegas blvd. s.',212/677-3820,702-369-6300
775,146,'fifty seven fifty seven','bistro  the','57 e. 57th st.','56 e. andrews dr. nw',212/758-5757,404-231-5733
858,206,patria,'mo\'s burgers','250 park ave. s at 20th st.','1322 grant st.',212/777-6211,415-788-3779
660,130,cava,'mayflower cuisinier','3rd st.','4750 w. sahara ave.',213/658-8898,702-870-8432
1022,220,'kuleto\'s','art\'s deli','221 powell st.','12224 ventura blvd.',415/397-7720,818-762-1221
715,75,'alley\'s end','cucina di pesce','311 w. 17th st.','87 e. fourth st.',212/627-8899,212-260-6800
605,259,'second street grille','la cote basque','200 e. fremont st.','60 w. 55th st.',702/385-3232,212-688-6525
683,188,'louise\'s trattoria','cafe flore','4500 los feliz blvd.','2298 market st.',213/667-0777,415-621-8579
1035,279,oritalia,'shun lee palace','1915 fillmore st.','155 e. 55th st.',415/346-1333,212-371-8844
790,89,'gallagher\'s','la caridad','228 w. 52nd st.','2199 broadway',212/245-5336,212-874-2780
831,193,'lucky strike','dottie\'s true blue cafe','59 grand st.  between wooster st. and w. broadway','522 jones st.',212/941-0479,415-885-2767
751,49,'casa la femme','ocean star','150 wooster st.  between houston and prince sts.','145 n. atlantic blvd.',212/505-0005,818-308-2128
537,272,'cafe bizou',picholine,'14016 ventura blvd.','35 w. 64th st.',818/788-3536,212-724-8585
794,10,'golden unicorn','bristol farms market cafe','18 e. broadway at catherine st.','1570 rosecrans ave. s.','212/ 941-0911',310-643-5229
992,239,bix,'spago (los angeles)','56 gold st.','8795 sunset blvd.',415/433-6300,310-652-4025
733,261,c3,'les celebrites','103 waverly pl.  near washington sq.','155 w. 58th st.',212/254-1200,212-484-5113
974,215,'golden nugget hotel','trio cafe','129 e. fremont st.','1870 fillmore st.',702/385-7111,415-563-2248
1006,12,'gaylord\'s','cafe \'50s','ghirardelli sq.','838 lincoln blvd.',415/771-8822,310-399-1955
551,62,'philippe\'s the original','sushi nozawa','1001 n. alameda st.','11288 ventura blvd.',213/628-3781,818-508-7017
830,329,lola,'ritz-carlton dining room (san francisco)','30 west 22nd st.  between 5th and 6th ave.','600 stockton st.',212/675-6700,415-296-7465
923,95,cassis,'mitali east-west','3300 peachtree rd.  grand hyatt','296 bleecker st.',404/365-8100,212-989-1367
893,282,terrace,'tavern on the green','400 w. 119th st.  between amsterdam and morningside aves.','central park west',212/666-9490,212-873-3200
875,54,'sammy\'s roumanian steak house','poquito mas','157 chrystie st. at delancey st.','2635 w. olive ave.',212/673-0330,818-563-2252
646,57,bolo,'rubin\'s red hots','23 e. 22nd st.','15322 ventura blvd.',212/228-2200,818-905-6515
547,272,'locanda veneta',picholine,'3rd st.','35 w. 64th st.',310/274-1893,212-724-8585
743,130,'caffe dell\'artista','mayflower cuisinier','46 greenwich ave.','4750 w. sahara ave.',212/645-4431,702-870-8432
589,130,'rainbow room','mayflower cuisinier','30 rockefeller plaza','4750 w. sahara ave.',212/632-5000,702-870-8432
811,147,'judson grill','bobby & june\'s kountry kitchen','152 w. 52nd st.','375 14th st.',212/582-5252,404-876-3872
959,263,'bamboo garden',lutece,'4850 flamingo rd.','249 e. 50th st.',702/871-3262,212-752-2225
737,88,'cafe la fortuna','kuruma zushi','69 w. 71st st.','2nd fl.',212/724-5846,212-317-2802
1047,179,'splendido embarcadero','silver skillet  the',4,'200 14th st. nw',415/986-3222,404-874-1388
674,214,'hard rock cafe','ti couz','8600 beverly blvd.','3108 16th st.',310/276-7605,415-252-7373
803,45,'inca grill',mishima,'492 broome st.  near w. broadway','8474 w. third st.',212/966-3371,213-782-0181
886,316,'stage deli','cafe claude','834 7th ave.  between 53rd and 54th sts.','7 claude ln.',212/245-7850,415-392-3505
900,42,'tse yang','martha\'s','34 e. 51st st.','22nd street grill 25 22nd',212/688-5447,310-376-7786
669,92,eclipse,'lombardi\'s','8800 melrose ave.','32 spring st.',310/724-5959,212-941-7994
834,252,'mangia e bevi',felidia,'800 9th ave. at 53rd st.','243 e. 58th st.',212/956-3976,212-758-1479
588,234,pisces,'palm  the (los angeles)','95 ave. a at 6th st.','9001 santa monica blvd.',212/260-6660,310-550-8811
