ID_A,ID_B,Name_A,Name_B,Zipcode_A,Zipcode_B,Address_A,Address_B
7278,300,Doughnut Plant,Go 4 Food,10002,60616,"379 Grand Street, New York",212 W 23rd St
6755,464,Seamore's,JK Kabab House,10013,60645,"390 Broome Street, New York",6412 N Rockwell St
1927,573,Jimmy's Food Store,Falafel & Grill,75206,60622,"4901 Bryan Street, Dallas",1317 N Milwaukee Ave
7010,1779,Lavo,Metro Cafe,10022,90038,"39 East 58th Street, New York, NY",Hollywood Production Center1149 N Gower St
501,1249,Summer House Santa Monica,Senor Bean Mexican Grill- Cantina,60614,75201,"1954 N. Halsted Street, Chicago",708 Olive St
690,1966,Garcia's Restaurant,Mapo Kkak Doo Gee Restaurant,60625,90020,"4749 N. Western Avenue, Chicago",3611 W 6th St
7610,379,Jekyll and Hyde,Bernie’s Lunch & Supper,10014,60654,"91 7th Avenue South, New York",660 N Orleans St
6577,2640,El Cantinero,Heartland Grill,10003,53713,"86 University Place, New York, NY",706 John Nolen Dr
7159,2969,Gyu-Kaku,Milio’s Sandwiches,10022,53713,"805 3rd Avenue, New York",2570 Rimrock RdSte 110
3613,357,Maggiano's Little Italy,Estrella Negra,91367,60647,6100 Topanga Canyon Blvd,2346 W Fullerton Ave
6186,285,Mudville 9,Shawarma Garden,10007,60622,"126 Chambers Street, New York",1951 W Division St
1399,673,Ipsento,Las Palmas,60647,60622,"2035 N. Western Avenue, Chicago",1835 W North Ave
955,3612,Riva Crabhouse,El Luchador,60611,10038,"Navy Pier, 600 E. Grand Avenue, Chicago",87 South St
2553,432,Ginger Thai,Old Lviv,91303,60622,22330 Sherman Way,2228 W Chicago Ave
7178,2470,Ayza Wine & Chocolate Bar,Ian’s Pizza By The Slice,10016,53703,"11 West 31st Street, New York",319 N Frances St
3742,2796,La Cava,Vientiane Palace Restaurant,91423,53703,13565 Ventura Blvd,151 W Gorham St
405,500,Sushi House,The Monarch,60187,60622,281 Rice Lake Square,1745 W North Ave
6656,812,Casellula Cheese and Wine Cafe,Urban Blend,10019,75202,"401 W 52nd Street, New York",Antioch Church805 Elm St
5725,2728,Pantheon Bar,Eldorado Grill,53703,53703,"316 State St, Madison",744 Williamson St
970,3428,BAT 17,Casa Adela,60201,10009,1709 Benson Avenue,66 Ave C
3118,3839,Corky's Restaurant,Pickle Shack,91403,11215,5043 Van Nuys Blvd,256 4th Ave
116,3555,Cooper's Hawk Winery & Restaurant,983-Bushwick’s Living Room,60090,11206,583 N. Milwaukee Avenue,983 Flushing Ave
2244,290,Starbucks,Breakfast House,75201,60622,"1700 Pacific Avenue, Lower Level, Dallas",1800 W Grand Ave
4875,3345,Burrito Drive,Locanda Verde,53703,10013,"310 S Brearly St, Madison",377 Greenwich St
6038,3165,Wu Liang Ye,Draft House Bar & Restaurant,10036,53593,"36 W 48th Street, New York",1010 Enterprise Dr
2290,2315,Iron Wok,Pollos El Brasero,75287,90006,"4520 Frankford Road, Suite 100, Dallas",2281 W Pico Blvd
324,970,Sesame Inn,Bob’s Steak & Chop House,60805,75202,2941 W. 95th Street,555 S Lamar St
3590,3765,The Tam O'Shanter,Forno Pizzeria E Trattoria,90039,11378,"2980 Los Feliz Blvd, Los Angeles",52-27 69th St
1328,3754,Feed,Balzem,60622,10012,2803 W. Chicago Avenue,202 Mott St
6036,1937,Caffe Napoli,Berlins,10013,90048,"191 Hester Street, New York",8474 W 3rd St
1695,3732,Cafe Pacific,Govinda’s Vegetarian,75205,11217,"24 Highland Park Village, Dallas",305 Schermerhorn St
1305,2415,DMK Burger Bar,Takumi Japanese Restaurant,60657,53704,"2954 N. Sheffield Avenue, Chicago",4222 E Towne Blvd
7595,2885,Campbell Apartment,Chang Jiang Chinese Restaurant,10017,53719,"Grand Central Terminal, 15 Vanderbilt Avenue, New York",646 S Gammon Rd
5092,1086,Rosie's Coffee Bar and Bakery,Hook Line & Sinker,53716,75204,"4604 Monona Dr, Madison",3103 Lemmon Ave
7078,2380,Sea Restaurant,Le Petit Croissant,11249,53711,"114 N 6th Street, Brooklyn",1310 Midvale Blvd
2327,891,Palihouse Courtyard Brasserie,St. Pete’s Dancing Marlin,90069,75226,8465 Holloway Dr,2730 Commerce St
3697,1290,The Stinking Rose,Al Biernat’s,90211,75219,55 N La Cienega Blvd,4217 Oak Lawn Ave
6152,2494,Amarone Ristorante,Indie Coffee,10036,53715,"686 9th Avenue, New York, NY",1225 Regent St
4879,400,Toby's Supper Club,Ruby’s Fast Food,53718,60618,"3717 S Dutch Mill Rd, Madison",3740 W Montrose Ave
25,357,Bistronomic,Estrella Negra,60611,60647,"840 N. Wabash Avenue, Chicago",2346 W Fullerton Ave
4966,3564,Laredo's Mexican Restaurante,Mamoun’s Falafel,53711,10012,2935 S Fish Hatchery Rd,119 MacDougal St
7477,2538,Taboon,Stalzy’s Deli,10019,53704,"773 10th Avenue, New York",2701 Atwood Ave
5423,3919,Milton Family Restaurant,sweetgreen,53563,11211,541 Vernal Ave,162 N 4th St
3600,3462,Park's BBQ,The Jeffrey Craft Beer & Bites,90006,10022,"955 S Vermont Ave, Los Angeles",311 E 60th St
2606,3487,Hara Sushi,Ñaño Ecuadorian Kitchen,90025,10036,"12222 willshire blvd, Los Angeles",691 10th Ave
3668,3708,Laurel Tavern,M.O.B.,91604,11217,11938 Ventura Blvd,525 Atlantic Ave
3613,26,Maggiano's Little Italy,Naf Naf Grill,91367,60601,6100 Topanga Canyon Blvd,326 N Michigan Ave
444,2749,Matsuya,Milio’s Sandwiches,60657,53718,3242 N. Clark Street,5534 Eastpark Blvd
1130,359,Alfie's Inn,White Oak Tavern & Inn,60137,60614,425 Roosevelt Road,1200 W Webster Ave
2853,1628,Sofra Kabab Express,Bulgogi Hut,90034,90010,"10821 Venice Blvd., Los Angeles",3600 Wilshire BlvdSte 100C
6890,2282,Boulud Sud,Khun Dom Thai,10023,90029,"20 West 64th Street, New York",4681 Melrose Ave
891,1162,Dixie Kitchen & Bait Shop,IVY Kitchen,60438,75254,2352 E. 172nd Street,5411 Beltline Rd
3438,491,Jersey Mike's Subs,Snappy’s Shrimp House,91356,60613,19458 Ventura Blvd,1901 W Irving Park Rd
613,82,Jam,Antique Taco,60647,60622,"3057 W. Logan Boulevard, Chicago",1360 N Milwaukee Ave
1782,3354,Stephan Pyles,Smithfield,75201,10001,"1807 Ross Avenue, Suite 200, Dallas",138 W 25th St
570,190,Phoenix,Monti’s,60616,60625,"2131 S. Archer Avenue, Chicago",4757 N Talman Ave
5845,1926,Le Village,Providence,10009,90038,"127 E 7th Street, New York",5955 Melrose Ave
952,1431,Ruxbin,Resto Gastro Bistro,60622,75212,"851 N. Ashland Avenue, Chicago","Trinity Groves3011 Gulden Ln, Ste 104"
2618,2907,Chick-fil-A,Milio’s Subs,90028,53704,"6750 W Sunset Blvd, Los Angeles",2045 Atwood Ave
6970,2414,David Burke Kitchen,Toby’s Supper Club,10013,53718,"23 Grand Street, New York",3717 S Dutch Mill Rd
5887,812,Nook Restaurant,Urban Blend,10019,75202,"746 9th Avenue, New York",Antioch Church805 Elm St
6681,1299,Austin Public,Sangria Tapas Y Bar,11375,75205,"70-28 Austin Street, Queens",4524 Cole Ave
2661,3328,Church Key,Ampersand,90069,10010,8730 W Sunset Blvd,294 3rd Ave
4956,571,Sauk Prairie Eagle Inn,Mexique,53578,60622,655 Water St,1529 W Chicago Ave
6308,3302,Bodrum,Baron’s,10024,11205,"584 Amsterdam Avenue, New York",564 Dekalb St
7584,3876,Inatteso Pizzabar Casano,Loi Estiatorio,10004,10019,"28 West Street, New York",132 W 58th St
1845,1523,Crooked Tree Coffeehouse,The Sycamore Kitchen,75201,90036,"2414 Routh Street, Dallas",143 S La Brea Ave
3248,899,C & M Cafe,Cosmic Café,90034,75219,"3272 Motor Ave, Los Angeles",2912 Oak Lawn Ave
3628,2274,Millie's,Berry Que,90026,90028,"3524 W Sunset Blvd, Los Angeles",1707 N. Las Palmas Ave.
2314,954,P.F. Chang's,Luna’s Tortilla Factory,75225,75235,"NorthPark Center, 8697 North Central Expressway, Level One, Dallas",8524 Harry Hines Blvd
5039,928,Pitcher's Pub,Desperados Mexican Restaurant,53713,75206,"323 W Beltline Hwy, Madison",4818 Greenville Ave
5777,1426,Super Tienda Latina,Neighborhood Services Bar & Grill,53716,75230,"6005 Monona Dr., Madison",10720 Preston Rd
772,1934,Kuma's Corner,Cali’s,60618,90020,"2900 W. Belmont Avenue, Chicago",534 S Westmoreland AveSte 104
2579,847,Four Cafe,Twisted Root Burger Co.,90041,75206,2122 1/2 Colorado Blvd,5609 SMU BlvdSuite 102
1245,904,Dryhop Brewers,Nora Restaurant and Bar,60657,75206,"3155 N. Broadway Street, Chicago",1928 Greenville Ave
2443,77,Cafe Chez Marie,Zia’s Lago Vista,90025,60613,"10681 Santa Monica Blvd, Los Angeles",3819 N Ashland Ave
2287,1966,Best Thai,Mapo Kkak Doo Gee Restaurant,75230,90020,"5959 Royal Lane, Dallas",3611 W 6th St
6344,382,Dani's House of Pizza,Tank Noodle Restaurant,11415,60640,"81-28 Lefferts Boulevard, Queens",4953 N Broadway
796,1315,Blind Faith Cafe,Firexbox,60201,75238,525 Dempster Street,9918 Plano Rd
1816,2392,Bone Daddy's House Of Smoke,Francisco’s Mexican Cantina,75240,53703,"8856 Spring Valley Road, Dallas",121 E Main St
5236,2277,Paul's Pel'meni,EMC Seafood & Raw Bar,53703,90020,"203 West Gorham Street, Madison",3500 W 6th StSte 101
1130,3595,Alfie's Inn,Bistro Les Amis,60137,10012,425 Roosevelt Road,180 Spring St
5652,1773,Falbo Bros. Pizzeria,Noshi Sushi,53704,90004,"1207 N Sherman Ave, Madison",4430 Beverly Blvd
934,928,Oceanique,Desperados Mexican Restaurant,60202,75206,505 Main Street,4818 Greenville Ave
997,535,The Wormhole Coffee,Tarboush Mediterranean Grill,60622,60622,"1462 N. Milwaukee Avenue, Chicago",1608 W North Ave
6965,2248,Estela,Xiomara,10012,90038,"47 E Houston Street, New York",6101 Melrose Ave
204,1732,TAC Quick Thai Kitchen,Hyperion Public,60613,90027,"3930 N. Sheridan Road, Chicago",2538 Hyperion Ave
3188,3029,Brass Monkey,Wendy’s,90005,53704,"659 S Mariposa Ave, Los Angeles",3910 E Washington Ave
4834,1163,Fresco,State & Allen Kitchen+Bar,53703,75204,"227 State St, Madison",2400 Allen St
1098,1952,Mon Ami Gabi,Taste of Tehran,60523,90025,"Oak Brook Mall, 260 Oakbrook Center",1915 Westwood Blvd
429,3517,Moy Goy Inn,Adrienne’s Pizzabar,60525,10004,719 W. Hillgrove Avenue,54 Stone St
3673,1559,Cha Cha Cha,sweetgreen,90004,90048,"656 N Virgil Ave, Los Angeles",8055 W 3rd St
1911,2700,Goff's Hamburgers,The Admiralty,75205,53703,"6401 Hillcrest Avenue, Dallas",The Edgewater666 Wisconsin Ave
2827,3965,Bistro Ka Japanese Restaurant,Molly’s,91303,10010,6600 Topanga Canyon Blvd #2010a,287 3rd Ave
591,1057,Athenian Room,Holy Ravioli,60614,75225,"807 W. Webster Avenue, Chicago",4446 Lovers Ln
4928,634,UNO Chicago Grill,Blaze Fast-Fire’d Pizza,53717,60661,"7601 Mineral Point Rd, Madison",24 S Clinton St
2077,2513,Trailercakes Cupcakes,The Knuckle Down Saloon,75205,53716,"3001 Knox Street, Suite 101",2513 Seiferth Rd
4862,2902,Oakcrest Tavern,Monona Garden Family Restaurant,53705,53713,"5371 Old Middleton Rd, Madison",6501 Bridge Rd
3210,1953,Giovanni's Trattoria,Park’s BBQ,90232,90006,10026 Venice Blvd,955 S Vermont Ave
1311,321,Aria Restaurant,Taco el Jalisciense,60601,60622,"Fairmont Chicago Millenium Park, 200 N. Columbus Drive",2859 W Chicago Ave
763,2528,MingHin Cuisine,Bassett Street Brunch Club,60616,53703,"2168 S. Archer Avenue, Chicago",444 W Johnson St
1635,1462,Kenichi,Highland Park Cafeteria,75219,75218,"2400 Victory Park Lane, Dallas",1200 N Buckner Blvd
4250,1857,PhoShow,Hinoki & The Bird,90230,90067,4349 Sepulveda Blvd,10 W Century Dr
4740,994,Famous Dave's,Meso Maya,53715,75202,"900 S Park St, Madison",1611 McKinney Ave
6514,728,L'Apicio,T & B Grill,10003,60625,"13 E 1st Street, New York",3658 W Lawrence Ave
1187,207,Burnt Toast,Southport & Irving - SIP,60123,60613,2492 N. Randall Road,4000 N Southport Ave
2873,1007,Genwa,Offshore’s Nextdoor,90048,75238,"170 North La Cienega Boulevard, Los Angeles",9660 Audelia RdSte 304
631,3602,Frasca Pizzeria and Wine Bar,Room 55,60657,11385,"3358 N. Paulina Street, Chicago",75-01 88th St
6641,3329,The 5 and Diamond Restaurant,OTB,10026,11211,"2072 Frederick Douglass Boulevard, New York",141 BroadwayWilliamsburg
7654,3589,Haldi,Kofte Piyaz,10016,11232,"102 Lexington Avenue, New York, NY",881 5th Ave
889,2663,Indie Cafe,Chipotle Mexican Grill,60660,53704,"5951 N. Broadway Street, Chicago",4628 E Washington Ave
5974,3298,Loukoumi Taverna,Okonomi,11105,11211,"45-07 Ditmars Boulevard, Queens",150 Ainslie St
2441,2482,Jinky's Cafe,Cheba Hut,91604,53703,4000 Colfax Ave,453 W Gilman St
3293,576,Baja Fresh Mexican Grill,The Warehouse Bar & Pizzeria Chicago,91602,60614,10760 Riverside Dr,1419 W Fullerton Ave
1732,604,Gold Rush Cafe,O’Cha Thai Cuisine,75206,60647,"1913 Skillman Street, Dallas",2062 N Damen Ave
1430,2985,Kit Kat Lounge and Supper Club,Taco Bell,60613,53719,"3700 N. Halsted Street, Chicago",698 S. Whitney Way
2579,670,Four Cafe,Sheffield’s,90041,60657,2122 1/2 Colorado Blvd,3258 N Sheffield Ave
2154,3149,Benny's Classic Grill,DumplingHaus,75218,53705,10302 Garland Road,702 N Midvale Blvd
839,1436,Hub 51,Ginger Thai Cuisine,60654,75214,"51 W. Hubbard Street, Chicago",6434 E Mockingbird LnSte 111
5463,3724,Panchero's Mexican Grill,Tony’s Di Napoli,53719,10036,"402 S Gammon Road, Madison",147 W 43rd St
2434,22,Folliero Pizza & Italian Food,The Aberdeen Tap,90042,60642,"5566 N Figueroa St, Los Angeles",440 N Aberdeen St
5484,1187,The Side Door Grill and Tap,Dicks’ Succulent Chicken,53703,75212,"240 West Gilman Street, Madison",2910 Ruder St
592,125,Tapas Barcelona,Cafe Urbano,60201,60618,1615 Chicago Avenue,4176 N Elston Ave
1560,3924,Bolsa,Manny’s,75208,11233,"614 W Davis Street, Suite 100, Dallas",212 Patchen Ave
2826,13,L.A. Chapter,Lula Cafe,90015,60647,"929 S Broadway, Los Angeles",2537 N Kedzie Blvd
2643,2732,Menchie's Frozen Yogurt,Chili’s Bar & Grill,91607,53704,"4849 Laurel Canyon Blvd, Valley Village",4344 E Towne Blvd
3440,3849,California Donuts,PIOPIO,90028,10036,"5753 Hollywood Blvd, Los Angeles",604 10th Ave
6667,1192,Ed's Lobster Bar,Maple Leaf Diner,10012,75230,"222 Lafayette Street, New York",12817 Preston RdSte 129
6838,1726,PDT (Please Don't Tell),Gardner Junction,10009,90046,"113 Saint Marks Place, New York",1451 N Gardner St
4983,2311,Mermaid Cafe,Golden Mongolian Restaurant,53704,90010,"1929 Winnebago St, Madison",3012 Wilshire Blvd
6604,1389,Cowgirl Seahorse,The Oceanaire Seafood Room,10038,75295,"259 Front Street, New York",13340 Dallas Pkwy
1638,895,Sweet Georgia Brown,Y O Ranch Steakhouse,75216,75202,"2840 E Ledbetter Drive, Dallas",702 Ross Ave
2215,1448,Kalachandji's Restaurant & Palace,Dugg Burger,75223,75218,"5430 Gurley Avenue, Dallas",9540 Garland RdSte 407
5854,1642,Village Yokocho,Backyard Bowls,10003,90048,"8 Stuyvesant Street, New York",8303 Beverly Blvd
2654,2363,Fugetsu-Do,Hoy-Ka Thai Noodles,90012,90028,"315 E 1st St, Los Angeles",5908 Sunset Blvd
327,3254,Plush Horse Ice Cream,YUJI Ramen,60464,11211,12301 South 86th Ave,150 Ainslie St
925,2848,Sheffield's,Plata’s Restaurant at Bridges Golf Course,60657,53704,"3258 N. Sheffield Avenue, Chicago",2702 Shopko Dr
395,218,Capannari Ice Cream,Lavash Mediterranean Grill,60056,60661,10 S. Pine Street,651 W Washington Blvd
4160,3998,Tahoe Galbi,Monsignor’s Restaurant,90010,11215,"3986 Wilshire Blvd, Los Angeles",679 5th Ave
219,1839,El Taco Grande,Blind Weasel,60510,90036,6 N. River Street,850 S La Brea Ave
5790,970,SOBs,Bob’s Steak & Chop House,10014,75202,"204 Varick Street, New York",555 S Lamar St
7391,4010,Spiegel,Pokito,10009,11211,"26 1st Avenue, New York",155 S 4th St
6669,1792,Lily Thai,The Flavor Table,11211,90043,"615 Grand St, Brooklyn",2812 W Florence Ave
6550,2617,East Village Pizza and Kebabs,Tornado Steak House,10003,53703,"145 1st Avenue, New York",116 S Hamilton St
1587,3351,Ocean Prime,Print,75201,10036,"2101 Cedar Springs Road, Dallas",653 11th Ave
7182,1605,Bonnie's Grill,Bao Dim Sum House,11215,90048,"278 5th Avenue, Brooklyn",8256 Beverly Blvd
4197,514,Bucato,Pannenkoeken Cafe,90034,60625,"3280 Helms Ave, Los Angeles",4757 N Western Ave
6020,1904,Pier A,Mo Better Burgers,10004,90036,"22 Battery Place, New York",901 S La Brea AveSte 2
1612,3004,Spork,Wendigo,75252,53589,"6110 Frankford Road, Dallas",121 East Main St
97,965,Prosecco,Houston’s Restaurant,60610,75254,"710 N. Wells Street, Chicago",5318 Belt Line Rd
7673,726,Il Bastardo,Belly Shack,10011,60647,"191 7th Avenue, New York",1912 N Western Ave
4118,316,Intelligentsia Coffee,DryHop Brewers,90291,60657,1331 Abbot Kinney Blvd,3155 N Broadway
440,702,Chef's Burger Bistro,Tacos Tequilas,60611,60618,"164 E. Grand Avenue, Chicago",2919 N Milwaukee Ave
3963,1597,Dan Tana's,Buil Samgye Tang,90069,90020,"9071 Santa Monica Blvd, Los Angeles",4204 W 3rd St
6903,3347,Thai Select,Park Avenue Tavern,10018,10016,"472 9th Avenue, New York",99 Park Ave
3267,1216,Sul & Beans,Pera Turkish Kitchen,90005,75252,"621 Western Ave, Los Angeles",17479 Preston Rd
3635,1554,Tsujita LA,Jun Won Restaurant,90025,90005,"2057 Sawtelle Blvd, Los Angeles",3100 W 8th StSte 101
1734,534,Rafa's Cafe,Tom Yum Cafe,75209,60657,"5617 W Lovers Lane, Dallas",608 W Barry Ave
6899,2664,Schmackary's,Uno Pizzeria & Grill,10036,53718,"362 W 45th Street, New York, NY",3010 Crossroads Drive
413,3411,Great Seas Chinese Restaurant,Westville,60625,10014,"3254 W. Lawrence Avenue, Chicago",210 W 10th St
818,169,Kamehachi,Papa’s Cache Sabroso,60610,60622,"1531 N. Wells Street, Chicago",2517 W Division St
2789,493,Atch-Kotch Japanese,Old Town Social,90038,60610,"1253 Vine St, Los Angeles",455 W North Ave
1723,1521,Mattito's Tex-Mex,The Hart & The Hunter,75230,90048,"7778 Forest Lane, Dallas",7950 Melrose Ave
3819,1801,Cut,Yang San Bak,90212,90020,9500 Wilshire Blvd,3601 W 6th St
3662,1936,Cici's Cafe,Shojin Downtown,91356,90013,"18912 Ventura Blvd, Los Angeles",333 S Alameda StSte 310
1543,1057,Cowboy Chicken,Holy Ravioli,75206,75225,"5315 Greenville Avenue, Dallas",4446 Lovers Ln
1536,175,Cane Rosso,First Draft,75214,60605,"7328 Gaston Avenue, Suite 100, Dallas",649 S Clark St
5511,1437,Layla's Persian Food,El Come Taco,53703,75204,"141 South Butler Street, Madison",2513 N Fitzhugh Ave
2263,3466,Sherlock's Baker St. Pub & Grill,MangoSeed Restaurant,75231,11226,"9100 N Central Expressway, Dallas",757 Flatbush Ave
1183,3199,Spacca Napoli,Pizza Pit,60640,53714,"1769 W. Sunnyside Avenue, Chicago",13 Atlas Ct
5338,1752,Milio's Sandwiches,Sushi Enya,53593,90012,1011 North Edge Trl,343 E 1st St
427,348,Chowpatti Vegetarian Restaurant,La Brasa Roja,60005,60618,"Chowpatti Plaza, 1035 S. Arlington Heights Road",3125 W Montrose Ave
2624,1568,Apollonia's Pizzeria,Mercado,90036,90048,"5176 Wilshire Blvd, Los Angeles",7910 W 3rd St
3600,470,Park's BBQ,Fabulous Freddies Italian Eatery,90006,60616,"955 S Vermont Ave, Los Angeles",701 W 31st St
7504,1201,Applewood,Howard Wang’s Uptown,11215,75204,"501 11th Street, Brooklyn",3223 Lemmon AveSte 103
4887,1530,Ruth's Chris Steak House,Biriyani Kabob House,53562,90020,2137 Deming Way,3525 W 3rd St
2054,1273,B.B.Bop Seoul Kitchen,Mexicali Restaurant,75206,75238,"5323 Greenville Avenue Suite 5, Dallas",11277 E NW HwySte 148
493,4006,Small Bar,51st Bakery and Cafe,60618,11101,"2956 N. Albany Avenue, Chicago",5-33 51st Ave
1371,2572,Baby Back Blues,Osteria Papavero,60586,53703,23145 W Lincoln Highway Suite 7,128 E Wilson St
4145,3677,Giamela's Submarine Sandwiches,Lamazou,90039,10016,"3178 Los Feliz Blvd, Los Angeles",370 3rd Ave
3729,2856,Tacos Delta,Angelo’s,90026,53558,"3806 W Sunset Blvd, Los Angeles",4706 Farwell St
7086,1395,Paris Baguette,Snuffer’s Restaurant & Bar,10001,75225,"6 West 32nd Street, New York",8411 Preston RdSte 112
7026,946,Waldy's Wood Fired Pizza & Penne,Mesa,10001,75208,"800 Sixth Avenue, New York",118 W Jefferson Blvd
14,999,The Happ Inn Bar & Grill,John’s Cafe,60093,75206,"The Shops Of Northfield Village Square, 305 Happ Road",1733 Greenville Ave
5965,1306,BXL Cafe,Meerut Kabob House,10036,75229,"125 W 43rd Street, New York",11276 Harry Hines Blvd
1923,1345,Pappas Bar-B-Q,Gonzalez Restaurant,75220,75208,"2231 W NW Highway, Dallas",367 W Jefferson Blvd
181,460,Sweet Baby Ray's,La Pane,60191,60618,249 E. Irving Park Road,2954 W Irving Park Rd
2696,1534,Castle BBQ,Undergrind Cafe,90004,90034,"473 North Western Avenue, Los Angeles",2713 S Robertson Blvd
1181,1740,Luella's Southern Kitchen,Versailles Restaurant,60625,90035,"4609 N. Lincoln Avenue, Chicago",1415 S La Cienega Blvd
4077,1945,Hugo's Tacos,ISA Japanese Restaurant,91604,90036,"4749 Coldwater Canyon Ave, Studio City",916 S La Brea Ave
3230,856,Chabuya Tokyo Noodle Bar,Royal Thai,90025,75206,"2002 Sawtelle Blvd, Los Angeles",5500 Greenville Ave
3674,957,A.O.C.,Sakhuu Thai Cuisine,90048,75204,"8700 W 3rd St, Los Angeles",4801 Bryan StSte 100
4147,300,Tara's Himalayan Cuisine Express,Go 4 Food,90007,60616,"1277 W Jefferson Blvd, Los Angeles",212 W 23rd St
7689,3637,Buddakan,Jack’s Wife Freda,10011,10014,"75 9th Avenue, New York",50 Carmine St
3268,587,Hanabi Sushi,Sapori Trattoria,91335,60614,17711 Saticoy St,2701 N Halsted St
5813,3274,Stanton Social,L’Artusi,10002,10014,"99 Stanton Street, New York",228 W 10th St
3536,2446,Vinoteque on Melrose,Opus Lounge,90046,53703,"7469 Melrose Ave, Los Angeles",116 King St
2896,1362,El Gallo Grill,Rudy’s Chicken,90022,75216,"4533 E Cesar E Chavez Ave, Los Angeles",3115 S Lancaster Rd
6520,3396,Little Italy Pizza,The Green Table,10023,10011,"2047 Broadway, New York",Chelsea Market75 9th Ave
3226,3824,Rise n Shine Cafe,Bricolage,91040,11217,9685 Sunland Blvd,162 5th Ave
3997,797,Izakaya Honda-Ya,RollnGo,90013,75206,"333 S Alameda St # 314, Los Angeles",6110 Greenville AveSte 100
2961,2237,India Sweets & Spices,Young Dong Restaurant,90232,90010,9409 Venice Blvd,3828 Wilshire Blvd
3286,3346,Bea's Bakery,Casa Enrique,91356,11101,18450 Clark St,5-48 49th Ave
6003,2884,Pasha Turkish,Michael’s Frozen Custard,10023,53714,70 W 71st Street,3826 Atwood Ave
757,1230,Big & Little's,Kaze,60657,75231,"1034 W. Belmont Avenue, Chicago",7525 Greenville Ave
4165,920,Ugly Roll Sushi,Abacus,90034,75205,"11128 Palms Blvd, Los Angeles",4511 McKinney Ave
5425,777,Papa Jimmy's Pizzeria,Sugar Skull Cafe,53527,75212,224 West Cottage Grove Rd,3011 Guilden LnSte102
2522,2332,La Serenata de Garibaldi,Shaky Alibi,90033,90036,"1842 E 1st St, Los Angeles",7401 Beverly Blvd
2507,1907,Govinda's Natural Food,Gigi’s Bakery & Café,90034,90026,"3764 Watseka Ave, Los Angeles",2200 W Temple St
2049,2627,Fearing's - The Ritz-Carlton,Library Mall,75201,53706,"The Ritz-Carlton, 2121 McKinney Avenue, Dallas",728 State St
1056,2819,Flub A Dub Chubs,Dairyland Family Restaurant,60657,53716,"3021 N. Broadway Street, Chicago",716 Cottage Grove Rd
914,3285,Potbelly,Spaghetti Incident,60638,10002,"Chicago Midway International Airport, Main Terminal, Boulevard, Chicago",231 Eldridge St
6015,3043,Petey's Burger,El Burrito Loco,11102,53717,"3017 30th Avenue, Queens",745 N High Point Rd
321,2002,Westwood Tavern & Tap,KaGaYa,60173,90012,1385 Meacham Road,418 E 2nd St
7531,767,Bukhara Grill,Lyfe Kitchen - West Village,10017,75204,"217 East 49th Street, New York",3699 Mckinney AveSte A-221
694,3278,Weber Grill Restaurant,Pig And Khao,60148,10002,2331 Fountain Square Drive,68 Clinton St
6711,1732,Gregory's Coffee,Hyperion Public,10001,90027,"874 6th Avenue, New York",2538 Hyperion Ave
6907,2602,Angelo's Pizza,Vintage Spirits & Grill,10019,53703,"117 W 57th Street, New York",529 University Ave
3778,253,Colori Kitchen,Park Tavern,90014,60612,"429 W 8th St, Los Angeles",1645 W Jackson Blvd
7539,691,Juliette,Fish N Go,11211,60625,"135 N 5th Street, Brooklyn",4749 N Pulaski Rd
1413,1520,The Assembly,Open Sesame,60169,90036,"2570 Hassell Road, Hoffman Estates",7458 Beverly Blvd
7209,2478,Tertulia,Ladonia Cafe,10014,53703,"359 Sixth Avenue, New York",Mifflin and Pinckney
6962,3916,Great N.Y. Noodletown,Atrium DUMBO,10013,11201,"28 Bowery, New York",15 Main St
6169,1364,Yama,Phò Envy,10003,75225,"122 E 17th Street, New York",8611 Hillcrest RdSte 190
7246,3440,L'Express,Gentleman Farmer,10003,10002,"249 Park Avenue South, New York",40 Rivington St
853,2099,Pump Room,Casa Chocolate,60610,90019,"Public Chicago Hotel, 1301 N. State Parkway, Chicago",3319 W Pico Blvd
1367,3545,Emilio's Tapas Bar,Flatiron Room,60162,10010,4100 Roosevelt Road,37 W 26th St
6198,3609,MexiBBQ,Masseria Dei Vini,11103,10019,"37-11 30th Avenue, Queens",887 9th Ave
3618,1252,Il Capriccio on Vermont,Carmine’s Pizza,90027,75201,"1757 N Vermont Ave, Los Angeles",2006 San Jacinto St
3950,3731,Cooks County,Petite Crevette,90048,11231,"8009 Beverly Blvd, Los Angeles",144 Union St
6930,2883,Land Thai Kitchen,The Cooper’s Tavern,10024,53703,"450 Amsterdam Avenue, New York",20 W Mifflin St
343,1760,Chicago Q,Tsuri,60610,90038,"1160 N. Dearborn Street, Chicago",7015 Melrose Ave
6209,2849,La Casa Del Mofongo,Toppers Pizza,10033,53717,"1447 Saint Nicholas Avenue, New York, NY",7850 Mineral Point Rd
1541,1019,Nonna,Roly Poly,75219,75205,"4115 Lomo Alto Drive, Dallas",3038 Mockingbird Ln
849,1276,Connie's Pizza,Villa-O,60616,75205,"2373 S. Archer Avenue, Chicago",4514 Travis StSte 132
5926,1709,BonChon Chicken,Gentleman’s,10018,90034,"207 W 38th Street, New York",10002 National Blvd
2299,1310,Jersey Mike's,C’Viche,75206,75206,"5521 Greenville Avenue, Dallas",1922 Greenville Ave
6046,1872,The Standard Grill,Kush Sake Bar,10014,90026,"The Standard High Line, 848 Washington Street, New York",1356 Allison Ave
6815,571,Sardi's,Mexique,10036,60622,"234 W 44th Street, New York",1529 W Chicago Ave
5867,1566,AA Jing,Kobawoo House,10036,90005,"689 9th Avenue, New York, NY",698 S Vermont AveSte 109
3465,2877,Casa Vega,Gordon Avenue Market,91423,53715,"13301 Ventura Blvd, Los Angeles",770 West Dayton St
1709,3413,The Idle Rich Pub,Sottocasa Pizzeria,75204,11201,"2614 McKinney Avenue, Dallas",298 Atlantic Ave
7258,3439,Dos Caminos,Upstate,10014,10003,"675 Hudson Street, New York",95 1st Ave
1476,1160,Sambuca,Parigi Restaurant,75201,75219,"2120 McKinney Avenue,  Dallas",3311 Oak Lawn AveSte 102
4475,331,Bangkok Cuisine,Hakka Bakka,53703,60614,"600 Williamson St., Madison",1251 W Fullerton Ave
5815,3542,Live Bait,Eataly NYC,10010,10010,"14 E 23rd Street, New York",200 5th Ave
986,1180,Big Bowl,European In Texas Market & Deli,60089,75243,215 Parkway Drive,11613 N Central ExpySte 111A
6308,3879,Bodrum,Two 8 Two,10024,11201,"584 Amsterdam Avenue, New York",282 Atlantic Ave
1158,3351,Riccardo Trattoria,Print,60614,10036,"2119 N. Clark Street, Chicago",653 11th Ave
2188,2852,Easy Slider,Mercado Merimar,75212,53719,"Location Varies, Dallas",807 S Gammon Rd
549,376,Chicago Cut Steakhouse,Chilango Mexican Street Food,60654,60607,"300 N. LaSalle Street, Chicago",1437 W Taylor St
4262,1952,Foundation Room,Taste of Tehran,90069,90025,8430 W Sunset Blvd,1915 Westwood Blvd
2592,3593,Rush Street,Taboonette,90232,10003,9546 Washington Blvd,30 E 13th St
5194,2495,Cento,The Tipsy Cow,53703,53703,"122 W Mifflin St, Madison",102 King St
59,3010,Community Tavern,Jimmy John’s,60641,53704,"4038 N. Milwaukee Avenue, Chicago",1791 Thierer Rd
6845,1803,Joe's Shanghai,JINYA Ramen Bar,10013,90036,"9 Pell Street, New York",5168 Wilshire Bld
2954,2088,Rocco's Tavern,Hot Wings Cafe,91604,90038,12514 Ventura Blvd,7011 Melrose Ave
3234,3718,Thai Original BBQ & Restaurant,Egg Shop,90020,10012,"4055 W 3rd St, Los Angeles",151 Elizabeth St
7366,2650,P.J. Clarke's,4&20 Bakery & Cafe,10023,53704,"44 West 63rd Street, New York",305 N 4th St
5012,1444,Anna's Pizzeria,Kenichi,53590,75219,1609 W Main St,2400 Victory Park Ln
5820,342,Brooklyn Bowl,Cochon Volant,11211,60603,"61 Wythe Ave, Brooklyn",100 W Monroe St
5111,1991,Salamone's Italian Pizzeria,Ondal 2,53538,90016,1245 Madison Ave,4566 W Washington Blvd
3204,1544,Boca,Myung Dong Kyoja,90015,90010,"800 W Olympic Blvd, Los Angeles",3630 Wilshire Blvd
5369,3696,Maharani Indian Restaurant,Gotan,53703,10013,"380 W Washington Ave, Madison",130 Franklin St
2311,930,Rapscallion,Kostas Cafe,75206,75206,"2023 Greenville Avenue, Suite 110, Dallas",4914 Greenville Ave
3386,2263,Pok Pok Phat Thai,The Fix Burger,90012,90027,"727 N Broadway, Los Angeles",2520 Hyperion Ave
1975,926,Red Curry,Southpaw’s Organic Café,75287,75225,"3628 Frankford Road, Suite 255, Dallas",6009 Berkshire Ln
7576,1027,Bella Vita,True Food Kitchen,10036,75225,"211 W 43rd Street, New York","The Plaza at Preston Center8383 Preston Ctr Plz, Ste 100"
7483,980,Blue Ribbon Fried Chicken,Tampopo Japanese Cafe,10003,75206,"28 E 1st Street, New York",6130 Greenville AveSte 100
7375,3594,Bobby Van's Grill,Her Name is Han,10020,10016,"135 W 50th Street, New York",17 E 31st St
2020,776,Raising Cane's,Seasons 52,75206,75225,"5030 Greenville Avenue, Dallas",8687 N Central ExpySte  B307
6311,3572,Milk Burger,Purbird,10029,11217,"2051 2nd Avenue, New York",82 Sixth Ave
5055,2693,Plaza Tavern & Grill,Gooseberry on the Square,53703,53703,"319 N Henry St, Madison",1 S Pinckney StSte 104
1174,3839,Alhambra Palace,Pickle Shack,60607,11215,"1240 W. Randolph Street, Chicago",256 4th Ave
3543,1768,Amorino Beverly Hills,Seoul Garden Restaurant,90210,90006,9605 S Santa Monica Blvd,1833 W Olympic Blvd
7626,3757,Wafflaki Belgian Waffles,Turntable Chicken Jazz,10006,10001,"97 Trinity Place, New York",314 5th Ave2nd Fl
7169,2603,Five Guys Burgers and Fries,China Wok,10019,53704,"43 W 55th Street, New York",1724 Fordem Ave
6114,3632,Three of Cups,Cubana Socíal,10003,11249,"83 1st Avenue, New York",70 N 6th St
2445,2397,Yokumon,Ichiban Sichuan,90230,53715,10818-B Jefferson Boulevard,610 S Park St
62,2493,Chuck's: A Kerry Simon Kitchen,El Pastor,60601,53713,"Hard Rock Hotel, 224 N. Michigan Avenue, Chicago",2010 S Park St
6654,853,Plaka Mediterranean Grill,Torteria Insurgentes,11370,75220,"75-61 31st Avenue, Queens",3701 W Northwest HwySte 310
7311,3382,Del Posto,Le Parisien,10011,10016,"85 10th Avenue, New York",163 E 33rd St
2596,3235,Bamboo Inn,FREEHOLD,91423,11249,14010 Ventura Blvd,45 S 3rd St
6704,3973,Sushi Yasaka,Calle Ocho,10023,10024,"251 West 72nd Street, New York",Inside the Excelsior Hotel45 W 81st St
5886,2937,Periyali,1847 At the Stamm House,10011,53562,"35 W 20th Street, New York",6625 Century Ave
7288,2755,Pete's Tavern,Ginza of Tokyo,10003,53719,"129 East 18th Street, New York",6734 Odana Rd
7642,2485,Forlini's Restaurant,Freshii,10013,53719,"93 Baxter Street, New York",422 Gammon Pl
505,442,Green Street Smoked Meats,Green Tomato Cafe,60607,60623,"112 N. Green Street, Chicago",3750 W Ogden Ave
5820,3365,Brooklyn Bowl,Vitae,11211,10017,"61 Wythe Ave, Brooklyn",4 E 46th St
6643,2495,Wondee Siam V,The Tipsy Cow,10025,53703,"969 Amsterdam Avenue, New York",102 King St
7519,2355,Two Hands,25 Degrees,10013,90028,"164 Mott Street, New York",Hollywood Roosevelt Hotel7000 Hollywood Blvd
2052,175,Monkey King Noodle Co.,First Draft,75226,60605,"3014 Main Street, Dallas",649 S Clark St
2986,3810,CF Food Kitchen and Catering,Ana & Sophie’s,91344,11201,16205 Devonshire St.,194 Court St
547,3906,Farmhouse,Mercato,60654,10018,"228 W. Chicago Avenue, Chicago",352 W 39th St
6459,3597,West New Malaysia Restaurant,Coney Shack,10013,11224,"48 Bowery Street, New York",2909 W 8th St
2890,3214,Tacos Villa Corona,New Orleans Take-Out,90039,53704,"3185 Glendale Blvd., Los Angeles",1920 Fordem Ave
7681,1284,Posto,Franki’s Pizza & Pasta,10003,75229,"310 2nd Avenue, New York",11722 Marsh Ln
5789,169,McGee's Pub and Restaurant,Papa’s Cache Sabroso,10019,60622,"240 W 55th Street, New York",2517 W Division St
6757,2101,Lucky's Famous Burgers,Organic Corner Cafe,10019,90017,"370 W 52nd Street, New York",1001 Wilshire Blvd
6061,3679,Sombrero,Scarpetta,10036,10014,"303 West 48th Street, New York",355 W 14th St
2793,2677,Lark Cake Shop,Wingstop,90026,53715,"3337 West Sunset Boulevard, Los Angeles",1234 Regent St
3774,189,Jitlada Thai,Hopleaf,90027,60640,"5233 W Sunset Blvd, Los Angeles",5148 N Clark St
2435,45,Madame Matisse,Gyu-Kaku Japanese BBQ,90026,60607,"3536 W Sunset Blvd, Los Angeles",1364 W. Randolph St
4103,301,Tropicana Bakery,Perennial Virant,90241,60614,10218 Paramount Blvd.,1800 N Lincoln Ave
3958,272,Kanpai Sushi Bar and Grill,Boka,90045,60614,8325 Lincoln Blvd,1729 N Halsted St
1164,2185,Top Notch Beefburger,"Taste of The Caribbean, LA",60643,90028,"2116 W. 95th Street, Chicago",1642 N Cahuenga Blvd
2299,3567,Jersey Mike's,Endless Summer,75206,11205,"5521 Greenville Avenue, Dallas",525 DeKalb Ave
5,1341,BluFish Sushi Bistro,Tacos Y Mas,60026,75206,"Plaza Del Prado, 2733 Pfingsten Road",2820 Greenville Ave
2006,869,Nora Restaurant and Bar,Baboush,75206,75204,"1928 Greenville Avenue, Dallas",3636 Mckinney AveSte 160
7527,387,St. Anselm,Bandera Restaurant,11211,60611,"355 Metropolitan Ave, Brooklyn",535 N Michigan Ave
2105,1601,Yolk,The Golden State,75201,90036,"1722 Routh Street, Dallas",426 N Fairfax Ave
5404,3806,Topper's Pizza,Kabob Shack,53719,11211,"6291 McKee Rd., Suite F",182 Havemeyer St
7108,510,Thai Market,Mia Figlia,10025,60646,"960 Amsterdam Avenue, New York",5304 W Devon Ave
5827,3476,Casa Bella Restaurant,Ital Kitchen,10013,11225,"127 Mulberry Street, New York",1032 Union St
7275,1376,By Chloe,Torchy’s Tacos,10012,75218,"185 Bleecker Street, New York",Casa Linda Plaza9440 Garland Rd
2143,3658,C'Viche,Cafe Cluny,75206,10014,"1922 Greenville Avenue, Dallas",284 W 12th St
3274,1874,Verve Coffee Roasters / Juice Served Here,Guadalupe’s Place,90014,90038,"833 S Spring St, Los Angeles",5028 Melrose Ave
2641,4010,Souplantation,Pokito,90049,11211,"11911 San Vicente Blvd, Los Angeles",155 S 4th St
6363,3294,Grom Gelato,BeeHive Oven Biscuit Cafe,10019,11211,"1796 Broadway, New York",182 S 2nd St
2412,1907,Gelato Bar,Gigi’s Bakery & Café,91604,90026,4342 Tujunga Ave,2200 W Temple St
5565,3986,Prairie Diner,Ootoya Greenwich Village,53590,10003,1034 Windsor St,41 E 11th St
1386,2667,Stacked,Five Guys Burgers and Fries,60453,53703,5273 W. 95th Street,517 State St
5197,4002,Nick's Restaurant,Cafe Triskell,53703,11106,"226 State St, Madison",33-04 36th Ave
3258,3016,Rose Cafe,The Fountain,90291,53703,220 Rose Ave,122 State St
2097,1172,Olive Garden,Joe’s Pizza Pasta and Subs,75243,75220,"9079 Vantage Point Drive, Dallas",4343 West Northwest Hwy
6949,2888,Alice's Tea Cup Chapter II,Applebee’s,10021,53711,"156 E 64th Street, New York",660 S Whitney Way
7073,1057,Absolute Bagels,Holy Ravioli,10025,75225,"2788 Broadway, New York",4446 Lovers Ln
7171,2829,Maison Kayser,Falbo Bros Pizza Sherman,10010,53704,"921 Broadway, New York",1207 N Sherman Avenue
6630,2054,Epicerie Boulud,Thirteen XIII Soju Bar,10023,90019,"1900 Broadway, New York",4121 W Olympic Blvd
4051,2281,Fabrocini's Italian,The Hollywood Corner,91356,90038,18608 Ventura Blvd,1156 N Highland Ave
7296,1291,Bann,Babb Bros BBQ,10019,75212,"350 W 50th Street, New York",330 Bedford St
6691,3413,Ponty Bistro,Sottocasa Pizzeria,10003,11201,"218 3rd Avenue, New York",298 Atlantic Ave
2463,716,Coolhaus,RM Champagne Salon,90232,60607,8588 Washington Blvd.,116 N Green St
3702,2793,Gyu-Kaku,Casa de Lara,91423,53703,14455 Ventura Blvd,341 State St
926,2630,Nookies Too,Nitty Gritty Birthday Bar,60614,53703,"2112 N. Halsted Street, Chicago",223 N Frances St
2148,31,Uptown Pub,Bar Siena,75204,60607,"3605 McKinney Avenue, Dallas",832 W Randolph St
3591,2674,Gyu-Kaku,Aldo’s Cafe,90211,53715,163 N La Cienega Blvd,330 N Orchard St
3490,486,Hugo's,Same Day Cafe,91607,60647,"12851 Riverside Dr, Studio City",2651 N Kedzie Ave
2026,1292,Jorge's Tex-Mex,Project Pie,75201,75225,"One Arts Plaza, 1722 Routh Street, Dallas",6030 Luther Ln
3500,2341,Road To Seoul,Panini Cafe,90006,90048,"1230 S Western Avenue, Los Angeles",8054 W 3rd St
7127,3916,Lindy's,Atrium DUMBO,10019,11201,"825 7th Avenue, New York",15 Main St
853,2174,Pump Room,Feng Mao Lamb Kebab,60610,90020,"Public Chicago Hotel, 1301 N. State Parkway, Chicago",414 S Western Ave
5991,979,Armani/Ristorante 5th Avenue,Proof + Pantry,10022,75201,"717 5th Avenue, New York",1722 Routh StSte 102
917,3327,Topolobampo,La Cigogne,60610,11231,"445 N. Clark Street, Chicago",215 Union St
4843,3174,Benvenuto's Italian Grill,Pizza Bella,53711,53711,2949 Triverton Pike Dr,1437 Regent St
3263,2580,Qusqo Bistro & Gallery,Takara,90025,53774,"11633 Santa Monica Blvd, Los Angeles",696 S Whitney Way
3078,2973,Original Thai,HomeTown Buffet,91602,53704,11363 Riverside Dr,1745 Parkside Dr
1231,2303,Stoney River Steakhouse and Grill,Big Mango Cafe,60010,90094,20504 N. Rand Road,12035 Waterfront DrSte 104
7000,2993,Fette Sau,Abuelo’s,11211,53562,"354 Metropolitan Avenue, Brooklyn",2229 Deming Way
1158,564,Riccardo Trattoria,Star Kitchen,60614,60616,"2119 N. Clark Street, Chicago",3110 S Shields Ave
4316,1648,Tropicalia Brazilian Grill,Seafood Express,90027,90057,"1966 Hillhurst Ave, Los Angeles",2122 Beverly Blvd
3642,2391,Il Cielo,Pat O’Malley’s Jet Room,90211,53704,9018 Burton Way,3606 Corben Ct
5370,1803,Capri Steak House,JINYA Ramen Bar,53925,90036,126 S Ludington St,5168 Wilshire Bld
6738,2580,Margon,Takara,10036,53774,"136 W 46th Street, New York",696 S Whitney Way
2097,783,Olive Garden,CBD Provisions,75243,75201,"9079 Vantage Point Drive, Dallas",1530 Main St
5243,2787,KJ's Curry Bowl,Buckingham’s Bar & Grill,53717,53715,"7005 Tree Lane, Madison",802 Regent St
5413,2200,Salvatore's Tomato Pies,Rascal,53590,90036,503 W. Main St.,801 S LA Brea Ave
1306,2367,AJ's Hot Dogs & Gyros,Mercado Hollywood,60451,90068,342 W. Maple Street,3413 Cahuenga Blvd W
6295,1060,Troy,Jimmy’s Food Store,10306,75206,2271 Hylan Boulevard,4901 Bryan St
3074,1360,India's Tandoori,Old World Sausage Company,90036,75201,"5468 Wilshire Blvd., Los Angeles","Dallas Farmers Market1010 S Pearl, Ste 2"
7552,2990,Sushi Nakazawa,Taigu,10014,53562,"23 Commerce Street, New York",7610 Elmwood Ave
7630,2561,Joanne Trattoria,The Madison Blind,10023,53703,"70 W 68th Street, New York",601 Langdon St
5084,4041,The Rigby Pub & Grill,Cafe Habana,53703,10012,"119 E Main St, Madison",17 Prince St
5637,1539,Headquarters Bar & Grill,Guelaguetza Restaurante,53575,90006,101 Concord Dr,3014 W Olympic Blvd
5382,3255,Teriyaki Sushi Express,Bondurants,53713,10028,3044 Fish Hatchery Rd,303 E 85th St
6304,2912,Once Upon a Tart,Steak Escape,10012,53704,"135 Sullivan Street, New York",213 East Towne Mall
572,934,Howells & Hood,Ten Bells Tavern,60611,75208,"Tribune Tower, 435 N. Michigan Avenue, Chicago",232 W 7th St
1960,3796,Nick & Sam's Steakhouse,Five Tacos,75201,10009,"3008 Maple Avenue, Dallas",119 St Marks Pl
4239,3400,Ernie's Mexican,Bunker Vietnamese,91602,11385,4410 Lankershim Blvd,46-63 Metropolitan Ave
1391,1614,Buca di Beppo,Chunju Han-il Kwan,60090,90020,604 N. Milwaukee Avenue,3450 W 6th StSte 106
1246,1455,Nico Osteria - Thomson Hotels Chicago,Qariah Lebanese Restaurant & Lounge,60611,75206,"Thomson Hotels Chicago, 1015 N. Rush Street",1811 Greenville AveSte 145
5093,1869,Klassik Tavern,Ohana Poké Co,53593,90026,410 w verona ave,2852 W Sunset Blvd
6942,2347,Vanessa's Dumpling House,La Caridad Restaurant,10002,90026,"118A Eldridge Street, New York",2619 W Sunset Blvd
6762,3500,Sobakoh,Open Door,10003,11101,"309 E 5th Street, New York",1009 50th Ave
4220,2511,Krua Thai,Madison Club,91605,53703,13130 Sherman Way,5 E Wilson St
6590,3990,Toloache 50,David Burke Kitchen,10019,10013,"251 W 50th Street, New York",23 Grand St
3667,1464,Beer Belly,Salata,90020,75204,"532 S Western Ave, Los Angeles",3000 Blackburn St
6854,925,Grotta Azzurra Ristorante,Original Market Diner,10013,75219,"177 Mulberry Street, New York",4434 Harry Hines Blvd
5378,3155,Spartan Pizza,Rocky Rococo Pan Style Pizza,53558,53716,5813 Main St,4556 Monona Dr
984,236,Shanghai Terrace,TáKoz,60611,60612,"The Peninsula, 108 E. Superior Street, 4th Floor, Chicago",2229 W Taylor St
277,1049,Mott Street,Preston Hollow Grill,60622,75220,"1401 N. Ashland Avenue, Chicago",4343 W Northwest HwySte 300
7440,4014,Totonno's,Café Sabarsky,11224,10028,"1524 Neptune Avenue, Brooklyn",Neue Galerie1048 5th Ave
2849,1654,Knuckle & Claw,The Foodshop,90026,90004,"3112 Sunset Blvd, Los Angeles",147 N Western Ave
6709,2457,Da Marcella,Wings Over Madison,10012,53705,"142 W Houston Street, New York",2739 University Ave
4283,256,Guisados West Hollywood,Takos Koreanos,90069,60640,"8935 Santa Monica Boulevard, Los Angeles, CA",1706 W Foster Ave
3047,2385,Native Foods Cafe,Curry in the Box,90024,53705,"1114 Gayley Ave, Los Angeles",3519 University Ave
1950,1707,Cadot Restaurant,Palm Grove Ethiopian Restaurant,75252,90018,"18111 Preston Road, Suite 120, Dallas",1905 S Western Ave
1638,2977,Sweet Georgia Brown,Athens Gyros,75216,53711,"2840 E Ledbetter Drive, Dallas",1614 Monroe St
324,1765,Sesame Inn,Wah’s Golden Hen,60805,90029,2941 W. 95th Street,709 N Virgil Ave
724,1042,Buffalo Joe's,The Crab Station - Oyster Bar,60201,75243,"812 Clark Street, Chicago",9780 Walnut StSuite 270
5648,2312,Cocina Real,Charcoal BBQ Bourbon & Beer,53562,90027,2518 Allen Blvd,2611 N Hyperion Ave
6962,1613,Great N.Y. Noodletown,Gochew Grill,10013,90007,"28 Bowery, New York",3670 Broadway Pl
3285,2704,Xi'an,Guantanamera,90210,53703,362 N Canon Dr,141 S Butler St
3292,3681,Ocho Mexican Grill,Soba-ya,90017,10003,"630 W 6th St Ste 110A, Los Angeles",229 E 9th St
1967,1552,Bob's Steak and Chop House - Omni Hotel Dallas,The Boiling Crab,75202,90010,"Omni Hotel Dallas, 555 South Lamar Street, Dallas",3377 Wilshire BlvdSte 115
333,3285,One North Kitchen and Bar,Spaghetti Incident,60606,10002,"1 N. Wacker Drive, Chicago",231 Eldridge St
7385,3651,Sammy's Fish Box,Roberta’s,10464,11206,"41 City Island Avenue, Bronx",261 Moore St
3343,757,Library Bar at the Roosevelt Hotel,Flaming Cheese Saganaki,90028,75243,"7000 Hollywood Blvd, Los Angeles",9025 Forest Ln
3766,3066,Blvd 16,Forage Kitchen,90024,53703,"10740 Wilshire Blvd, Los Angeles",665 State St
6237,3971,Home,Black Tree,10014,10002,"20 Cornelia Street, New York",131 Orchard St
1598,3914,Original Pancake House,Delaware and Hudson,75204,11211,"2900 Lemmon Avenue, Dallas",135 N 5th St
3295,3713,Otomisan,The Smith,90033,10022,"2506 1/2 E 1st St, Los Angeles",956 2nd Ave
1038,328,P.F. Chang's,Sultan’s Market,60611,60647,"530 N. Wabash Avenue, Chicago",2057 W North Ave
6557,4048,Le Bernardin,Set L.E.S.,10019,10002,"155 W 51st Street, New York",127 Ludlow St
4094,1034,Hama Sushi Restaurant,La Victoria,90291,75204,213 Windward Ave,1605 N Haskell Ave
5399,2535,Sunprint On The Square,Parkway Family Restaurant,53703,53713,"10 W. Mifflin St., Madison",1221 Ann St
7360,1648,Superfine,Seafood Express,11201,90057,"126 Front Street, Brooklyn",2122 Beverly Blvd
5266,2064,Fit Fresh Cuisine,Jay’s Bar,53719,90029,2881 Commerce Park Drive,4321 Sunset Blvd
3026,2772,Bel Air Bar & Grill,Marigold Kitchen,90049,53703,"662 N Sepulveda Blvd, Los Angeles",118 S Pinckney St
7556,1618,Tenzan,KazuNori,10023,90013,"285 Columbus Avenue, New York",421 S Main St
2915,2106,Four'n 20 Restaurant & Pie,The Blue Star,91607,90021,4723 Laurel Canyon Blvd,2200 E 15th St
1766,3164,20 Feet Seafood Joint,Maria’s Pizza,75218,53575,"1160 Peavy Road, Dallas",134 S Main St
708,3104,Bistrot Zinc,Mekong,60610,53703,"1131 N. State Street, Chicago",600 Williamson StSte G
632,2547,Magnolia Bakery,Minerva Indian Cuisine,60602,53717,"Block 37, 108 N. State Street, Chicago",515 Junction Rd
895,2627,Alinea,Library Mall,60614,53706,"1723 N. Halsted Street, Chicago",728 State St
4280,1510,Dr. Sandwich,VH Casual Dining & Bar,90212,75203,9113 W Olympic Blvd,1115 N Beckley Ave
918,2012,El Mariachi Tequila Bar & Grill,Arashi Sushi,60657,90015,"3420 N. Broadway Street, Chicago",1111 S Hope StSte 100
7680,1484,Mexican Radio,Pho Colonial,10012,75201,"19 Cleveland Place, New York",1623 Main StSte 102
5756,3216,Shack,Cafe Porta Alba,53515,53705,1103 Mills St,Hilldale Mall558 N Midvale Blvd
856,1474,Next,Campisis,60607,75209,"953 W. Fulton Market, Chicago",5405 W Lovers Ln
983,3704,Weber Grill Restaurant,ilili,60654,10001,"Hilton Garden Inn, 539 N. State Street, Chicago",236 5th Ave
2132,1370,VH Casual Dining and Bar,Mike’s Chicken,75203,75219,"1115 N Beckley Avenue, Dallas",4234 Maple Ave
162,2086,Apple Villa Famous Pancake House,Della Terra,60192,90036,3101 N. Barrington Road,7675 Beverly Blvd
1635,996,Kenichi,Avilas Mexican Restaurant,75219,75219,"2400 Victory Park Lane, Dallas",4714 Maple Ave
489,905,Maria's Mexican Restaurant,Winslow’s,60656,75219,"9440 Foster Avenue, Chicago",3908 Cedar Springs Rd
1351,2690,Redstone American Grill,Newell’s Deli,60181,53715,13 Lincoln Court,35 N Park St
4278,13,Mimi's Cafe,Lula Cafe,90039,60647,"2925 Los Feliz Blvd, Los Angeles",2537 N Kedzie Blvd
2713,3036,Swork,Cousins Subs,90041,53703,"2160 Colorado Blvd, Los Angeles",106 S Webster St
2814,3399,Home Restaurant,Mémé Mediterranean,90039,10014,"2500 Riverside Dr, Los Angeles",581 Hudson St
6926,1375,Aureole,Cosmo’s Bar & Lounge,10036,75206,"135 W 42nd Street, New York",1212 Skillman St
2100,2273,Bugatti Ristorante,The New Moon,75220,90015,"3802 W Northwest Highway, Dallas",102 W 9th St
1824,236,Lover's Pizza Pasta & Grill,TáKoz,75218,60612,9440 Garland Road,2229 W Taylor St
2564,2763,Muddy Leek,Northside Family Restaurant,90232,53704,8631 Washington Blvd,1201 N Sherman Ave
381,2853,Michael's,Double S BBQ,60613,53711,"4091 N. Broadway, Chicago",1835 Monroe St
7562,497,Masala Times,Cafe Colao,10012,60622,"194 Bleecker Street, New York",2638 W Division St
7496,3991,Paulie Gee's,Tiny’s & the Bar Upstairs,11222,10013,"60 Greenpoint Avenue, New York",135 W Broadway
1326,746,Morrie O'Malley's,The Publican,60609,60607,"3501 S. Union Avenue, Chicago",837 W Fulton Market
3545,1713,Alegria on Sunset,Mendocino Farms,90026,90071,"3510 W Sunset Blvd, Los Angeles",735 S Figueroa St
435,2446,Blueberry Hill Pancake House,Opus Lounge,60561,53703,"7340 Route 83, Chicago",116 King St
6353,3727,Little Italy Pizzeria,Nish Nush,10036,10013,"55 W 45th Street, New York",88 Reade St
2913,2898,Cinco de Mayo,Jimmy John’s,90230,53703,11204 Washington Place,527 State St
1320,2490,Brick House Tavern + Tap,Fit 2 Eat,60515,53705,1461 Butterfield Road,3742 Speedway Rd
6867,1458,Five Napkin Burger,Ten Eleven Grill,10036,75215,"630 9th Avenue, New York",1011 Corinth St
5191,1574,Swagat Restaurant,El Zarape,53717,90029,"707 N High Point Rd, Madison",5203 Fountain Ave
5817,3617,Lupe's East LA Kitchen,Bao Bao Cafe,10013,10010,"110 6th Avenue, New York",61 Lexington AveUnit B
435,1170,Blueberry Hill Pancake House,The People’s Last Stand,60561,75206,"7340 Route 83, Chicago",5319 E Mockingbird LnSte 210
2747,3267,Jones Hollywood,Coppelia,90046,10011,7205 Santa Monica Blvd,207 W 14th St
2196,143,John's Cafe,Boeufhaus,75206,60622,"1733 Greenville Avenue, Dallas",1012 N Western Ave
491,3319,Egg Shack,Five Leaves,60827,11222,"1727 W. 127th Street, Chicago",18 Bedford Ave
3789,3672,Du-Par's,The Good Fork,91604,11231,"12036 Ventura Blvd, Los Angeles",391 Van Brunt St
878,1390,Bobtail Ice Cream Company,Blackjack Pizza,60657,75215,"2951 N. Broadway Street, Chicago",2536 Mrtn Lthr Kng Jr
781,3460,Dave's Italian Kitchen,99 Favor Taste,60201,10002,1635 Chicago Avenue,285 Grand St
227,2418,Ain't She Sweet Cafe,Brocach,60653,53711,526 E. 43rd Street,1843 Monroe St
5884,232,Maria Pia,Inspiration Kitchens,10019,60624,"319 W 51st Street, New York",3504 W Lake St
7158,1066,Caspiy,Jen’s Place,11235,75244,"1309 Avenue Z, Brooklyn",4455 Alpha Rd
6299,2464,The Shop,Great Dane Pub & Brewing,10017,53705,"The Andaz 5th Avenue Hotel, 485 5th Avenue, New York",357 Price Pl
217,259,Rainforest Cafe,bopNgrill Belmont,60031,60657,"Gurnee Mills Mall, 6170 W. Grand Avenue",921 W Belmont Ave
5708,1159,Asian House,Full Circle Tavern,53714,75215,"1 Dempsey Rd, Madison",1319 S Lamar St
4970,298,Famous Yeti's Pizza,Summer House,53589,60614,971 N Page St,1954 N Halsted St
3421,3885,Eat Well,Le Paddock,90046,11218,8252 Santa Monica Blvd,1235 Prospect Ave
5850,3948,Shi,Lillie’s Victorian Bar & Restaurant,11109,10019,"4720 Center Boulevard, Queens",249 W 49th St
6862,1603,La Bonne Soupe,Public School 213,10019,90017,"48 W 55th Street, New York",612 Flower St
6087,2354,Claudette,Umami Burger,10003,90015,"24 Fifth Avenue, New York",852 S Broadway
5687,2237,Silly Yak Bakery & Bread Barn,Young Dong Restaurant,53717,90010,"7866 Mineral Point Rd, Madison",3828 Wilshire Blvd
3870,3301,Tatsu Ramen,Friedman’s,90025,10018,"2123 Sawtelle Blvd, Los Angeles",450 10th Ave
3725,1852,Zinque,El Flamin’ Taco,90291,90020,"600 Venice Blvd, Los Angeles",505 S Vermont Ave
231,2386,Truth,Asian Sweet Bakery,60435,53715,808 W. Jefferson Street,1017 S Park St
1529,3761,Anvil Pub,Malaparte,75226,10014,"2638 Elm Street, Dallas",753 Washington St
4001,2595,Kushiyu,The Old Fashioned,91356,53703,18713 Ventura Blvd,23 N Pinckney St
4427,451,Nature's Bakery Cooperative,Meli Cafe & Juice Bar,53703,60661,"1019 Williamson St, Madison",301 S Halsted St
5491,248,Sofra Family Bistro,Bar Takito,53562,60607,7457 Elmwood Ave,201 N Morgan St
1324,1515,Lawrence's Fish & Shrimp,Monkey King Noodle Co.,60616,75226,"2120 S. Canal Street, Chicago",3014 Main St
539,774,Gino's East,Kozy Kitchen,60611,75205,"162 E. Superior Street, Chicago",4433 McKinney Ave
2084,3845,Cafe de France,Café Orlin,75252,10003,"17370 Preston Road, Dallas",41 St Marks Pl
6951,2254,Obao,Cabbage Patch,10036,90014,"647 9th Avenue, New York",520 W 6th St
2439,3798,Barrel & Ashes,Milk & Honey,91604,11230,"11808 Ventura Blvd, Los Angeles",1119 Newkirk Ave
4929,800,Panera Bread,Si Tapas,53717,75204,"601 Junction Rd Ste 12, Madison",2207 Allen St
6911,496,Joe's Pizza,ORD Pizzeria,10014,60613,"7 Carmine Street, New York",1607 W Montrose Ave
6668,3137,John's Pizza of Times Square,Halverson’s Supper Club,10036,53589,"260 W 44th Street, New York",1965 Barber Dr
468,16,Pizzeria Brandi,Charlatan,60616,60642,"67 E. Cermak Road, Chicago",1329 W Chicago Ave
2821,170,Delmonico's Lobster House,Cooper’s,91436,60657,16358 Ventura Blvd,1232 W Belmont Ave
7565,390,Il Gattopardo,Homestead On The Roof,10019,60622,"13 W 54 Street, #15, New York",1924 W Chicago Ave
7076,66,Agave,The Kitchen Chicago,10014,60654,"140 7th Avenue South, New York",316 N Clark St
3256,1617,Plancha Taco,Wurstküche,90048,90013,"8250 W 3rd St #108, Los Angeles",800 E 3rd St
5366,3956,Maple Tree Restaurant,Joe Allen,53558,10036,6010 US Highway 51,326 W 46th St
5723,2182,Irish Pub,The Punchbowl,53703,90027,"317 State St Ste A, Madison",4645 Melbourne Ave
5182,138,Fair Oaks Diner,Fontano Foods,53714,60607,"44 S Fair Oaks Ave, Madison",1058 W Polk St
7624,753,Le Gigot,Fuel City Tacos,10014,75207,"18 Cornelia Street, New York",801 S Riverfront Blvd
6662,3159,Pete's Cafe,1855 Saloon and Grill,10458,53527,"570 E Fordham Rd, Bronx",218 S. Main Street
346,245,Thai Bowl,Masa Azul,60607,60647,"1049 W. Taylor Street, Chicago",2901 W Diversey Ave
3997,275,Izakaya Honda-Ya,Podhalanka,90013,60642,"333 S Alameda St # 314, Los Angeles",1549 W Division St
5830,1140,Crema Restaurante,Stratos Greek Taverna,10011,75220,"111 West 17th Street, New York",2907 W Northwest Hwy
4074,2191,Picca Peruvian Cantina,HMS Bounty,90035,90010,"9575 W Pico Blvd, Los Angeles",3357 Wilshire Blvd
7278,3048,Doughnut Plant,Burger King,10002,53704,"379 Grand Street, New York",2655 E Washington Ave
7675,2649,Milk Bar Brooklyn,Nick’s Bar & Restaurant,11238,53703,"620 Vanderbilt Avenue, Brooklyn",226 State St
7198,2790,Gyu-Kaku,Pizza Pit Extreme,10003,53719,"34 Cooper Square, New York",6628 Odana Rd
2101,1153,The Grill on the Alley,Pho Crimson,75240,75204,"Galleria Dallas, 13270 Dallas Parkway, Level one, Dallas",3000 Blackburn StSte 140C
811,2195,Dao Thai,Frankie’s,60611,90046,"230 E. Ohio Street, Chicago",7228 Melrose Ave
5025,638,Ian's Pizza by the Slice,Gale Street Inn,53703,60630,"319 N Frances St, Madison",4914 N Milwaukee Ave
265,2175,Jake Melnick's Corner Tap,Sapp Coffee Shop,60611,90027,"41 E. Superior Street, Chicago",5183 Hollywood Blvd
3110,3571,Pinot Grill,Zizi Limona,90012,11211,"135 N Grand Ave, Los Angeles",129 Havemeyer St
644,142,Tre Kronor,Pequod’s Pizzeria,60625,60614,"3258 W. Foster Avenue, Chicago",2207 N Clybourn Ave
1251,726,Emmett's Brewing Company,Belly Shack,60515,60647,5200 Main Street,1912 N Western Ave
7144,84,Hourglass Tavern,The Drinkingbird,10036,60614,"373 West 46th Street, New York",2201 N Clybourn Ave
4018,328,French Quarter Market Place,Sultan’s Market,90046,60647,7985 Santa Monica Blvd,2057 W North Ave
6919,3880,Lure Fishbar,Hu Kitchen,10012,10011,"142 Mercer Street, New York",78 5th Ave
6579,3950,The Kunjip,Giuseppina’s,10001,11215,"32 W 32nd Street, New York",691 6th ave
4101,1525,Kyoto's Sushi,Birch,91307,90028,"22906 Vanowen St, West Hills",1634 N Cahuenga Blvd
195,2691,Viaggio Ristorante & Lounge,Metropolitan Coffee and Wine,60607,53703,"1330 W. Madison Street, Chicago",329 W Mifflin St
6045,3229,Le Rivage,Freemans,10036,10002,"340 West 46th Street, New York",191 Chrystie StSte 2F
3017,3679,Solley's Restaurant & Deli,Scarpetta,91403,10014,4578 Van Nuys Blvd,355 W 14th St
549,4018,Chicago Cut Steakhouse,Juni,60654,10016,"300 N. LaSalle Street, Chicago",12 E 31st St
4961,20,Remi's Thirsty Moose,Wildberry Pancakes and Cafe,53955,60601,N3135 County Rd V,130 E Randolph St
5316,1218,Mason's on Main,The Nodding Donkey Greenville,53575,75206,113 South Main St,5600 SMU BlvdSte 120
4319,1130,Pomodoro Trattoria,Record Grill,90024,75202,"1393 Westwood Blvd, Los Angeles",605 Elm St
6994,1111,The Loeb Boathouse Central Park,La Hacienda Chichen - Itza,10021,75206,"East 72nd Street & Park Drive North, New York",5710 Richmond Ave
1948,1571,Carrabba's Italian Grill,Hiatus Urban Barbeque,75287,90019,"17548 Dallas Parkway, Dallas",1292 S La Brea Ave
6873,260,Il Bambino,A Tavola,11106,60622,"34-08 31st Avenue, Queens",2148 W Chicago Ave
2111,3220,Nickel & Rye,The Saint Austere,75201,11211,"2523 McKinney Avenue, Dallas",613 Grand St
6925,2637,Song,Bubbles’ Doubles,11215,53703,"295 5th Avenue, Brooklyn",2 East Mifflin St
1931,3393,Big Al's Smokehouse BBQ,The Marshal,75235,10036,"3317 Inwood Road, Dallas",628 10th Ave
6280,3592,Brooklyn Bagel & Coffee Company,Monument Lane,11106,10014,"35-05 Broadway, Queens",103 Greenwich Ave
2423,2132,Venice Beach Wines,Blazing Stone Pizza,90291,90032,529 Rose Ave,3501 Monterey Rd
2237,3254,Hunan Express,YUJI Ramen,75235,11211,"5323 Harry Hines Boulevard, Dallas",150 Ainslie St
4042,3215,District By Hannah An,People’s Bakery,90048,53704,"8722 W 3rd St, Los Angeles",2810 E Washington Ave
1344,797,Cesar's Killer Margaritas,RollnGo,60657,75206,"2924 N. Broadway Street, Chicago",6110 Greenville AveSte 100
7074,2146,Tacombi at Fonda Nolita,House of Macau,10012,90028,"267 Elizabeth Street, New York",1600 Vine St
7147,3761,Nan Xiang Xiao Long Bao,Malaparte,11354,10014,"38-12 Prince Street, Queens",753 Washington St
4401,3807,Mr Robert's,Gyu-Kaku Japanese BBQ,53704,10036,"2116 Atwood Ave, Madison",321 W 44th St
4316,2827,Tropicalia Brazilian Grill,Ginger Root,90027,53715,"1966 Hillhurst Ave, Los Angeles",1308 W Dayton St
7104,275,Red Lobster,Podhalanka,10036,60642,"5 Times Square, New York",1549 W Division St
879,3103,The Chicago Diner,P.F. Chang’s,60647,53562,"2333 N. Milwaukee Avenue, Chicago",2237 Deming Way
7182,1842,Bonnie's Grill,Takuma’s Burgers,11215,90026,"278 5th Avenue, Brooklyn",2939 W Sunset Blvd
6503,1141,Fedora Restaurant,Anvil Pub,10014,75226,"239 W 4th Street, New York",2638 Elm St
6608,2644,Hi-Life Bar & Grill,Steep & Brew,10024,53703,"477 Amsterdam Avenue, New York",544 State St
1081,1578,Vapiano,Powerplant Super Food Cafe,60603,90019,"44 S. Wabash Avenue, Chicago",5671 W Pico Blvd
3923,3216,Asahi Ramen,Cafe Porta Alba,90025,53705,"2027 Sawtelle Blvd, Los Angeles",Hilldale Mall558 N Midvale Blvd
3163,1659,SliceTruck,Vernetti,90025,90004,"2012 Sawtelle Blvd, Los Angeles",225 N Larchmont Blvd
6043,3052,DiWine,Signature Lounge,11103,53703,4115 31st Avenue,22 S Carroll St
1067,2018,Pasta Bowl,Berlin Currywurst,60614,90026,"2434 N. Clark Street, Chicago",3827 W Sunset Blvd
1678,3504,Luscher's Red Hots,Maharlika,75226,10003,"2653 Commerce Street, Dallas",111 1st Ave
426,1938,Kokopelli,Kabayo Cham Bada,60622,90004,"1324 N. Milwaukee Avenue, Chicago",201 N Western Ave
1561,2613,Bread Winners,Flaming Wok,75204,53704,"3301 McKinney Avenue, Dallas",4237 Lien RdSte H
6862,2724,La Bonne Soupe,Cool Beans Coffee Cafe,10019,53704,"48 W 55th Street, New York",1748 Eagan Rd
6876,2014,Isabella's,Best Fish Taco In Ensenada,10024,90027,"359 Columbus Avenue, New York",1650 Hillhurst Ave
1234,1005,M Burger,The Social House,60611,75201,"161 E. Huron Street, Chicago",2708 Routh St
5262,2770,Zoe's Pizzeria,Get Some Burritos,53597,53703,604 E Main,309 N  Henry St
2312,485,Royal Thai,La Catrina Cafe,75206,60608,"5500 Greenville Avenue, Suite 608, Dallas",1011 W 18th St
7100,1265,Rosa Mexicano,Rusty Taco,10023,75206,"61 Columbus Avenue, New York",4802 Greenville Ave
3483,3141,Villa Blanca Restaurant,Monte’s Grill & Pub,90210,53593,9601 Brighton Way,608A W Verona Ave
5153,340,Cranberry Creek Restaurant & Catering,Turquoise Restaurant,53713,60618,"1501 Lake Point Dr, Madison",2147 W Roscoe St
5586,1905,Deb's Squeeze Inn,Good-Ha Express,53563,90020,100 Front St,3324 W 6th St
5985,3636,Los Tacos No. 1,Ipanema Restaurant,10011,10036,"Chelsea Market, 75 9th Avenue, New York",43 W 46th St
4280,2734,Dr. Sandwich,Java Cat,90212,53716,9113 W Olympic Blvd,3918 Monona Dr
1731,1427,Cantina Laredo,Ojeda’s,75261,75219,"3200 East Airfield Drive, DFW Airport",4617 Maple Ave
4117,2497,Gangadin,Bahn Thai Restaurant,91604,53703,12067 Ventura Pl,944 Williamson St
6826,1080,Hill Country Chicken,Cindi’s NY Delicatessen Restaurant & Bakery,10010,75234,"1123 Broadway, New York",3565 Forest Ln
1244,2551,Wasabi,Capriotti’s Sandwich Shop,60647,53717,"2115 N. Milwaukee Avenue, Chicago",610 Junction RdSte 113
1890,320,True Food Kitchen,Scofflaw,75225,60647,"8383 Preston Center Plaza, Suite 100",3201 W Armitage Ave
5175,2949,Einstein Bros Bagels,China Kitchen,53703,53705,"652 State St, Madison",6608 Mineral Point Rd
4185,3391,Tart Restaurant,SoleLuna Restaurant,90036,11104,"115 S Fairfax Ave, Los Angeles",40-01 Queens Blvd
6352,3198,Egger's Ice Cream Parlor,Deforest Family Restaurant,10310,53532,1194 Forest Ave,505 W North St
280,1905,The Winchester,Good-Ha Express,60622,90020,"1001 N. Winchester Avenue, Chicago",3324 W 6th St
3032,3930,Midori Sushi Encino,Queens Comfort,91316,11103,17047 1/2 Ventura Blvd.,40-09 30th Ave
3567,2176,Terroni,Mirak 2,90036,90006,"7605 Beverly Blvd, Los Angeles",1101 S Vermont Ave
5109,2475,8 Seasons Grille,Mr. Brews Taphouse All American Burgers,53703,53717,"45 S. Bassett St, Madison",610 Junction RdSte 107
1737,920,The Egg & I,Abacus,75248,75205,"15203 Knoll Trail Drive, Dallas",4511 McKinney Ave
7276,1583,L'Ecole Restaurant,Son of a Gun,10013,90048,"462 Broadway, New York",8370 W 3rd St
998,2420,Triple Crown Restaurant,Estrellón,60616,53703,2217 S. Wentworth Avenue,313 W Johnson St
5423,2374,Milton Family Restaurant,Lazy Jane’s,53563,53703,541 Vernal Ave,1358 Williamson St
2232,3948,E Bar Tex Mex,Lillie’s Victorian Bar & Restaurant,75204,10019,"1901 N Haskell Avenue, Suite 120, Dallas",249 W 49th St
6155,3618,Cucina di Pesce,Little Mo,10003,11221,"87 E 4th Street, New York",1158 Myrtle Ave
3545,3568,Alegria on Sunset,Barn Joo,90026,10003,"3510 W Sunset Blvd, Los Angeles",893 Broadway
6280,2819,Brooklyn Bagel & Coffee Company,Dairyland Family Restaurant,11106,53716,"35-05 Broadway, Queens",716 Cottage Grove Rd
3821,696,Piknic,Artango Bistro,90094,60613,"13020 Pacific Promenade, Playa Vista",4217 N Ravenswood Ave
6372,2260,The Lion,Awoolim,10011,90006,"62 W 9th Street, New York, NY","Koreatown Plaza928 S Western Ave, Ste 125"
1795,3386,Dragonfly - Hotel Zaza,Samurai Papa,75201,11206,"Hotel Zaza, 2332 Leonard Street, Dallas",32 Varet St
4957,52,Red Lobster,Range,53704,60614,"4502 E Towne Blvd, Madison",1119 W Webster
7467,1939,Per Se,ISA Japanese Restaurant,10019,90036,"Time Warner Center, 10 Columbus Circle, 4th Floor, New York",916 S La Brea Ave
1523,1173,Pappasito's Cantina,Kuai Dumplings & Soups,75220,75202,"10433 Lombardy Lane, Dallas",Renaissance Tower1201 Elm St
3409,2419,Carmine's,Madison Food Explorers,90025,53704,"10463 Santa Monica Blvd, Los Angeles",2406 Upham St
5355,3401,Christy's Landing,My Pie,53711,10022,"2952 Waubesa Ave, Madison",696 Lexington Ave
7513,1984,The Smith,Yxta Cocina Mexicana,10023,90021,"1900 Broadway, New York",601 S Central Ave
7521,1932,Sevilla,Sweetsalt,10014,91602,"62 Charles Street, New York",10218 Riverside Dr
5828,253,RIstorante Saint Ambroeus,Park Tavern,10021,60612,"1000 Madison Avenue, New York",1645 W Jackson Blvd
7124,1474,Cabana,Campisis,11375,75209,107-10 70th Road,5405 W Lovers Ln
5549,2936,Rookies Food & Spirits,Jimmy John’s,53560,53715,10267 US Hwy 14,1 N Randall Ave
3976,1128,King Taco,Hunky’s Hamburgers,90022,75208,"4504 E 3rd St, Los Angeles",321 N Bishop Ave
7518,2249,The Mermaid Inn,Burger Lounge,10024,90004,"568 Amsterdam Avenue, New York",217 North Larchmont Blvd
5521,2319,Next Door Brewing Company,Falafel Corner,53704,90005,"2439 Atwood Avenue, Madison",698 Irolo StSte 103
897,3240,Chicago French Market,Brooklyn Star,60661,11211,131 N. Clinton Street,593 Lorimer St
3306,650,Sushi Mon,Emperor’s Choice Restaurant,90048,60616,"8562 W 3rd St, Los Angeles",2238 S Wentworth Ave
5315,2882,Jimmy John's,Silver Mine Subs,53705,53703,"6130 Mineral Point Rd, Madison",311 N Frances St
583,25,Wildberry Pancakes & Cafe,El Cubanito,60173,60639,1383 N. Meacham Road,2555 N Pulaski Rd
1170,3562,"Pastoral Artisan Cheese, Bread & Wine",Taqueria Kermes,60601,11385,"53 E. Lake Street, Chicago",66-36 Fresh Pond Rd
5221,2590,Leystra's Venture Restaurant,Sala Thai,53583,53714,200 Phillips Blvd,36 S Fair Oaks Ave
1389,2953,Noodles in the Pot,Milio’s Sandwiches,60614,53704,"2453 N. Halsted Street, Chicago",4292 E Towne Blvd
2130,543,Casa Rubia,Cafe El Tapatio,75212,60657,"3011 Gulden Lane, Suite 116, Dallas",3400 N Ashland Ave
301,847,Dozika,Twisted Root Burger Co.,60201,75206,601 Dempster Street,5609 SMU BlvdSuite 102
6319,2160,Trestle on Tenth,Daikokuya,10001,90064,"242 10th Avenue, New York",2208 Sawtelle Blvd
5442,3399,Great Scott's Pizza,Mémé Mediterranean,53572,10014,1213 Business 18 And 151 E,581 Hudson St
7532,939,Westway Diner,Taco Borracho,10036,75201,"614 9th Avenue, New York",300 N Akard St
1620,3427,Banana Leaf,Manousheh,75252,10012,"17370 Preston Rd, Dallas",193 Bleecker St
5462,1292,Cousins Subs,Project Pie,53575,75225,990 Janesville Street,6030 Luther Ln
2112,1589,Chip's Old Fashioned Hamburgers,I Panini Di Ambra,75214,90028,6115 La Vista Drive,5633 Hollywood Blvd
2453,1212,Henry's Tacos,El Ranchito,91604,75218,4389 Tujunga Ave,1141 Peavy Rd
2842,3789,Hamakaze,Mulberry & Vine,90066,10007,"13327 W. Washington Boulevard, Los Angeles",73 Warren St
3090,1957,EMC Seafood & Raw Bar,Honey Pig,90020,90005,"3500 West 6th St, Los Angeles",3400 W 8th St
2218,826,TNT Tacos and Tequila,Carbone’s,75201,75219,"2800 Routh Street, Suite 155, Dallas",4208 Oak Lawn Ave
4896,449,Mariner's Inn,Bourgeois Pig Cafe,53704,60614,"5339 Lighthouse Bay Dr, Madison",738 W Fullerton Ave
1521,2653,Wild Salsa,Buffalo Wild Wings,75201,53715,"1800 Main Street, Suite 100, Dallas",789 University Avenue
7605,2573,Le Zie,Wilson’s Bar,10011,53704,"172 7th Avenue, New York",2144 Atwood Ave
2485,679,Reyhan Persian Grill,Rolls ‘N Bowls,90230,60625,11800 Jefferson Blvd,5501 N Lincoln Ave
3,1692,Four Belly,Wirtshaus,60657,90036,"3227 N. Clark Street, Chicago",345 N La Brea Ave
6131,3557,The Lambs Club,Tavern on Jane,10036,10014,"132 West 44th Street, New York",31 8th Ave
2070,128,Jade Garden Chinese,Three Aces,75204,60607,"4800 Bryan Street, Dallas",1321 W Taylor St
1,3072,Francesco's Hole In The Wall,Lombardinos Italian Restaurant and Bar,60062,53705,254 Skokie Boulevard,2500 University Ave
7642,3551,Forlini's Restaurant,Carroll Place,10013,10012,"93 Baxter Street, New York",157 Bleecker St
795,1274,"Joe's Seafood, Prime Steak & Stone Crab",House of Blues,60611,75202,"60 E. Grand Avenue, Chicago",2200 N Lamar St
2212,4016,Carmine's Pizzeria,Bunsmith,75248,11238,"7615 Campbell Road, Dallas",789 Franklin Ave
945,1096,Pleasant House Bakery,Miss Chi Vietnamese,60608,75225,"964 W. 31st Street, Chicago",6030 Luther LnSte 130
5735,1887,Brocach Irish Pub,Surawon,53703,90006,"7 W Main St, Madison",2833 W Olympic Blvd
5604,661,Club Lamark,El Milagro Tortilla,53704,60608,"1525 N Stoughton Rd, Madison",1927 S Blue Island Ave
2523,1874,Rockwell Patio,Guadalupe’s Place,90027,90038,"1714 N Vermont Ave, Los Angeles",5028 Melrose Ave
2550,3563,The Hollywood Corner,H K Wonton Garden,90038,10013,"1156 N Highland Ave, Los Angeles",79 Mulberry St
1181,2730,Luella's Southern Kitchen,VFW Day Post 7591,60625,53716,"4609 N. Lincoln Avenue, Chicago",301 Cottage Grove Rd
6446,1218,The Spotted Pig,The Nodding Donkey Greenville,10014,75206,"314 W 11th Street, New York",5600 SMU BlvdSte 120
2509,3578,Shiki Sushi,Hibino,91604,11101,12745 Ventura Blvd,10-70 Jackson Ave
7221,1580,Maman,Mohawk Bend,10013,90026,"239 Centre Street, New York",2141 W Sunset Blvd
7559,3483,10Below Ice Cream,Lulu & Po,10013,11205,"10 Mott Street, New York, NY",154 Carlton Ave
4157,2724,Forage,Cool Beans Coffee Cafe,90026,53704,"3823 W Sunset Blvd, Los Angeles",1748 Eagan Rd
2995,1029,My Thai,Jerry’s Wood-Fired Dogs,91040,75214,"8654 Foothill Blvd, Sunland",6340 Gaston Ave
5217,948,Fraboni's Italian Specialties,CiboDivino Marketplace,53716,75208,108 Owen Rd,1868 Sylvan AveSte D100
6354,1773,El Basurero,Noshi Sushi,11103,90004,"32-17 Steinway Street, Queens",4430 Beverly Blvd
5593,374,China King,La Palma Puerto Rican Restaurant,53925,60651,107 N Ludington St,1340 N Homan Ave
7492,377,Las Ramblas,Herb,10014,60640,"170 W 4th Street, New York",5424 N Broadway St
5721,2424,Michael's Frozen Custard,Saigon Sandwich Madison,53714,53715,"3826 Atwood Ave, Madison",273 N Charter St
910,3662,Santullo's Eatery,The Red Cat,60622,10011,"1943 W. North Avenue, Chicago",227 10th Ave
2350,1511,Johnny Pacific,Lee Harvey’s,91306,75215,7574 Winnetka Ave,1807 Gould St
1519,1341,Off-Site Kitchen,Tacos Y Mas,75212,75206,"331 Singleton Boulevard, Suite 100, Dallas",2820 Greenville Ave
534,632,Scapa,Duke Of Perth,60514,60657,1 Walker Avenue,2913 N Clark St
137,1207,Maciano's Pizza & Pastaria,La Calle Doce,60124,75208,"3091 U.S. Route 20, Unit 114",415 W 12th St
7279,1953,New Park Pizza,Park’s BBQ,11414,90006,"156-71 Crossbay Boulevard, Queens",955 S Vermont Ave
5087,3850,Zuzu Cafe,Le Barricou,53715,11211,"1336 Drake St, Madison",533 Grand St
6667,306,Ed's Lobster Bar,Bread & Wine,10012,60618,"222 Lafayette Street, New York",3732 W Irving Park Rd
2421,427,Mayflower Seafood,BenjYehuda,90012,60607,"679 N Spring St, Los Angeles",212 W Van Buren
7208,1995,Flor de Mayo,Palm’s Thai Restaurant,10025,90028,"2651 Broadway, New York",5900 Hollywood BlvdSte B
7660,724,Habana Outpost,Cafe Orient 33,11217,60625,"757 Fulton Street, Brooklyn",4829 N Kedzie Ave
1812,3230,In-N-Out,Walter’s,75240,11217,"7909 LBJ Freeway, Dallas",166 DeKalb Ave
6266,3469,Bella Blu,Wolfnights,10021,10002,"967 Lexington Avenue, New York",99 Rivington St
6581,1281,Vinnie's Pizzeria,Truck Yard,11249,75206,"148 Bedford Ave, Brooklyn",5624 Sears St
6564,512,Brasserie 8 1/2,Isla Pilipina,10019,60625,"Solow Building, 9 West 57th Street, New York",2501 W Lawrence AveUnit D
4869,3373,Marigold Kitchen,Balthazar Restaurant,53703,10012,"118 S Pinckney St, Madison",80 Spring St
7238,3294,Georgetown Cupcake,BeeHive Oven Biscuit Cafe,10012,11211,"111 Mercer Street, New York",182 S 2nd St
965,1888,Symphony's Restaurant,Zzamong,60201,90004,1945 Central Street,4255 W 3rd St
3195,1218,Barlo,The Nodding Donkey Greenville,90291,75206,"1697 Pacific Ave, Los Angeles",5600 SMU BlvdSte 120
7393,3638,Ben Ash Delicatessen,Salt & Fat,10019,11104,"857 7th Avenue, New York",41-16 Queens Blvd
6869,1433,Basta Pasta,Tin Star Taco Bar,10011,75201,"37 W 17th Street, New York",2101 Cedar SpringsSte R115
1331,531,Tropi Cuba Restaurant,Qing Xiang Yuan Dumplings,60647,60616,"3000 W. Lyndale Street, Chicago",2002 S  Wentworth Ave
7209,1633,Tertulia,California Chicken Cafe,10014,90038,"359 Sixth Avenue, New York",6805 Melrose Ave
3952,1411,Aroma Coffee & Tea,Masque Dallas,91604,75201,4360 Tujunga Ave,2533 McKinney Ave
347,3649,Tavern On La Grange,Love Mamak,60525,10003,5403 S. LaGrange Road,174 2nd Ave
7150,188,Tom's Restaurant,Sumo Sushi & Hibachi Grill,11238,60657,"782 Washington Avenue, Brooklyn",2936 N Broadway
3464,3806,Diddy Riese Cookies,Kabob Shack,90024,11211,"926 Broxton Ave, Los Angeles",182 Havemeyer St
678,1514,J. Alexander's Restaurant,Cane Rosso,60523,75226,1410 16th Street,2612 Commerce St
5858,852,Ideya,Ziziki’s,11238,75205,"636 Carlton Avenue, Brooklyn",4514 Travis StSte 122
79,1560,Barley & Brass,The Kitchen,60622,90029,"2015 W. Division Street, Chicago",4348 Fountain Ave
3968,272,Ugo - An Italian Cafe,Boka,90232,60614,3865 Cardiff Ave,1729 N Halsted St
2543,2057,Panera Bread,Amalia’s Restaurant,91604,90029,12131 Ventura Blvd,751 N Virgil Ave
3064,1834,La Cevicheria,Ostrich Farm,90019,90026,"3809 W Pico Blvd, Los Angeles",1525 W Sunset Blvd
5576,1660,Papa John's Pizza,Community Los Feliz,53703,90027,"515 University Ave, Madison",2044 Hillhurst Ave
5905,1216,Big Daddy's,Pera Turkish Kitchen,10003,75252,"239 Park Avenue South, New York",17479 Preston Rd
169,1622,Wâfel,Jang Ga Ne,60661,90006,"217 N. Clinton Street, Chicago",3003 W Olympic Blvd
5333,3437,Shamrock Bar,Upland,53703,10010,"117 W Main St, Madison",345 Park Ave S
641,3381,Public House,Krupa Grocery,60654,11215,"400 N. State Street, Chicago",231 Prospect Park W
432,2911,Taco Grill & Salsa Bar,Quivey’s Grove,60559,53719,111 W. Ogden Avenue,6261 Nesbitt Rd
2888,112,It's Thai Hometaurant,Dove’s Luncheonette,90026,60622,"1311 Glendale Boulevard, Suite A, Los Angeles",1545 N Damen Ave
536,3765,R.J. Grunts,Forno Pizzeria E Trattoria,60614,11378,"2056 N. Lincoln Park West, Chicago",52-27 69th St
6073,1862,Maysville,Wako Donkasu,10010,90006,"17 West 26th Street, New York",2904 W Olympic Blvd
7249,691,Sapporo Restaurant,Fish N Go,10019,60625,"Times Square, 152 W 49th Street, New York",4749 N Pulaski Rd
4906,2973,The Nitty Gritty,HomeTown Buffet,53590,53704,315 E Linnerud Dr,1745 Parkside Dr
3853,3001,Trattoria Amici,Pine Cone Restaurant,90210,53532,469 N Doheny Dr,6162 US Hwy 51
72,4022,Gemini Bistro,Bistro Petit,60614,11211,"2075 N. Lincoln Avenue, Chicago",170 S 3rd St
7597,2803,Turkish Kitchen,Panera Bread,10016,53703,"386 3rd Avenue, New York",656 West Washington Ave
751,551,Mana Food Bar,Cozy Noodles & Rice,60622,60657,"1742 W. Division Street, Chicago",3456 N Sheffield Ave
475,3915,Julius Meinl,Saxon + Parole,60618,10012,"4363 N. Lincoln Avenue, Chicago",316 Bowery
3873,2288,Angel Maid Bakery,Guisados,90066,90026,"4538 S Centinela Ave, Los Angeles",1261 W Sunset Blvd
6453,322,Sura,Bodhi Thai,10025,60616,"2656 Broadway, New York",1800 S Jefferson
2899,769,Mi Casita Mexicana,Henk’s European Deli & Black Forest Bakery,91040,75231,"8069 Foothill Blvd, Sunland",5811 Blackwell St
3953,1367,District Pub,Victory Tavern,91601,75219,"5249 Lankershim Blvd, Los Angeles",2501 N Houston St
6125,3707,John & Joe's Pizzeria,Jack the Horse Tavern,10462,11201,"749 Lydig Avenue, Bronx",66 Hicks St
2326,1243,25 Degrees,Chino Chinatown,90028,75212,"7000 Hollywood Blvd, Los Angeles",3011 Gulden LnSte 110
3729,2441,Tacos Delta,Madison’s,90026,53703,"3806 W Sunset Blvd, Los Angeles",119 King St
6860,318,ChikaLicious Dessert Bar,Balena,10003,60614,"203 E 10th Street, New York",1633 N Halsted St
1629,3902,Mariano's Hacienda Ranch,Boqueria,75231,10075,"6300 Skillman Street, Building J, Dallas",1460 2nd Ave
6389,230,Kismat Indian Restaurant,Rockwell’s Neighborhood Grill,10040,60625,"603 Fort Washington Avenue, New York",4632 N Rockwell St
2123,1446,Pizza Guy,Big Al’s Smokehouse BBQ,75252,75235,"17390 Preston Road, Dallas",3317 Inwood Rd
5333,3875,Shamrock Bar,The Shakespeare,53703,10016,"117 W Main St, Madison",24 E 39th St
640,1973,Sushi Ya,Jjukku Jjukku BBQ,60193,90010,261 S. Roselle Road,3377 Wilshire BlvdSuite 105
2549,2088,ShopHouse Southeast Asian Kitchen,Hot Wings Cafe,90028,90038,"6333 Sunset Boulevard, Los Angeles",7011 Melrose Ave
6390,11,Craft,Xoco,10003,60654,"43 E 19th Street, New York",449 N Clark St
1503,2072,Gas Monkey Bar N' Grill,Wilde Wine Bar & Restaurant,75220,90036,"10261 Technology Boulevard, Dallas",320 South La Brea
6516,1578,Del Frisco's Grille,Powerplant Super Food Cafe,10020,90019,"50 Rockefeller Plaza, New York",5671 W Pico Blvd
1873,3389,La Hacienda Ranch,Eastwick,75252,11206,"17390 Preston Road, Dallas",112 Graham Ave
6678,1179,Bobwhite Lunch & Supper Counter,Chicken Scratch,10009,75208,"94 Avenue C, New York",2303 Pittman St
5964,1080,Randazzo's Clam Bar,Cindi’s NY Delicatessen Restaurant & Bakery,11235,75234,"2023 Emmons Avenue, Brooklyn",3565 Forest Ln
6351,959,The General Greene,Savor Gastropub,11205,75201,"229 DeKalb Avenue, Brooklyn",2000 Woodall Rodgers Fwy
4310,33,Millions of Milkshakes,The Monkey’s Paw,90069,60614,"8910 Santa Monica Blvd, Los Angeles",2524 N Southport Ave
6864,603,Tribeca Grill,The Winchester,10013,60622,"375 Greenwich Street, New York",1001 N Winchester Ave
7302,3811,French Roast,Bella Gioia,10024,11217,"2340 Broadway, New York",209 4th Ave
3596,1323,Lucky's Tavern,Ambala Grill,90028,75229,6613 Hollywood Blvd,11641 Harry Hines BlvdSte 201
451,1592,Baisi Thai,Olympic Noodle,60611,90019,"900 Shops, 900 N. Michigan Avenue, 6th Floor, Chicago",4008 W Olympic Blvd
2576,1740,P.F. Chang's China Bistro,Versailles Restaurant,91367,90035,21821 Oxnard St,1415 S La Cienega Blvd
2398,2549,Mario's Peruvian Seafood Restaurant,Tap Room At Hawks Landing,90638,53593,15720 Imperial Hwy,88 Hawks Landing Cir
111,1722,Addis Abeba,Fat Dog,60201,90046,1322 Chicago Avenue,801 N Fairfax Ave
3190,2234,Coral Tree Cafe,Soot Bull Jeep,91316,90005,17499 Ventura Blvd,3136 W 8th St
7430,3977,Morton's The Steakhouse,Red Bamboo,10017,10012,"551 5th Avenue, New York",140 W 4th St
7411,1975,Havana Central,U Pick Cafe,10036,90041,"151 W 46th Street, New York",4682 York Blvd
2446,185,El Criollo,Fat Willy’s Rib Shack,91405,60647,6622 Van Nuys Blvd,2416 W Schubert Ave
2065,2101,Tops Cafe,Organic Corner Cafe,75224,90017,"718 Wynnewood Village Shopping Center, Dallas",1001 Wilshire Blvd
6787,3489,The Flatiron Room,The Grey Dog,10010,10011,"37 W 26th Street, New York",242 W 16th St
1325,1505,Joe's Crab Shack,Frankie’s,60173,75202,2000 E. Golf Road,1303 Main St
1561,1754,Bread Winners,Kinjiro,75204,90012,"3301 McKinney Avenue, Dallas",Honda Plaza424 E 2nd St
1149,687,Nosh,River Roast,60134,60654,"211 James Street, Suite 1, Geneva",315 N La Salle Dr
5086,1078,Vintage Spirits & Grill,Liberty Burger,53703,75248,"529 University Ave, Madison",5181 Keller Springs Rd
6085,2511,Nanni's Restaurant,Madison Club,10017,53703,"146 E 46th Street, New York",5 E Wilson St
3013,3755,Jose Bernstein,Beco,90024,11211,"935 Broxton Ave, Los Angeles",45 Richardson St
3082,63,Traktir,Viaggio Ristorante & Lounge,90046,60607,8151 Santa Monica Blvd,1330 W Madison St
6501,1312,Blue Ribbon Sushi,Sandbar Cantina and Grill,10012,75226,"119 Sullivan Street, New York",317 S 2nd Ave
2048,2889,Thai Spice,Callahan’s Sports Pub,75287,53704,"18111 Dallas Parkway, Suite 200",1902 Bartillon Dr
2314,3706,P.F. Chang's,Johny’s Luncheonette,75225,10001,"NorthPark Center, 8697 North Central Expressway, Level One, Dallas",124 W 25th St
6818,2758,Schnipper's Quality Kitchen,Lucky’s Bar & Grille,10018,53711,"620 8th Avenue, New York",1421 Regent St
5784,1152,Gallo Nero,Yolk One Arts Plaza,10036,75201,"404 W 44th Street, New York",1722 Routh St
255,1782,Las Tablas Colombian Steakhouse,Han Bat Sul Lung Tang,60641,90020,4920 W. Irving Park Road,4163 W 5th St
6952,903,Miss Korea BBQ,Kuby’s Sausage House,10001,75205,"10 West 32nd Street, New York",6601 Snider Plz
6677,2554,Jubilee French Restaurant,AJ Bombers,10022,53703,"948 1st Avenue, New York",201 W Gorham St
3603,316,Dinah's Family Restaurant,DryHop Brewers,90045,60657,6521 S Sepulveda Blvd,3155 N Broadway
643,404,L. WoodsTap & Pine Lodge,Acadia,60712,60616,"7110 N. Lincoln Avenue, Chicago",1639 S Wabash Ave
2426,81,Animal,Ge Pa De Caffe,90036,60603,"435 N Fairfax Ave, Los Angeles",60 E Adams St
7,209,Father & Son,Pi-Hi Cafe,60647,60618,"2475 N. Milwaukee Avenue, Chicago",3539 N Western Ave
5842,2636,Metro Diner,Fraboni’s Italian Specialties & Delicatessen,10025,53715,"2641 Broadway, New York",822 Regent St
1423,243,Grace,The Gage,60661,60603,"652 W. Randolph Street, Chicago",24 S Michigan Ave
965,1723,Symphony's Restaurant,The Heights Deli & Bottle Shop,60201,90031,1945 Central Street,2927 N Broadway
3533,40,Tavern,Beatrix,90049,60654,"11648 San Vicente Blvd, Los Angeles",519 North Clark Street
5735,1258,Brocach Irish Pub,Best Burger,53703,75217,"7 W Main St, Madison",2031 S Buckner Blvd
7389,890,Corner Bistro,Lakewood Landing,10014,75214,"331 W 4th Street, New York",5818 Live Oak St
3174,1439,Kino Sushi,Mattito’s Tex-Mex,90028,75219,"6721 Hollywood Blvd, Los Angeles",3102 Oaklawn
2569,2581,Colombo's Italian Steak House & Jazz Club,The Wise,90041,53711,1833 Colorado Blvd,Hotel Red1501 Monroe St
1207,849,Chicago Prime Steakhouse,Tatty’s Fresh Mex Grill,60173,75243,1444 East Algonquin Road,8131 Forest Ln
5239,2400,Madison's,Cafe La Bellitalia,53703,53704,"119 King St, Madison",1026 N Sherman Ave
6118,1434,Mezetto,Big Daddy’s Convenience Store,10002,75215,"161 East Houston Street, New York",4121 Colonial Ave
5360,765,Baldwin Street Grille,The Rustic,53703,75204,"1304 E Washington Ave, Madison",3656 Howell St
5938,3434,Cosi,Xixa,10017,11211,"38 E 45th Street, New York",241 S 4th St
5665,1050,Callahan's Sports Pub,Sammy’s Bar-B-Q,53704,75201,"1902 Bartillon Dr, Madison",2126 Leonard St
2401,3898,Papilles,Brooklyn Kolache Co,90028,11205,"6221 Franklin Ave, Los Angeles",520 DeKalb Ave
6822,1672,Billy's Bakery,Dumplings,10011,90020,"184 9th Avenue, New York",3525 W 3rd St
5131,1584,Tuscany Mediterranean Grill,Mendocino Farms,53711,90036,2969 Cahill Main,175 S Fairfax AveSte B
6904,848,L'Artusi,Local,10014,75226,"228 West 10th Street, New York",2936 Elm St
4245,3016,Bouchon Bakery,The Fountain,90212,53703,235 N Canon Dr,122 State St
5034,1054,The Old Feed Mill,Nick and Sam’s Grill,53560,75225,114 Cramer St,8111 Preston RdSte 150
6639,846,The Kiosk,Torchy’s Tacos,10029,75230,"80 E 116th Street, New York",5921 Forest LnSte 200
6866,3027,EN Japanese Brasserie,Smoky Jon’s #1 BBQ,10014,53704,"435 Hudson Street, New York",2310 Packers Ave
7391,514,Spiegel,Pannenkoeken Cafe,10009,60625,"26 1st Avenue, New York",4757 N Western Ave
927,3255,Spunky Dunkers,Bondurants,60074,10028,20 S. Northwest Highway,303 E 85th St
6844,833,Rosa Mexicano,Hunky’s,10003,75219,"9 E 18th Street, New York",3940 Cedar Springs Dr
3863,1707,Milk,Palm Grove Ethiopian Restaurant,90036,90018,"7290 Beverly Blvd, Los Angeles",1905 S Western Ave
491,168,Egg Shack,WHISK,60827,60622,"1727 W. 127th Street, Chicago",2018 W Chicago Ave
2543,1039,Panera Bread,Urban Taco,91604,75204,12131 Ventura Blvd,3411 McKinney Ave
2298,1731,Oasis,Pace,75206,90046,"5945 Greenville Avenue, Dallas",2100 Laurel Canyon Blvd
2507,2131,Govinda's Natural Food,Mama’s Secret,90034,90048,"3764 Watseka Ave, Los Angeles",8314 W 3rd St
6585,3398,D.O.C. Wine Bar,Bobwhite Counter,11211,10009,"83 N 7th Street, Brooklyn",94 Ave C
2349,2223,Vivian's Millenium Cafe,Commissary,91604,90010,10968 Ventura Blvd,The Line Hotel3515 Wilshire Blvd
5828,2702,RIstorante Saint Ambroeus,608 Restaurant and Bar,10021,53703,"1000 Madison Avenue, New York",212 State St
5875,2181,Chocolat Restaurant and Lounge,Sunshine Restaurant,10026,90029,"2217-23 Frederick Douglass Boulevard, New York",861 N Western Ave
2236,3635,Catfish Floyd's,Becco,75216,10036,"710 E Ann Arbor Avenue, Dallas",355 W 46th St
7369,2344,Pizza Loves Emily,Sun Nong Dan,11238,90020,"919 Fulton Street, Brooklyn",3470 W 6th StSte 7
7636,48,Ethos Taverna,Revolution Brewing,10016,60647,"495 3rd Avenue, New York",2323 N Milwaukee Ave
2335,3784,Ruby's Diner,Fools Gold NYC,90040,10002,"100 Citadel Dr Ste 222, Commerce",145 E Houston St
2159,1092,Grimaldi's Pizzeria,Ming Place China Bistro,75231,75209,"8060 Park Lane, Suite 105",5715 Lemmon AveSte 3
5067,1516,Potbelly Sandwich Works,Meddlesome Moth,53719,75207,"112 West Towne Mall, Madison",1621 Oak Lawn Ave
1501,2752,Blue Goose Cantina,Hawk’s Bar & Grill,75206,53703,"2905 Greenville Avenue, Dallas",425 State St
7369,1398,Pizza Loves Emily,The Tradewinds Social Club,11238,75211,"919 Fulton Street, Brooklyn",2843 W Davis St
7013,2532,Bali Nusa Indah,Babes Grill & Bar,10036,53711,"651 9th Avenue, New York",5614 Schroeder Rd
56,3567,Sweet Baby Ray's,Endless Summer,60007,11205,800 E. Higgins Road,525 DeKalb Ave
518,2108,Tufano's Vernon Park Tap,Grace Cafe,60607,90017,"1073 W. Vernon Park Plaza, Chicago",1221 W 3rd St
4865,3817,Smoky's Club,Il Falco,53705,11101,"3005 University Ave, Madison",2150 44th Dr
2248,751,Mesero,Buzzbrews Kitchen,75206,75204,"2822 N Henderson Avenue, Dallas",4154 N Central Expy
2701,1160,Wirtshaus,Parigi Restaurant,90036,75219,"345 N La Brea Ave, Los Angeles",3311 Oak Lawn AveSte 102
3875,1836,Ray's Restaurant and Stark Bar,Open Space,90036,90036,"5905 Wilshire Blvd, Los Angeles",457 N Fairfax Ave
2846,179,Chi's Chinese,LYFE Kitchen,91324,60654,9635 Reseda Blvd,413 N Clark St
3188,3403,Brass Monkey,Uva,90005,10075,"659 S Mariposa Ave, Los Angeles",1486 2nd Ave
2224,3738,Sushi Kyoto,Home/Made,75205,11231,"6429 Hillcrest Avenue, Dallas",63 Commerce St
3744,1050,Palermo Ristorante Italiano,Sammy’s Bar-B-Q,90027,75201,"1858 N Vermont Ave, Los Angeles",2126 Leonard St
3565,3859,Pace Restaurant,El Almacen,90046,11211,"2100 Laurel Canyon Blvd, Los Angeles",557 Driggs Ave
204,2099,TAC Quick Thai Kitchen,Casa Chocolate,60613,90019,"3930 N. Sheridan Road, Chicago",3319 W Pico Blvd
5543,222,Good Day Coffee Shop,Crazy Bird Chicken,53702,60612,"101 S Webster St, Madison",1138 S California Ave
2925,2848,The Cheesecake Factory,Plata’s Restaurant at Bridges Golf Course,90210,53704,364 N Beverly Dr,2702 Shopko Dr
806,1835,The Berghoff,Plan Check Kitchen + Bar,60603,90025,"17 W. Adams Street, Chicago",1800 Sawtelle Blvd
7088,271,The Butcher's Daughter,Windy City Cafe,10012,60642,"19 Kenmare Street, New York",1062 W Chicago Ave
3171,2424,Urban Ramen,Saigon Sandwich Madison,90046,53715,"7300 Sunset Blvd, Los Angeles",273 N Charter St
1456,3343,Good 2 Go Taco,Taverna Kyclades,75218,10009,"1146 Peavy Road, Dallas",228 1st Ave
3399,3380,Sakura House,Swine,90066,10014,"13362 W Washington Blvd, Los Angeles",531 Hudson St
4100,3845,The Pikey,Café Orlin,90046,10003,"7617 W Sunset Blvd, Los Angeles",41 St Marks Pl
6263,2324,Abboccato,1880 Cafe,10019,90067,"136 W 55th Street, New York",1880 Century Park E
2620,3755,Sushi Dan,Beco,90046,11211,"8000 W Sunset Blvd, Los Angeles",45 Richardson St
2855,3152,Rocio's Mole de Los Dioses,Laredo’s Mexican Restaurant,91352,53711,"8255 Sunland Blvd, Los Angeles",2935 S Fish Hatchery Rd
7256,2552,The Cupping Room Cafe,That BBQ Joint,10013,53703,"359 W Broadway, New York",901 Williamson St
5065,170,Happy Wok,Cooper’s,53719,60657,"429 Commerce Dr, Madison",1232 W Belmont Ave
5223,2622,Monsoon Siam 2,Laurel Tavern,53704,53711,"2045 Atwood Ave, Madison",2505 Monroe St
909,1252,Saigon Sisters,Carmine’s Pizza,60661,75201,"567 W. Lake Street, Chicago",2006 San Jacinto St
2623,161,Terroni,Nana,90015,60608,"802 South Spring St 1st Floor, Los Angeles",3267 S Halsted St
6865,1398,La Pizza & La Pasta - Eataly,The Tradewinds Social Club,10010,75211,"Eataly, 200 5th Avenue, New York",2843 W Davis St
5634,3641,Antler's Tavern,EONS Greek Food for Life,53713,10016,2202 W Broadway,633 2nd Ave
6472,2272,Lido,La 1st St Taqueria,10026,90033,"2168 Frederick Douglass Boulevard, New York",1843 1/2 E 1st St
4886,2550,Craftsman Table and Tap,Pizza Brutta,53562,53711,6712 Frank Lloyd Wright Ave,1805 Monroe St
628,3459,Lula Cafe,House of Thai,60647,11101,"2537 N. Kedzie Boulevard, Chicago",2501 40th Ave
7020,2274,Lucali,Berry Que,11231,90028,"575 Henry Street, Brooklyn",1707 N. Las Palmas Ave.
5691,3958,Naples 15,Ardesia,53703,10019,"15 N Butler St., Madison",510 W 52nd St
1,757,Francesco's Hole In The Wall,Flaming Cheese Saganaki,60062,75243,254 Skokie Boulevard,9025 Forest Ln
1356,1523,Bravo! Cucina Italiana,The Sycamore Kitchen,60201,90036,1701 Maple Avenue,143 S La Brea Ave
666,1727,Bavarian Lodge,Dune,60532,90039,1800 Ogden Avenue,3143 Glendale Blvd
814,856,Hendrickx Belgian Bread Crafter,Royal Thai,60611,75206,"Walton Colonnade, 1100 E. Walton Street, Chicago",5500 Greenville Ave
1504,2344,Y.O. Ranch Steakhouse,Sun Nong Dan,75202,90020,702 Ross Avenue,3470 W 6th StSte 7
4082,1280,LA Market,Baby Back Shak,90015,75215,"900 W Olympic Blvd Fl 1, Los Angeles",1800 S Akard St
7668,2064,Circo,Jay’s Bar,10019,90029,"120 W 55th Street, New York",4321 Sunset Blvd
5220,3397,Wando's,Mundo New York,53715,11101,"602 University Ave, Madison",The Paper Factory Hotel37-06 36th St
5065,2808,Happy Wok,Outback Steakhouse,53719,53717,"429 Commerce Dr, Madison",279 Junction Road
5723,1509,Irish Pub,Public School 214,53703,75204,"317 State St Ste A, Madison",3700 McKinney Ave.Suite 148
6581,3572,Vinnie's Pizzeria,Purbird,11249,11217,"148 Bedford Ave, Brooklyn",82 Sixth Ave
5495,255,Umami Food Cart,mEAT Streeterville,53703,60611,"700 State St, Madison",215 E Chestnut St
5468,1000,Gooseberry on the Square,Bellini’s Café and Pizza,53703,75219,"1 S Pinckney St, Madison",3810 Congress Ave
1393,1207,Papagalino Pastry Shop & Cafe,La Calle Doce,60714,75208,9014 N Milwaukee Avenue,415 W 12th St
5208,2254,Brass Ring,Cabbage Patch,53703,90014,"701 E Washington Ave Ste 104, Madison",520 W 6th St
2069,3562,Opening Bell Coffee,Taqueria Kermes,75215,11385,"1409 S Lamar Street, Dallas",66-36 Fresh Pond Rd
1156,2756,Blue House Korean BBQ,Chasers Bar and Grille,60060,53703,1484 Townline Road,319 W Gorham St
6860,3798,ChikaLicious Dessert Bar,Milk & Honey,10003,11230,"203 E 10th Street, New York",1119 Newkirk Ave
5380,694,Vientiane Palace,Home Style Taste Chinese,53703,60608,"151 W Gorham St, Madison",3205 S Halsted St
3469,2729,Luna Park,Culver’s,90036,53716,"672 S La Brea Ave, Los Angeles",4401 Cottage Grove Rd
7027,1882,Employees Only,The Spot On Pico,10014,90019,"510 Hudson Street, New York",5661 W Pico Blvd
6880,3687,Wafels & Dinges,Dirck the Norseman,10013,11222,"Multiple Locations, New York",7 N 15th St
1361,2013,Goose Island Brewpub,Cafe Hill,60614,90014,"1800 N. Clybourn Avenue, Chicago",632 S Hill St
7063,1462,Bond 45,Highland Park Cafeteria,10036,75218,"154 W 45th Street, New York",1200 N Buckner Blvd
1708,587,Kuai Dumplings and Soups,Sapori Trattoria,75201,60614,"325 N Saint Paul Street, Dallas",2701 N Halsted St
3090,3715,EMC Seafood & Raw Bar,Sakagura,90020,10017,"3500 West 6th St, Los Angeles",211 E 43rd St
3425,1908,Lawry's The Prime Rib,Nickel Diner,90211,90013,100 N La Cienega Blvd,524 S Main St
7119,3757,Hearth,Turntable Chicken Jazz,10009,10001,"403 East 12th Street, New York",314 5th Ave2nd Fl
1764,2012,Olivella's Neo Pizza Napoletana,Arashi Sushi,75205,90015,"3406 McFarlin Boulevard, Dallas",1111 S Hope StSte 100
1827,2510,Malai Kitchen,Der Rathskeller,75204,53706,"3699 McKinney Avenue Suite 319, Dallas",Memorial Union800 Langdon St
4251,1566,Corkbar,Kobawoo House,90015,90005,"403 W 12th St, Los Angeles",698 S Vermont AveSte 109
4529,934,Aranda's,Ten Bells Tavern,53532,75208,"142 Market Street, Deforest",232 W 7th St
1579,536,Cindi's,Hub 51,75243,60654,"11111 N Central Expressway, Dallas",51 W Hubbard St
912,1357,Homeslice,Uncle Julio’s Fine Mexican Food,60614,75219,"938 W. Webster Avenue, Chicago",4125 Lemmon Ave
5271,3338,Carl's Cakes LLC,Mekelburg’s,53590,11238,110 Market St,293 Grand Ave
2136,1492,Smokey John's Bar-B-Que,Thai Opal,75235,75231,"1820 W Mockingbird Lane, Dallas",6300 Skillman StSte 156
6375,1545,Lantern,Snociety Urban Eatery,10003,90012,"311 2nd Avenue, New York",330 E 2nd StSte C
6835,485,Catch,La Catrina Cafe,10014,60608,"21 9th Avenue, New York",1011 W 18th St
515,3302,Margie's Candies,Baron’s,60647,11205,"1960 N. Western Avenue, Chicago",564 Dekalb St
7518,1902,The Mermaid Inn,1810 Argentinean Restaurant,10024,90015,"568 Amsterdam Avenue, New York",105 W 9th St
2782,2905,Onyx Lounge,Bradbury’s,90013,53703,"118 W 5th St, Los Angeles",127 N Hamilton St
2156,2252,Tam's Egg Roll,Lotus,75230,90007,"7722 Forest Lane, Dallas",3742 S Flower St
5304,2295,Jordandal Cookhouse,Bombay Grill,53593,90038,"600 W Verona Ave, suite 6",6775 Santa Monica Blvd
2778,601,En Sushi,Maude’s Liquor Bar,90027,60607,"1972 Hillhurst Ave, Los Angeles",840 W Randolph St
6571,1040,Tocqueville,Fresh Market,10003,75235,"1 E 15th Street, New York",6300 Harry Hines BlvdSte 130
2712,1238,Tokyo Delve's Sushi Bar,The Capital Grille,91601,75201,5239 Lankershim Blvd,500 Crescent Ct
1645,550,Mario Sabino's Mexican and Salvadoran,Las Tablas Colombian Steakhouse,75209,60657,"5404 Lemmon Avenue, Dallas",2942 N Lincoln Ave
5063,1617,Village Bar,Wurstküche,53705,90013,"3801 Mineral Point Rd, Madison",800 E 3rd St
2036,616,Alfredo's Pizza,La Oaxaqueña,75287,60641,"4043 Trinity Mills Road, Dallas",3382 N Milwaukee Ave
2510,3134,King Torta,Dickey’s Barbecue Pit,90032,53562,"4507 Valley Blvd, Los Angeles",8225 Greenway BlvdSte 120
3282,1251,All India Cafe,Press Box Grill,90025,75201,"12113 Santa Monica Blvd, Los Angeles",1623 Main St
6084,3072,Japonica,Lombardinos Italian Restaurant and Bar,10003,53705,"90 University Place, New York",2500 University Ave
1113,1751,Kama Indian Bistro,Asian Fusion,60525,90035,9 S. La Grange Road,1710 S Robertson Blvd
5458,900,Kabul Afghanistan Restaurant,El Bolero,53703,75207,"540 State St, Madison",1201 Oak Lawn Ave
429,1420,Moy Goy Inn,El Paisa Cocina Mexicana,60525,75220,719 W. Hillgrove Avenue,10840 Harry Hines Blvd
4070,3625,Miceli's,Boqueria,90068,10011,"3655 Cahuenga Blvd W, Hollywood",53 W 19th St
2520,3471,Cafe Bella Roma,Lobster Joint,90035,11222,"1509 S Robertson Blvd, Los Angeles",1073 Manhattan Ave
5268,1850,Parkway Family Restaurant,Trencher,53713,90026,"1221 Ann St, Madison",1305 Portia St
7314,900,Pepolino Ristorante,El Bolero,10013,75207,"281 West Broadway, New York",1201 Oak Lawn Ave
876,394,La Creperie,Aje Cafe,60657,60657,"2845 N. Clark Street, Chicago",2942 N Clark St
5871,3789,Hummus Kitchen,Mulberry & Vine,10019,10007,"768 9th Avenue, New York",73 Warren St
5457,3566,Spring Garden Restaurant,Piccoli Trattoria,53572,11215,520 Springdale St,522 6th Ave
2574,3201,Adagio Ristorante,Tienda Los Gemelos,91364,53719,22841 Ventura Blvd,6713 Odana RdSte 8
4339,3160,Portofino Cucina Italiana,Sarku Japan,90013,53719,"464 S Main St, Los Angeles",108 W Towne Mall
2121,642,The Hospitality Sweet,Beezzee,75201,60657,"400 N Ervay Street, Dallas",2807 N Sheffield Ave
7678,1703,Crave Fishbar,Bludso’s Bar & Que,10022,90036,"945 2nd Avenue, New York",609 N La Brea Ave
2233,2676,Rick's Old Fashioned Burgers,Christy’s Landing,75243,53711,"11620 Plano Road, Dallas",2952 Waubesa Ave
3931,414,Overland Cafe,Quesadilla La Reyna del Sur,90034,60647,"3601 Overland Ave, Los Angeles",2235 N Western Ave
3565,1608,Pace Restaurant,Bacaro LA,90046,90007,"2100 Laurel Canyon Blvd, Los Angeles",2308 S Union Ave
2939,3360,Cafe Talesai,El Colmado Butchery,90212,10014,9198 W Olympic Blvd,53 Little W 12th St
5705,145,Domino's,Lockdown Bar & Grill,53719,60622,"703 S Gammon Rd, Madison",1024 N Western Ave
2420,493,Casita Taco al Carbon,Old Town Social,91601,60610,11300 Magnolia Blvd,455 W North Ave
7488,2953,The Indian Clove,Milio’s Sandwiches,10304,53704,2071 Clove Road,4292 E Towne Blvd
3628,1665,Millie's,Picca,90026,90035,"3524 W Sunset Blvd, Los Angeles",9575 W Pico Blvd
5740,1739,Belmont Casino,Jon & Vinny’s,53538,90036,29 Sherman Ave W,412 N Fairfax AveApt 12
3471,3911,Superba Snack Bar,Han Dynasty,90291,10003,533 Rose Ave,90 3rd Ave
3020,690,Roladin Bakery & Cafe,Kathy De’s Deli,91335,60609,"19365 victory blvd, Reseda",3642 S Parnell Ave
656,3383,Seasons 52,The Food Sermon Kitchen,60173,11225,1770 E. Higgins Road,355 Rogers Ave
2728,2208,Vees Cafe,Mike’s Sandwich Shop,90016,90023,"5418 W Adams Blvd, Los Angeles",1717 S Soto St
5285,3015,Village Cafe,K Peppers,53527,53562,214 W Cottage Grove Rd,1901 Cayuga StSte 110
2383,3878,Asahi Japanese,Soju Haus,91344,10016,10375 Balboa Blvd,315 5th Ave2nd Fl
4916,2479,Sophia's Bakery & Cafe,Sunroom Cafe,53703,53703,"831 E Johnson St, Madison",638 State St
6067,833,Bozu,Hunky’s,11211,75219,"296 Grand Street, Brooklyn, NY",3940 Cedar Springs Dr
5669,3797,Dotty Dumpling's Dowry,Shake Shack,53703,10024,"317 N Frances St, Madison",366 Columbus Ave
3675,818,Umami Burger,Mia’s Tex-Mex Restaurant,90028,75219,"1520 N. Cahuenga Blvd #7, Los Angeles",4322 Lemmon Ave
3033,2436,Zinc Cafe,Francesca’s Al Lago,90013,53703,"580 Mateo St, Los Angeles",111 Martin Luther King Jr Blvd
4387,323,Schneid's Sports Bar & Grill,Blaze Fast Fire’d Pizza,53713,60657,2952 Fish Hatchery Rd,953 W Belmont
948,2380,Soupbox,Le Petit Croissant,60611,53711,"50 E. Avenue, Chicago",1310 Midvale Blvd
7093,2002,Havana Alma de Cuba,KaGaYa,10014,90012,"94 Christopher Street, New York",418 E 2nd St
337,3700,Ara On,St. Mazie,60603,11211,"160 W. Adams Street, Chicago",345 Grand St Williamsburg
6941,1318,Mandoo Bar,Ravenna Urban Italian Restaurant,10001,75202,"2 West 32nd Street, New York",1301 Main St
2702,2627,Taj India Palace,Library Mall,90045,53706,8320 Lincoln Blvd,728 State St
1992,2881,Start,Wendy’s,75206,53719,"4814 Greenville Avenue, Dallas",633 S Gammon Rd
6110,4004,Cooper's Craft & Kitchen,Brooklyn Commune,10003,11218,"87 2nd Avenue, New York",601 Greenwood Ave
2724,2471,A & W Seafood,Naf Naf Grill,91324,53703,9306 Reseda Blvd,555 State St
2953,4010,Chios Peruvian Grill,Pokito,91405,11211,"7755 Van Nuys Blvd, Los Angeles",155 S 4th St
3807,2731,Taylor's Steak House,Los Mexicans de Europa,90005,53706,"3361 W 8th St, Los Angeles",475 N Charter St
1513,1653,Villa-O,Lala’s Argentine Grill,75205,90046,"4514 Travis Street, Dallas",7229 Melrose Ave
2747,2656,Jones Hollywood,Benvenuto’s Italian Grill,90046,53704,7205 Santa Monica Blvd,1849 Northport Dr
760,1225,Trenchermen,Javier’s Gourmet Mexicano,60647,75205,"2039 W. North Avenue, Chicago",4912 Cole Ave
4344,2888,Hack's Sports Page,Applebee’s,53575,53711,126 Braun Rd,660 S Whitney Way
2808,582,Xai Verandah Lounge,Mike Ditkas,90046,60611,"7677 Sunset Blvd, Los Angeles",100 E Chestnut St
757,3380,Big & Little's,Swine,60657,10014,"1034 W. Belmont Avenue, Chicago",531 Hudson St
1719,1908,Houlihan's,Nickel Diner,75254,90013,"5225 Belt Line Road, Suite 220, Dallas",524 S Main St
7158,598,Caspiy,Inspiration Kitchens,11235,60640,"1309 Avenue Z, Brooklyn",4715 N Sheridan Rd
1140,567,Bodhi Thai Bistro,Bistro Dre,60402,60657,6211 W. Roosevelt Road,2965 N Lincoln Ave
2684,3098,Bob's Big Boy,KFC,91324,53716,8876 Corbin Ave,604 Cottage Grove Road
4215,2257,Angelo's Ristorante Italiano,Gogo’s Bistro,91311,90033,20539 Devonshire St,2415 E Cesar Chavez Ave
2431,3918,Pacific Burgers,Iron Chef House,90241,11201,8019 Stewart And Gray Rd,92 Clark St
2990,3922,Sarita's Pupuseria,Piora,90013,10014,"317 S Broadway, Los Angeles",430 Hudson St
3806,1231,La Gondola Kosher Restaurant and Catering,Tupinamba Cafe,90211,75231,9025 Wilshire Blvd,9665 N Central ExpwySte 142
2672,1468,Caffe Primo,Howard Wang’s China Grill,90017,75220,"612 S Flower St, Los Angeles",4343 W Northwest HwySuite 345
2071,2690,Neighborhood Services,Newell’s Deli,75209,53715,"5027 W Lovers Lane, Dallas",35 N Park St
896,129,Kona Grill,Bridge House Tavern,60069,60654,"940 Milwaukee Avenue, Lincolnshire",321 N Clark St
6714,2471,Flat Top,Naf Naf Grill,10027,53703,"1241 Amsterdam Avenue, New York",555 State St
3180,3242,Toi on Sunset,AlMar,90046,11201,"7505 W Sunset Blvd, Los Angeles",111 Front St
4109,3950,Chan Dara,Giuseppina’s,90004,11215,"310 N Larchmont Blvd, Los Angeles",691 6th ave
7255,2595,Shalel Lounge,The Old Fashioned,10023,53703,"65 W 70th Street, New York",23 N Pinckney St
7630,1447,Joanne Trattoria,El Pollo Regio,10023,75240,"70 W 68th Street, New York",8136 Spring Valley Rd
1675,3763,Ravenna Urban Italian Restaurant,Risotteria Melotti,75202,10003,"1301 Main Street, Dallas",309 E 5th St
601,3854,Bub City,Cooper’s Craft & Kitchen,60654,10003,"435 N. Clark Street, Chicago",87 2nd Ave
3070,4042,Uncle Darrow's Cajun Creole Eatery,Ippudo NY,90291,10003,"2560 Lincoln Blvd, Venice",65 4th Ave
7289,3549,Crif Dogs,Brooklyn Beet Company,10009,11209,"113 Saint Marks Place, New York",7205 3rd Ave
2734,3980,New Japan Take Out,Lamarca Cheese Shop,90025,10010,"11283 Santa Monica Blvd, Los Angeles",161 E 22nd St
1605,1115,Hillstone,Lazy Dog Restaurant & Bar,75225,75254,"8300 Preston Road, Suite A, Dallas",5100 Beltline RdSte 500
5282,2123,Fazoli's,Peking Tavern,53704,90014,"2143 Zeier Rd, Madison",806 S Spring St
1340,932,Paddy Long's Beer & Bacon Pub,Taco Joint,60614,75214,"1028 W. Diversey Parkway, Chicago",6434 E Mockingbird Ln
3746,2474,J. Nichols,Delaney’s Steaks and Seafood,90292,53719,4375 Glencoe Ave,449 Grand Canyon Dr
3179,3127,Viva Fresh Mexican Grill,Eno Vino Wine Bar & Bistro,90045,53717,"6515 S Sepulveda Blvd, Los Angeles",601 Junction Rd
1990,1602,Taza Grill,Brothers Sandwich Shop,75230,90020,"12817 Preston Road, Dallas",3274 W 6th St
4127,2109,Benny's Tacos & Chicken Rotisserie,Perch,90045,90013,"7101 W Manchester Ave, Los Angeles",448 S Hill St
6226,3975,Gargiulo's,Manila Social Club,11224,11211,"2911 West 15th Street, Brooklyn",2 Hope St
5290,1402,Black Hawk Family Restaurant,Resident Taqueria,53583,75238,E11394 US Hwy 12,9661 Audelia RdSte 112
1982,2186,Henry's Majestic,The Original Ramen Burger,75205,90004,"4900 McKinney Avenue, Dallas",239 S Vermont Ave
2028,3010,Penne Pomodoro,Jimmy John’s,75205,53704,"6815 Snider Plaza, Dallas",1791 Thierer Rd
3143,1744,Wolfgang Puck Express,B.S. Taqueria,90045,90014,"Los Angeles International Airport, Los Angeles",514 W 7th St
1356,1125,Bravo! Cucina Italiana,Piggie Pies Pizza & Pasta,60201,75206,1701 Maple Avenue,5315 Greenville AveSte 120B
1017,1555,Sweetwater Tavern and Grille,Reggie’s Deli & Cafe,60601,90026,"Michigan Plaza, 225 N. Michigan Avenue, Chicago",1910 W Sunset BlvdSte 150
2417,1777,Ulysses Voyage,Crepe Kitchen,90036,90036,"6333 W 3rd St, Los Angeles",5223 Wilshire Blvd
3587,1811,Tony P's Dockside Grill,Luisitos Torta’s & Jugos,90292,90033,4445 Admiralty Way,1912 E 1st St
4340,3970,Cecconi's,Yakiniku West,90069,10003,"8764 Melrose Ave, Los Angeles",218 E 9th St
2602,910,Leaning Tower Pizza & Pasta,Stephan Pyles,91423,75201,"14120 Ventura Blvd, Los Angeles",1807 Ross Ave
2754,919,Maison Richard Restaurant & French Bakery,Olivella’s Neo Pizza Napoletana Lakewood,90046,75214,"707 N Stanley Ave, Los Angeles",6465 E Mockingbird Ln
1162,811,Ricobene's,Mot Hai Ba,60616,75206,"252 W. 26th Street, Chicago",6047 Lewis St
7112,1514,Little Cupcake Bakeshop,Cane Rosso,10012,75226,"30 Prince Street, New York",2612 Commerce St
5226,702,Paoli Schoolhouse Shops & Cafe,Tacos Tequilas,53508,60618,6857 Paoli Rd.,2919 N Milwaukee Ave
1492,94,Victor Tango's,Irazu,75206,60647,"3001 N. Henderson Avenue, Dallas",1865 N Milwaukee Ave
4951,1945,1855 Saloon & Grill,ISA Japanese Restaurant,53527,90036,218 S. Main St,916 S La Brea Ave
4137,1158,Pizzasaurus Rex,Amberjax Fish Market Grille,91325,75212,17646 Lassen St,3011 Gulden LnSte 107
6399,333,Maizal,Dinosaur Bar-B-Que,10305,60642,990 Bay St,923 W Weed St
3116,404,Springbok Bar & Grill,Acadia,91406,60616,16153 Victory Blvd,1639 S Wabash Ave
5720,2365,Growlers Crowne Plaza,Seongbukdong,53704,90020,"4402 E. Washington Ave, Madison",3303 W 6th St
3479,3798,Baby Blues BBQ,Milk & Honey,90046,11230,"7953 Santa Monica Blvd, Los Angeles",1119 Newkirk Ave
945,3462,Pleasant House Bakery,The Jeffrey Craft Beer & Bites,60608,10022,"964 W. 31st Street, Chicago",311 E 60th St
6065,577,Recette,Native Foods Cafe,10014,60657,"328 W 12th Sreet, New York",1023 W Belmont Ave
569,2403,The Hampton Social,Sushi Muramoto,60654,53705,"353 W. Hubbard Street, Chicago",546 N Midvale Blvd
3066,632,Mama's Secret Bakery & Cafe,Duke Of Perth,90048,60657,"8314 W. 3rd Street, Los Angeles",2913 N Clark St
1426,127,En Hakkore,Lowcountry,60622,60657,"1840 N. Damen Avenue, Chicago",3343 N Clark St
6793,669,Dovetail,Joe Boston’s Italian Beef,10024,60622,"103 West 77th Street, New York",2932 W Chicago Ave
1636,1153,P.F. Chang's,Pho Crimson,75287,75204,"18323 Dallas Parkway, Dallas",3000 Blackburn StSte 140C
3440,2611,California Donuts,Noodles & Company,90028,53703,"5753 Hollywood Blvd, Los Angeles",232 State St
3350,1117,Wexler's Deli,Oishii,90013,75219,"317 S Broadway, Los Angeles",2525 Wycliff AveSte 110
6081,0,Sushi of Gari,Patino’s Grill,10024,60618,"370 Columbus Avenue, New York",2943 W Irving Park Rd
6486,1460,Nurnberger Bierhaus,Freebirds World Burrito,10310,75206,817 Castleton Avenue,5500 Greenville AveSte 209
5559,1059,Silver Eagle Bar & Grill,Clark Food & Wine Co,53716,75206,5805 Monona Dr,1920 Greenville Ave
5546,3455,Granite City Food & Brewery,SriPraPhai Thai Restaurant,53719,11377,"72 W Towne Mall, Madison",6413 39th Ave
7486,4038,Birch Coffee,Bea,10016,10036,"21 E 27th Street, New York",403 W 43rd St
6457,3749,ilili Restaurant,Nam Nam,10001,11206,"236 5th Avenue, New York",109 Montrose Ave
1297,2179,Renga-Tei,Nabeeya,60712,90014,3956 W. Touhy Avenue,766 S Santee St
5126,1528,Mother Fool's Coffee House,JNJ Burger Shack,53703,90016,"1101 Williamson St, Madison",5754 W Adams Blvd
2652,480,Rock & Reilly's Irish Pub,Chicago’s Dog House,90069,60614,8911 W. Sunset Blvd.,816 W Fullerton Ave
5956,1030,Reynard,Five-Sixty,11211,75207,"Wythe Hotel, 80 Wythe Avenue, Brooklyn",Reunion Tower300 E Reunion Blvd
6582,2492,Jacob Restaurant Soul Food & Salad Bar,Blowin’ Smoke BBQ Food Cart,10027,53703,"373 Lenox Avenue, New York",East Main and South Pinckney
5580,2977,Tex Tubbs Taco Palace,Athens Gyros,53704,53711,"2009 Atwood Ave, Madison",1614 Monroe St
7401,914,The Hungarian Pastry Shop,Avanti Ristorante,10025,75204,"1030 Amsterdam Avenue, New York",2720 McKinney Ave
7237,2199,Paradou,Kachi Deli Cafe & Grill,10014,90017,"8 Little West 12th Street, New York",1055 Wilshire Blvd
1282,119,Rollapalooza,Iguana Café,60657,60642,"3344 N. Halsted Street, Chicago",517 N Halsted St
1320,2883,Brick House Tavern + Tap,The Cooper’s Tavern,60515,53703,1461 Butterfield Road,20 W Mifflin St
2016,2634,Toulouse Cafe and Bar,The Boathouse,75205,53703,"3314 Knox Street, Dallas",1001 Wisconsin Pl
2148,1827,Uptown Pub,Hotel Café,75204,90028,"3605 McKinney Avenue, Dallas",1623 1/2 N Cahuenga Blvd
6217,2972,Curry in a Hurry,Mickey’s Tavern,10016,53703,"119 Lexington Avenue, New York",1524 Williamson St
2158,2127,Miguel's Cantina,New Dragon Seafood Restaurant,75201,90012,"214 N Akard Street, Dallas",936 N Hill St
