Name_A,Address_A,City_A,Phone_A,type_A,Name_B,Address_B,City_B,Phone_B,type_B,Gold
'manhattan ocean club','57 w. 58th st.','new york','212/ 371-7777',seafood,'manhattan ocean club','57 w. 58th st.','new york city',212-371-7777,seafood,1
campanile,'624 s. la brea ave.','los angeles',213/938-1447,american,campanile,'624 s. la brea ave.','los angeles',213-938-1447,californian,1
picholine,'35 w. 64th st.','new york',212/724-8585,mediterranean,picholine,'35 w. 64th st.','new york city',212-724-8585,mediterranean,1
lespinasse,'2 e. 55th st.','new york',212/339-6719,american,'lespinasse (new york city)','2 e. 55th st.','new york city',212-339-6719,asian,1
'restaurant katsu','1972 n. hillhurst ave.','los angeles',213/665-1891,asian,katsu,'1972 hillhurst ave.','los feliz',213-665-1891,japanese,1
'indigo coastal grill','1397 n. highland ave.',atlanta,404/876-0676,caribbean,'indigo coastal grill','1397 n. highland ave.',atlanta,404-876-0676,eclectic,1
'circus circus','2880 las vegas blvd. s','las vegas',702/734-0410,buffets,'steak house  the','2880 las vegas blvd. s.','las vegas',702-734-0410,steakhouses,1
'restaurant  ritz-carlton  atlanta','181 peachtree st.',atlanta,404/659-0400,continental,'ritz-carlton restaurant','181 peachtree st.',atlanta,404-659-0400,'french (classic)',1
'island spice','402 w. 44th st.','new york',212/765-1737,'tel caribbean','island spice','402 w. 44th st.','new york city',212-765-1737,caribbean,1
'l\'orangerie','903 n. la cienega blvd.','los angeles',310/652-9770,french,'l\'orangerie','903 n. la cienega blvd.','w. hollywood',310-652-9770,'french (classic)',1
'le bernardin','155 w. 51st st.','new york',212/489-1515,french,'le bernardin','155 w. 51st st.','new york city',212-489-1515,seafood,1
'cafe des artistes','1 w. 67th st.','new york',212/877-3500,continental,'cafe des artistes','1 w. 67th st.','new york city',212-877-3500,'french (classic)',1
toulouse,'b peachtree rd.',atlanta,404/351-9533,french,toulouse,'293-b peachtree rd.',atlanta,404-351-9533,'french (new)',1
'fleur de lys','777 sutter st.','san francisco',415/673-7779,french,'fleur de lys','777 sutter st.','san francisco',415-673-7779,'french (new)',1
'pinot bistro','12969 ventura blvd.','los angeles',818/990-0500,french,'pinot bistro','12969 ventura blvd.','studio city',818-990-0500,'french bistro',1
'arnie morton\'s of chicago','435 s. la cienega blv.','los angeles',310/246-1501,american,'arnie morton\'s of chicago','435 s. la cienega blvd.','los angeles',310-246-1501,steakhouses,1
'smith & wollensky','201 e. 49th st.','new york',212/753-1530,american,'smith & wollensky','797 third ave.','new york city',212-753-1530,steakhouses,1
'plumpjack cafe','3201 fillmore st.','san francisco',415/563-4755,mediterranean,'plumpjack cafe','3127 fillmore st.','san francisco',415-563-4755,'american (new)',1
'bone\'s','3130 piedmont road',atlanta,404/237-2663,american,'bone\'s restaurant','3130 piedmont rd. ne',atlanta,404-237-2663,steakhouses,1
'cafe claude','7 claude la.','san francisco',415/392-3505,french,'cafe claude','7 claude ln.','san francisco',415-392-3505,'french bistro',1
'coyote cafe','3799 las vegas blvd. s','las vegas',702/891-7349,southwestern,'coyote cafe (las vegas)','3799 las vegas blvd. s.','las vegas',702-891-7349,southwestern,1
'pano\'s and paul\'s','1232 w. paces ferry rd.',atlanta,404/261-3662,international,'pano\'s & paul\'s','1232 w. paces ferry rd.',atlanta,404-261-3662,'american (new)',1
'rose pistola','532 columbus ave.','san francisco',415/399-0499,italian,'rose pistola','532 columbus ave.','san francisco',415-399-0499,italian,1
'le chardonnay','8284 melrose ave.','los angeles',213/655-8880,french,'le chardonnay (los angeles)','8284 melrose ave.','los angeles',213-655-8880,'french bistro',1
'the palm','9001 santa monica blvd.','los angeles',310/550-8811,american,'palm  the (los angeles)','9001 santa monica blvd.','w. hollywood',310-550-8811,steakhouses,1
'palace court','3570 las vegas blvd. s','las vegas',702/731-7547,continental,'palace court','3570 las vegas blvd. s.','las vegas',702-731-7110,'french (new)',1
dawat,'210 e. 58th st.','new york',212/355-7555,asian,dawat,'210 e. 58th st.','new york city',212-355-7555,indian,1
aureole,'34 e. 61st st.','new york','212/ 319-1660',american,aureole,'34 e. 61st st.','new york city',212-319-1660,'american (new)',1
'river cafe','1 water st. at the east river',brooklyn,718/522-5200,american,'river cafe','1 water st.',brooklyn,718-522-5200,'american (new)',1
'21 club','21 w. 52nd st.','new york',212/582-7200,american,'21 club','21 w. 52nd st.','new york city',212-582-7200,'american (new)',1
'mifune japan center  kintetsu building','1737 post st.','san francisco',415/922-0337,asian,mifune,'1737 post st.','san francisco',415-922-0337,japanese,1
'union square cafe','21 e. 16th st.','new york',212/243-4020,american,'union square cafe','21 e. 16th st.','new york city',212-243-4020,'american (new)',1
ciboulette,'1529 piedmont ave.',atlanta,404/874-7600,french,'ciboulette restaurant','1529 piedmont ave.',atlanta,404-874-7600,'french (new)',1
daniel,'20 e. 76th st.','new york',212/288-0033,french,daniel,'20 e. 76th st.','new york city',212-288-0033,'french (new)',1
tillerman,'2245 e. flamingo rd.','las vegas',702/731-4036,seafood,'tillerman  the','2245 e. flamingo rd.','las vegas',702-731-4036,steakhouses,1
'mi cocina','57 jane st.  off hudson st.','new york',212/627-8273,mexican,'mi cocina','57 jane st.','new york city',212-627-8273,mexican,1
'grill on the alley','9560 dayton way','los angeles',310/276-0615,american,'grill  the','9560 dayton way','beverly hills',310-276-0615,'american (traditional)',1
'four seasons grill room','99 e. 52nd st.','new york',212/754-9494,american,'four seasons','99 e. 52nd st.','new york city',212-754-9494,'american (new)',1
'masa\'s','648 bush st.','san francisco',415/989-7154,french,'masa\'s','648 bush st.','san francisco',415-989-7154,'french (new)',1
'chin\'s','3200 las vegas blvd. s','las vegas',702/733-8899,asian,'chin\'s','3200 las vegas blvd. s.','las vegas',702-733-8899,chinese,1
'carnegie deli','854 7th ave.  between 54th and 55th sts.','new york',212/757-2245,delicatessen,'carnegie deli','854 seventh ave.','new york city',212-757-2245,delis,1
march,'405 e. 58th st.','new york',212/754-6272,american,march,'405 e. 58th st.','new york city',212-754-6272,'american (new)',1
'hedgerose heights inn','490 e. paces ferry rd.',atlanta,404/233-7673,international,'hedgerose heights inn  the','490 e. paces ferry rd. ne',atlanta,404-233-7673,continental,1
'chinois on main','2709 main st.','santa monica',310/392-9025,french,'chinois on main','2709 main st.','santa monica',310-392-9025,'pacific new wave',1
'heera of india','595 piedmont ave.  rio shopping mall',atlanta,404/876-4408,asian,'heera of india','595 piedmont ave.',atlanta,404-876-4408,indian,1
'virgil\'s','152 w. 44th st.','new york','212/ 921-9494',american,'virgil\'s real bbq','152 w. 44th st.','new york city',212-921-9494,bbq,1
'la cote basque','60 w. 55th st.  between 5th and 6th ave.','new york',212/688-6525,french,'la cote basque','60 w. 55th st.','new york city',212-688-6525,'french (classic)',1
'gramercy tavern','42 e. 20th st.  between park ave. s and broadway','new york',212/477-0777,american,'gramercy tavern','42 e. 20th st.','new york city',212-477-0777,'american (new)',1
patina,'5955 melrose ave.','los angeles',213/467-1108,californian,patina,'5955 melrose ave.','los angeles',213-467-1108,californian,1
'uncle nick\'s','747 9th ave.  between 50th and 51st sts.','new york',212/315-1726,mediterranean,'uncle nick\'s','747 ninth ave.','new york city',212-245-7992,greek,1
'gotham bar & grill','12 e. 12th st.','new york',212/620-4020,american,'gotham bar & grill','12 e. 12th st.','new york city',212-620-4020,'american (new)',1
'rainbow room','30 rockefeller plaza','new york',212/632-5000,'or 212/632-5100 american','rainbow room','30 rockefeller plaza','new york city',212-632-5000,'american (new)',1
fenix,'8358 sunset blvd. west',hollywood,213/848-6677,american,'fenix at the argyle','8358 sunset blvd.','w. hollywood',213-848-6677,'french (new)',1
lutece,'249 e. 50th st.','new york',212/752-2225,french,lutece,'249 e. 50th st.','new york city',212-752-2225,'french (classic)',1
'second street grille','200 e. fremont st.','las vegas',702/385-3232,seafood,'second street grill','200 e. fremont st.','las vegas',702-385-6277,'pacific rim',1
'brasserie le coze','3393 peachtree rd.  lenox square mall  near neiman marcus',atlanta,404/266-1440,french,'brasserie le coze','3393 peachtree rd.',atlanta,404-266-1440,'french bistro',1
'carmine\'s','2450 broadway  between 90th and 91st sts.','new york',212/362-2200,italian,'carmine\'s','2450 broadway','new york city',212-362-2200,italian,1
'rex il ristorante','617 s. olive st.','los angeles',213/627-2300,italian,'rex il ristorante','617 s. olive st.','los angeles',213-627-2300,'nuova cucina italian',1
'dining room  ritz-carlton  buckhead','3434 peachtree rd.',atlanta,404/237-2700,international,'ritz-carlton dining room (buckhead)','3434 peachtree rd. ne',atlanta,404-237-2700,'american (new)',1
aqua,'252 california st.','san francisco',415/956-9662,seafood,aqua,'252 california st.','san francisco',415-956-9662,'american (new)',1
'cafe lalo','201 w. 83rd st.','new york',212/496-6031,'coffee bar','cafe lalo','201 w. 83rd st.','new york city',212-496-6031,coffeehouses,1
granita,'23725 w. malibu rd.',malibu,310/456-0488,californian,granita,'23725 w. malibu rd.',malibu,310-456-0488,californian,1
'veni vidi vici','41 14th st.',atlanta,404/875-8424,italian,'veni vidi vici','41 14th st.',atlanta,404-875-8424,italian,1
'le montrachet','3000 w. paradise rd.','las vegas',702/732-5111,continental,montrachet,'239 w. broadway','new york city',212-219-2777,'french bistro',1
'locanda veneta','3rd st.','los angeles',310/274-1893,italian,'locanda veneta','8638 w. third st.','los angeles',310-274-1893,italian,1
'khan toke thai house','5937 geary blvd.','san francisco',415/668-6654,asian,'khan toke thai house','5937 geary blvd.','san francisco',415-668-6654,thai,1
'cafe bizou','14016 ventura blvd.','sherman oaks',818/788-3536,french,'cafe bizou','14016 ventura blvd.','sherman oaks',818-788-3536,'french bistro',1
'philippe\'s the original','1001 n. alameda st.','los angeles',213/628-3781,american,'philippe the original','1001 n. alameda st.',chinatown,213-628-3781,cafeterias,1
'la caravelle','33 w. 55th st.','new york',212/586-4252,french,'la caravelle','33 w. 55th st.','new york city',212-586-4252,'french (classic)',1
'cafe  ritz-carlton  buckhead','3434 peachtree rd.',atlanta,404/237-2700,'ext 6108 international','ritz-carlton cafe (buckhead)','3434 peachtree rd. ne',atlanta,404-237-2700,'american (new)',1
citrus,'6703 melrose ave.','los angeles',213/857-0034,californian,citrus,'6703 melrose ave.','los angeles',213-857-0034,californian,1
'nikolai\'s roof','255 courtland st.  at harris st.',atlanta,404/221-6362,continental,'nikolai\'s roof','255 courtland st.',atlanta,404-221-6362,continental,1
boulevard,'1 mission st.','san francisco',415/543-6084,american,boulevard,'1 mission st.','san francisco',415-543-6084,'american (new)',1
'ritz-carlton restaurant and dining room','600 stockton st.','san francisco',415/296-7465,american,'ritz-carlton dining room (san francisco)','600 stockton st.','san francisco',415-296-7465,'french (new)',1
pisces,'95 ave. a at 6th st.','new york',212/260-6660,seafood,pisces,'95 ave. a','new york city',212-260-6660,seafood,1
oceana,'55 e. 54th st.','new york',212/759-5941,seafood,oceana,'55 e. 54th st.','new york city',212-759-5941,seafood,1
tomtom,'3393 peachtree rd.',atlanta,404/264-1163,continental,'brasserie le coze','3393 peachtree rd.',atlanta,404-266-1440,'french bistro',1
'mesa grill','102 5th ave.  between 15th and 16th sts.','new york',212/807-7400,american,'mesa grill','102 fifth ave.','new york city',212-807-7400,southwestern,1
delectables,'1 margaret mitchell sq.',atlanta,404/681-2909,american,delectables,'1 margaret mitchell sq.',atlanta,404-681-2909,cafeterias,1
'sign of the dove','1110 3rd ave. at 65th st.','new york',212/861-8080,american,'sign of the dove','1110 third ave.','new york city',212-861-8080,'american (new)',1
postrio,'545 post st.','san francisco',415/776-7825,american,postrio,'545 post st.','san francisco',415-776-7825,californian,1
'buckhead diner','3073 piedmont road',atlanta,404/262-3336,american,'buckhead diner','3073 piedmont rd.',atlanta,404-262-3336,'american (new)',1
'dining room  ritz-carlton  buckhead','3434 peachtree rd.',atlanta,404/237-2700,international,'ritz-carlton cafe (buckhead)','3434 peachtree rd. ne',atlanta,404-237-2700,'american (new)',1
'les celebrites','160 central park s','new york',212/484-5113,french,'les celebrites','155 w. 58th st.','new york city',212-484-5113,'french (classic)',1
'second avenue deli','156 2nd ave. at 10th st.','new york',212/677-0606,delicatessen,'second avenue deli','156 second ave.','new york city',212-677-0606,delis,1
montrachet,'239 w. broadway  between walker and white sts.','new york','212/ 219-2777',french,montrachet,'239 w. broadway','new york city',212-219-2777,'french bistro',1
'la folie','2316 polk st.','san francisco',415/776-5577,french,'la folie','2316 polk st.','san francisco',415-776-5577,'french (new)',1
'san domenico','240 central park s','new york',212/265-5959,italian,'san domenico','240 central park s.','new york city',212-265-5959,italian,1
bacchanalia,'3125 piedmont rd.  near peachtree rd.',atlanta,404/365-0410,international,bacchanalia,'3125 piedmont rd.',atlanta,404-365-0410,californian,1
felidia,'243 e. 58th st.','new york',212/758-1479,italian,felidia,'243 e. 58th st.','new york city',212-758-1479,italian,1
lulu,'816 folsom st.','san francisco',415/495-5775,mediterranean,'lulu restaurant-bis-cafe','816 folsom st.','san francisco',415-495-5775,mediterranean,1
seryna,'11 e. 53rd st.','new york',212/980-9393,asian,seryna,'11 e. 53rd st.','new york city',212-980-9393,japanese,1
'tavern on the green','in central park at 67th st.','new york',212/873-3200,american,'tavern on the green','central park west','new york city',212-873-3200,'american (new)',1
'alain rondelli','126 clement st.','san francisco',415/387-0408,french,'alain rondelli','126 clement st.','san francisco',415-387-0408,'french (new)',1
'jo jo','160 e. 64th st.','new york',212/223-5656,american,'jo jo','160 e. 64th st.','new york city',212-223-5656,'french bistro',1
chanterelle,'2 harrison st.  near hudson st.','new york',212/966-6960,american,chanterelle,'2 harrison st.','new york city',212-966-6960,'french (new)',1
'chez michel','804 northpoint','san francisco',415/775-7036,french,'chez michel','804 north point st.','san francisco',415-775-7036,californian,1
'art\'s delicatessen','12224 ventura blvd.','studio city',818/762-1221,american,'art\'s deli','12224 ventura blvd.','studio city',818-762-1221,delis,1
petrossian,'182 w. 58th st.','new york',212/245-2214,french,petrossian,'182 w. 58th st.','new york city',212-245-2214,russian,1
'yujean kang\'s gourmet chinese cuisine','67 n. raymond ave.','los angeles',818/585-0855,asian,'yujean kang\'s','67 n. raymond ave.',pasadena,818-585-0855,chinese,1
'hotel bel-air','701 stone canyon rd.','bel air',310/472-1211,californian,'bel-air hotel','701 stone canyon rd.','bel air',310-472-1211,californian,1
aquavit,'13 w. 54th st.','new york',212/307-7311,continental,aquavit,'13 w. 54th st.','new york city',212-307-7311,scandinavian,1
aquavit,'13 w. 54th st.','new york',212/307-7311,continental,aqua,'252 california st.','san francisco',415-956-9662,'american (new)',1
'mary mac\'s tea room','224 ponce de leon ave.',atlanta,404/876-1800,southern,'mary mac\'s tea room','224 ponce de leon ave.',atlanta,404-876-1800,southern/soul,1
fringale,'570 4th st.','san francisco',415/543-0573,french,fringale,'570 fourth st.','san francisco',415-543-0573,'french bistro',1
abruzzi,'2355 peachtree rd.  peachtree battle shopping center',atlanta,404/261-8186,italian,abruzzi,'2355 peachtree rd. ne',atlanta,404-261-8186,italian,1
'la grotta','2637 peachtree rd.  peachtree house condominium',atlanta,404/231-1368,italian,'la grotta','2637 peachtree rd. ne',atlanta,404-231-1368,italian,1
'georgia grille','2290 peachtree rd.  peachtree square shopping center',atlanta,404/352-3517,american,'georgia grille','2290 peachtree rd.',atlanta,404-352-3517,southwestern,1
'restaurant  ritz-carlton  atlanta','181 peachtree st.',atlanta,404/659-0400,continental,'ritz-carlton cafe (atlanta)','181 peachtree st.',atlanta,404-659-0400,'american (new)',1
valentino,'3115 pico blvd.','santa monica',310/829-4313,italian,valentino,'3115 pico blvd.','santa monica',310-829-4313,italian,1
'shun lee west','43 w. 65th st.','new york',212/371-8844,asian,'shun lee palace','155 e. 55th st.','new york city',212-371-8844,chinese,1
'steak house','2880 las vegas blvd. s','las vegas',702/734-0410,'steak houses','steak house  the','2880 las vegas blvd. s.','las vegas',702-734-0410,steakhouses,1
'hawthorne lane','22 hawthorne st.','san francisco',415/777-9779,american,'hawthorne lane','22 hawthorne st.','san francisco',415-777-9779,californian,1
matsuhisa,'129 n. la cienega blvd.','beverly hills',310/659-9639,asian,matsuhisa,'129 n. la cienega blvd.','beverly hills',310-659-9639,seafood,1
'cafe  ritz-carlton  buckhead','3434 peachtree rd.',atlanta,404/237-2700,'ext 6108 international','ritz-carlton dining room (buckhead)','3434 peachtree rd. ne',atlanta,404-237-2700,'american (new)',1
'park avenue cafe','100 e. 63rd st.','new york',212/644-1900,american,'park avenue cafe (new york city)','100 e. 63rd st.','new york city',212-644-1900,'american (new)',1
'campton place','340 stockton st.','san francisco',415/955-5555,american,'campton place','340 stockton st.','san francisco',415-955-5555,'american (new)',1
'le colonial','8783 beverly blvd.','los angeles',310/289-0660,asian,'la cumbre','515 valencia st.','san francisco',415-863-8205,mexican,0
'kyo-ya. sheraton palace hotel','2 new montgomery st.  at market st.','san francisco',415/546-5000,asian,'belvedere  the','9882 little santa monica blvd.','beverly hills',310-788-2306,'pacific new wave',0
'french roast','458 6th ave. at 11th st.','new york',212/533-2233,french,'sylvia\'s','328 lenox ave.','new york city',212-996-0660,southern/soul,0
'grand ticino','228 thompson st.  between w. 3rd and bleecker sts.','new york',212/777-5922,italian,'andre\'s french restaurant','401 s. 6th st.','las vegas',702-385-5016,'french (classic)',0
'stage deli','834 7th ave.  between 53rd and 54th sts.','new york',212/245-7850,delicatessen,'my thai','1248 clairmont rd.',atlanta,404-636-4280,thai,0
'splendido embarcadero',4,'san francisco',415/986-3222,mediterranean,patina,'5955 melrose ave.','los angeles',213-467-1108,californian,0
vong,'200 e. 54th st.','new york',212/486-9592,american,chopstix,'4279 roswell rd.',atlanta,404-255-4868,chinese,0
bix,'56 gold st.','san francisco',415/433-6300,american,'la caridad','2199 broadway','new york city',212-874-2780,cuban,0
'stage deli','834 7th ave.  between 53rd and 54th sts.','new york',212/245-7850,delicatessen,'nuevo laredo cantina','1495 chattahoochee ave. nw',atlanta,404-352-9009,mexican,0
'caffe roma','385 broome st. at mulberry','new york',212/226-8413,'coffee bar','gumbo pot  the','6333 w. third st.',la,213-933-0358,cajun/creole,0
'la caravelle','33 w. 55th st.','new york',212/586-4252,french,'chez michel','804 north point st.','san francisco',415-775-7036,californian,0
'ocean avenue','1401 ocean ave.','santa monica',310/394-5669,american,'103 west','103 w. paces ferry rd.',atlanta,404-233-5993,continental,0
bix,'56 gold st.','san francisco',415/433-6300,american,'palm  the (atlanta)','3391 peachtree rd. ne',atlanta,404-814-1955,steakhouses,0
'casa la femme','150 wooster st.  between houston and prince sts.','new york',212/505-0005,'middle eastern','ocean star','145 n. atlantic blvd.','monterey park',818-308-2128,seafood,0
alamo,'304 e. 48th st.','new york','212/ 759-0590',mexican,'jan\'s family restaurant','8424 beverly blvd.',la,213-651-2866,'coffee shops',0
patria,'250 park ave. s at 20th st.','new york',212/777-6211,'latin american',sushisay,'38 e. 51st st.','new york city',212-755-1780,japanese,0
'hsu\'s gourmet','192 peachtree center ave.  at international blvd.',atlanta,404/659-2788,asian,'cafe \'50s','838 lincoln blvd.',venice,310-399-1955,american,0
'chinois on main','2709 main st.','santa monica',310/392-9025,french,'khan toke thai house','5937 geary blvd.','san francisco',415-668-6654,thai,0
indochine,'430 lafayette st.  between 4th st. and astor pl.','new york',212/505-5111,asian,'ritz-carlton cafe (buckhead)','3434 peachtree rd. ne',atlanta,404-237-2700,'american (new)',0
maykadeh,'470 green st.','san francisco',415/362-8286,'greek and middle eastern','island spice','402 w. 44th st.','new york city',212-765-1737,caribbean,0
stingray,'428 amsterdam ave.  between 80th and 81st sts.','new york',212/501-7515,seafood,'cafe sunflower','5975 roswell rd.',atlanta,404-256-1675,'health food',0
'lanza restaurant','168 1st ave.  between 10th and 11th sts.','new york',212/674-7014,italian,'kelley & ping','127 greene st.','new york city',212-228-1212,pan-asian,0
verbena,'54 irving pl. at 17th st.','new york',212/260-5454,american,'ritz-carlton cafe (atlanta)','181 peachtree st.',atlanta,404-659-0400,'american (new)',0
odeon,'145 w. broadway at thomas st.','new york',212/233-0507,american,toulouse,'293-b peachtree rd.',atlanta,404-351-9533,'french (new)',0
'gotham bar & grill','12 e. 12th st.','new york',212/620-4020,american,'fiore rotisserie & grille','3700 w. flamingo rd.','las vegas',702-252-7702,italian,0
'nickiemoto\'s: a sushi bar','247 buckhead ave.  east village sq.',atlanta,404/842-0334,fusion,'yujean kang\'s','67 n. raymond ave.',pasadena,818-585-0855,chinese,0
'the palm','9001 santa monica blvd.','los angeles',310/550-8811,american,'pano\'s & paul\'s','1232 w. paces ferry rd.',atlanta,404-261-3662,'american (new)',0
'locanda veneta','3rd st.','los angeles',310/274-1893,italian,picholine,'35 w. 64th st.','new york city',212-724-8585,mediterranean,0
'manila garden','325 e. 14th st.  between 1st and 2nd aves.','new york',212/777-6314,asian,'uncle bill\'s pancake house','1305 highland ave.','manhattan beach',310-545-5177,diners,0
'lanza restaurant','168 1st ave.  between 10th and 11th sts.','new york',212/674-7014,italian,'jan\'s family restaurant','8424 beverly blvd.',la,213-651-2866,'coffee shops',0
'drai\'s','730 n. la cienega blvd.','los angeles',310/358-8585,french,'monte carlo','3145 las vegas blvd. s.','las vegas',702-733-4524,'french (new)',0
march,'405 e. 58th st.','new york',212/754-6272,american,'pano\'s & paul\'s','1232 w. paces ferry rd.',atlanta,404-261-3662,'american (new)',0
'jean lafitte','68 w. 58th st.','new york',212/751-2323,french,taiko,'11677 san vicente blvd.',brentwood,310-207-7782,'noodle shops',0
'joe allen','326 w. 46th st.','new york',212/581-6464,american,mishima,'8474 w. third st.',la,213-782-0181,'noodle shops',0
'smith & wollensky','201 e. 49th st.','new york',212/753-1530,american,granita,'23725 w. malibu rd.',malibu,310-456-0488,californian,0
'horseradish grill','4320 powers ferry rd.',atlanta,404/255-7277,southern,'mitali east-west','296 bleecker st.','new york city',212-989-1367,indian,0
tillerman,'2245 e. flamingo rd.','las vegas',702/731-4036,seafood,'jackson diner','37-03 74th st.',queens,718-672-1232,indian,0
pisces,'95 ave. a at 6th st.','new york',212/260-6660,seafood,'andre\'s french restaurant','401 s. 6th st.','las vegas',702-385-5016,'french (classic)',0
'chin\'s','3200 las vegas blvd. s','las vegas',702/733-8899,asian,chopstix,'4279 roswell rd.',atlanta,404-255-4868,chinese,0
'rib ranch','25 irby ave.',atlanta,404/233-7644,barbecue,'baker\'s cajun cafe','1134 euclid ave.',atlanta,404-223-5039,cajun/creole,0
'kabuto sushi','5116 geary blvd.','san francisco',415/752-5652,asian,'russell\'s burgers','1198 pch','seal beach',310-596-9556,hamburgers,0
'mi cocina','57 jane st.  off hudson st.','new york',212/627-8273,mexican,'johnny reb\'s southern smokehouse','4663 long beach blvd.','long beach',310-423-7327,southern/soul,0
'ernie\'s','2150 broadway  between 75th and 76th sts.','new york',212/496-1588,american,'l\'orangerie','903 n. la cienega blvd.','w. hollywood',310-652-9770,'french (classic)',0
'cafe bizou','14016 ventura blvd.','sherman oaks',818/788-3536,french,picholine,'35 w. 64th st.','new york city',212-724-8585,mediterranean,0
't salon','143 mercer st. at prince st.','new york',212/925-3700,'coffee bar','cassell\'s','3266 w. sixth st.',la,213-480-8668,hamburgers,0
'tra di noi','3835 cross creek rd.','los angeles',310/456-0169,italian,'ti couz','3108 16th st.','san francisco',415-252-7373,french,0
c3,'103 waverly pl.  near washington sq.','new york',212/254-1200,american,lutece,'249 e. 50th st.','new york city',212-752-2225,'french (classic)',0
'philippe\'s the original','1001 n. alameda st.','los angeles',213/628-3781,american,'la taqueria','2889 mission st.','san francisco',415-285-7117,mexican,0
'sarabeth\'s kitchen','423 amsterdam ave.  between 80th and 81st sts.','new york',212/496-6280,american,'brasserie le coze','3393 peachtree rd.',atlanta,404-266-1440,'french bistro',0
'sant ambroeus','1000 madison ave.  between 77th and 78th sts.','new york',212/570-2211,'coffee bar','arnie morton\'s of chicago','435 s. la cienega blvd.','los angeles',310-246-1501,steakhouses,0
'fiorello\'s roman cafe','1900 broadway  between 63rd and 64th sts.','new york',212/595-5330,italian,'johnny reb\'s southern smokehouse','4663 long beach blvd.','long beach',310-423-7327,southern/soul,0
'south city kitchen','1144 crescent ave.',atlanta,404/873-7358,southern,'greenwood\'s','1087 green st.',roswell,770-992-5383,southern/soul,0
'canter\'s','419 n. fairfax ave.','los angeles',213/651-2030.,american,'cafe flore','2298 market st.','san francisco',415-621-8579,californian,0
'des alpes','732 broadway','san francisco',415/788-9900,french,citrus,'6703 melrose ave.','los angeles',213-857-0034,californian,0
bouterin,'420 e. 59th st.  off 1st ave.','new york',212/758-0323,french,'doidge\'s','2217 union st.','san francisco',415-921-2149,american,0
dive!,'10250 santa monica blvd.','los angeles',310/788-,'dive american','art\'s deli','12224 ventura blvd.','studio city',818-762-1221,delis,0
'mavalli palace','46 e. 29th st.','new york',212/679-5535,asian,'morton\'s of chicago (las vegas)','3200 las vegas blvd. s.','las vegas',702-893-0703,steakhouses,0
pisces,'95 ave. a at 6th st.','new york',212/260-6660,seafood,'michael\'s (los angeles)','1147 third st.','santa monica',310-451-0843,californian,0
'ritz-carlton restaurant and dining room','600 stockton st.','san francisco',415/296-7465,american,'bill\'s place','2315 clement st.','san francisco',415-221-5262,hamburgers,0
'golden steer','308 w. sahara ave.','las vegas',702/384-4470,'steak houses','la folie','2316 polk st.','san francisco',415-776-5577,'french (new)',0
'steak house','2880 las vegas blvd. s','las vegas',702/734-0410,'steak houses','uncle bill\'s pancake house','1305 highland ave.','manhattan beach',310-545-5177,diners,0
'rex il ristorante','617 s. olive st.','los angeles',213/627-2300,italian,'asahi ramen','2027 sawtelle blvd.','west la',310-479-2231,'noodle shops',0
'empress court','3570 las vegas blvd. s','las vegas',702/731-7888,asian,'shun lee palace','155 e. 55th st.','new york city',212-371-8844,chinese,0
'the savannah club','2420 broadway at 89th st.','new york',212/496-1066,american,sushisay,'38 e. 51st st.','new york city',212-755-1780,japanese,0
'bistro roti','155 steuart st.','san francisco',415/495-6500,french,'bel-air hotel','701 stone canyon rd.','bel air',310-472-1211,californian,0
bouterin,'420 e. 59th st.  off 1st ave.','new york',212/758-0323,french,'cucina della fontana','368 bleecker st.','new york city',212-242-0636,italian,0
'la folie','2316 polk st.','san francisco',415/776-5577,french,mishima,'8474 w. third st.',la,213-782-0181,'noodle shops',0
'bone\'s','3130 piedmont road',atlanta,404/237-2663,american,'slanted door','584 valencia st.','san francisco',415-861-8032,vietnamese,0
'le colonial','149 e. 57th st.','new york','212/ 752-0808',asian,'21 club','21 w. 52nd st.','new york city',212-582-7200,'american (new)',0
sfuzzi,'58 w. 65th st.','new york',212/873-3700,american,'my thai','1248 clairmont rd.',atlanta,404-636-4280,thai,0
ipanema,'13 w. 46th st.','new york',212/730-5848,'latin american','original pancake house (at)','4330 peachtree rd.',atlanta,404-237-4116,american,0
odeon,'145 w. broadway at thomas st.','new york',212/233-0507,american,oceana,'55 e. 54th st.','new york city',212-759-5941,seafood,0
feast,'2411 w. sahara ave.','las vegas',702/367-2411,buffets,matsuhisa,'129 n. la cienega blvd.','beverly hills',310-659-9639,seafood,0
'des alpes','732 broadway','san francisco',415/788-9900,french,'ruby\'s (la)','45 s. fair oaks ave.',pasadena,818-796-7829,diners,0
'louise\'s trattoria','4500 los feliz blvd.','los angeles',213/667-0777,italian,'szechuan kitchen','1460 first ave.','new york city',212-249-4615,chinese,0
'hong kong villa','2332 clement st.','san francisco',415/752-8833,asian,'feast from the east','1949 westwood blvd.','west la',310-475-0400,chinese,0
tomtom,'3393 peachtree rd.',atlanta,404/264-1163,continental,sushisay,'38 e. 51st st.','new york city',212-755-1780,japanese,0
'south city kitchen','1144 crescent ave.',atlanta,404/873-7358,southern,'jan\'s family restaurant','8424 beverly blvd.',la,213-651-2866,'coffee shops',0
'pinot bistro','12969 ventura blvd.','los angeles',818/990-0500,french,'gray\'s papaya','2090 broadway','new york city',212-799-0243,'hot dogs',0
'r&g lounge','631 b kearny st.','san francisco',415/982-7877,'or 415/982-3811 asian','rainbow room','30 rockefeller plaza','new york city',212-632-5000,'american (new)',0
'coco pazzo','23 e. 74th st.','new york',212/794-0205,italian,lutece,'249 e. 50th st.','new york city',212-752-2225,'french (classic)',0
campanile,'624 s. la brea ave.','los angeles',213/938-1447,american,'campton place','340 stockton st.','san francisco',415-955-5555,'american (new)',0
'jack\'s','615 sacramento st.','san francisco',415/986-9854,'old san francisco','gramercy tavern','42 e. 20th st.','new york city',212-477-0777,'american (new)',0
'garden court','market and new montgomery sts.','san francisco',415/546-5011,'old san francisco','barbecue kitchen','1437 virginia ave.',atlanta,404-766-9906,bbq,0
'cafe lalo','201 w. 83rd st.','new york',212/496-6031,'coffee bar','spago (los angeles)','8795 sunset blvd.','w. hollywood',310-652-4025,californian,0
maykadeh,'470 green st.','san francisco',415/362-8286,'greek and middle eastern','rose of india','308 e. sixth st.','new york city',212-533-5011,indian,0
'mangia e bevi','800 9th ave. at 53rd st.','new york',212/956-3976,italian,felidia,'243 e. 58th st.','new york city',212-758-1479,italian,0
'capozzoli\'s','3333 s. maryland pkwy.','las vegas',702/731-5311,italian,'afghan kebab house','764 ninth ave.','new york city',212-307-1612,afghan,0
newsbar,'2 w. 19th st.','new york',212/255-3996,'coffee bar','corner bistro','331 w. fourth st.','new york city',212-242-9502,hamburgers,0
'buca giovanni','800 greenwich st.','san francisco',415/776-7766,italian,'tommy\'s','2575 beverly blvd.',la,213-389-9060,hamburgers,0
'cafe adriano','3347 fillmore st.','san francisco',415/474-4180,italian,'benita\'s frites','1433 third st. promenade','santa monica',310-458-2889,'fast food',0
feast,'2411 w. sahara ave.','las vegas',702/367-2411,buffets,'carnegie deli','854 seventh ave.','new york city',212-757-2245,delis,0
'ruth\'s chris','148 w. 51st st.','new york',212/245-9600,american,'ritz-carlton dining room (san francisco)','600 stockton st.','san francisco',415-296-7465,'french (new)',0
'french roast cafe','2340 broadway at 85th st.','new york',212/799-1533,'coffee bar','bel-air hotel','701 stone canyon rd.','bel air',310-472-1211,californian,0
'lucky strike','59 grand st.  between wooster st. and w. broadway','new york',212/941-0479,'or 212/941-0772 american','la grotta','2637 peachtree rd. ne',atlanta,404-231-1368,italian,0
arizona,'206 206 e. 60th st.','new york',212/838-0440,american,'teresa\'s','80 montague st.',queens,718-520-2910,polish,0
'bugsy\'s diner','3555 las vegas blvd. s','las vegas',702/733-3111,'coffee shops/diners','chez melange','1716 pch','redondo beach',310-540-1222,eclectic,0
'dean & deluca','121 prince st.','new york',212/254-8776,'coffee bar',citrus,'6703 melrose ave.','los angeles',213-857-0034,californian,0
sanppo,'1702 post st.','san francisco',415/346-3486,asian,'lespinasse (new york city)','2 e. 55th st.','new york city',212-339-6719,asian,0
drago,'2628 wilshire blvd.','santa monica',310/828-1585,italian,'sweet lady jane','8360 melrose ave.',la,213-653-7145,desserts,0
'il cortile','125 mulberry st.  between canal and hester sts.','new york',212/226-6060,italian,'carnegie deli','854 seventh ave.','new york city',212-757-2245,delis,0
'ben benson\'s','123 w. 52nd st.','new york',212/581-8888,american,'kelley & ping','127 greene st.','new york city',212-228-1212,pan-asian,0
'fleur de lys','777 sutter st.','san francisco',415/673-7779,french,petrossian,'182 w. 58th st.','new york city',212-245-2214,russian,0
'la grotta','2637 peachtree rd.  peachtree house condominium',atlanta,404/231-1368,italian,'brighton coffee shop','9600 brighton way','beverly hills',310-276-7732,'coffee shops',0
'pinot hollywood','1448 n. gower st.','los angeles',213/461-8800,californian,'ciboulette restaurant','1529 piedmont ave.',atlanta,404-874-7600,'french (new)',0
terrace,'400 w. 119th st.  between amsterdam and morningside aves.','new york',212/666-9490,continental,'edison cafe','228 w. 47th st.','new york city',212-840-5000,diners,0
'le colonial','8783 beverly blvd.','los angeles',310/289-0660,asian,'one if by land  tibs','17 barrow st.','new york city',212-228-0822,continental,0
'lucky strike','59 grand st.  between wooster st. and w. broadway','new york',212/941-0479,'or 212/941-0772 american',taiko,'11677 san vicente blvd.',brentwood,310-207-7782,'noodle shops',0
'uncle nick\'s','747 9th ave.  between 50th and 51st sts.','new york',212/315-1726,mediterranean,'deacon burton\'s soulfood restaurant','1029 edgewood ave. se',atlanta,404-523-1929,southern/soul,0
'grand cafe hotel monaco','501 geary st.','san francisco',415/292-0101,american,'thelma\'s kitchen','764 marietta st. nw',atlanta,404-688-5855,cafeterias,0
'motown cafe','104 w. 57th st.  near 6th ave.','new york',212/581-8030,american,'gumbo pot  the','6333 w. third st.',la,213-933-0358,cajun/creole,0
'cafe claude','7 claude la.','san francisco',415/392-3505,french,petrossian,'182 w. 58th st.','new york city',212-245-2214,russian,0
bolo,'23 e. 22nd st.','new york',212/228-2200,mediterranean,'rubin\'s red hots','15322 ventura blvd.',encino,818-905-6515,'hot dogs',0
'ben benson\'s','123 w. 52nd st.','new york',212/581-8888,american,'lemongrass grill','61a seventh ave.',brooklyn,718-399-7100,thai,0
petrossian,'182 w. 58th st.','new york',212/245-2214,french,'lespinasse (new york city)','2 e. 55th st.','new york city',212-339-6719,asian,0
'horseradish grill','4320 powers ferry rd.',atlanta,404/255-7277,southern,'bristol farms market cafe','1570 rosecrans ave. s.',pasadena,310-643-5229,californian,0
'tribeca grill','375 greenwich st.  near franklin st.','new york',212/941-3900,american,'morton\'s of chicago (atlanta)','303 peachtree st. ne',atlanta,404-577-4366,steakhouses,0
'golden nugget hotel','129 e. fremont st.','las vegas',702/385-7111,buffets,'trio cafe','1870 fillmore st.','san francisco',415-563-2248,american,0
'cendrillon asian grill & marimba bar','45 mercer st.  between broome and grand sts.','new york',212/343-9012,asian,sushisay,'38 e. 51st st.','new york city',212-755-1780,japanese,0
'le chardonnay','8284 melrose ave.','los angeles',213/655-8880,french,'roosevelt tamale parlor','2817 24th st.','san francisco',415-550-9213,mexican,0
'il cortile','125 mulberry st.  between canal and hester sts.','new york',212/226-6060,italian,'morton\'s of chicago (las vegas)','3200 las vegas blvd. s.','las vegas',702-893-0703,steakhouses,0
'la grotta','2637 peachtree rd.  peachtree house condominium',atlanta,404/231-1368,italian,'shun lee palace','155 e. 55th st.','new york city',212-371-8844,chinese,0
'spring street natural restaurant & bar','62 spring st. at lafayette st.','new york',212/966-0290,american,march,'405 e. 58th st.','new york city',212-754-6272,'american (new)',0
lespinasse,'2 e. 55th st.','new york',212/339-6719,american,'pho hoa','642 broadway',chinatown,213-626-5530,vietnamese,0
toulouse,'b peachtree rd.',atlanta,404/351-9533,french,'alain rondelli','126 clement st.','san francisco',415-387-0408,'french (new)',0
'rainbow room','30 rockefeller plaza','new york',212/632-5000,'or 212/632-5100 american','bobby & june\'s kountry kitchen','375 14th st.',atlanta,404-876-3872,southern/soul,0
toulouse,'b peachtree rd.',atlanta,404/351-9533,french,'thep phanom','400 waller st.','san francisco',415-431-2526,thai,0
'french quarter food shop','923 peachtree st.  at 8th st.',atlanta,404/875-2489,southern,'marnie\'s noodle shop','466 hudson st.','new york city',212-741-3214,asian,0
'hudson river club','4 world financial center','new york',212/786-1500,american,'bistro 45','45 s. mentor ave.',pasadena,818-795-2478,californian,0
maykadeh,'470 green st.','san francisco',415/362-8286,'greek and middle eastern',seryna,'11 e. 53rd st.','new york city',212-980-9393,japanese,0
'mad fish','2182 broadway  between 77th and 78th sts.','new york',212/787-0202,seafood,'hollywood hills coffee shop','6145 franklin ave.',hollywood,213-467-7678,'coffee shops',0
vong,'200 e. 54th st.','new york',212/486-9592,american,'ruby\'s (la)','45 s. fair oaks ave.',pasadena,818-796-7829,diners,0
'casa la femme','150 wooster st.  between houston and prince sts.','new york',212/505-0005,'middle eastern','benny\'s burritos','93 ave. a','new york city',212-254-2054,mexican,0
'stage deli','834 7th ave.  between 53rd and 54th sts.','new york',212/245-7850,delicatessen,'cafe claude','7 claude ln.','san francisco',415-392-3505,'french bistro',0
'cafe luxembourg','200 w. 70th st.','new york',212/873-7411,french,'palm  the (los angeles)','9001 santa monica blvd.','w. hollywood',310-550-8811,steakhouses,0
'dining room','9500 wilshire blvd.','los angeles',310/275-5200,californian,'second street grill','200 e. fremont st.','las vegas',702-385-6277,'pacific rim',0
'second avenue deli','156 2nd ave. at 10th st.','new york',212/677-0606,delicatessen,'les celebrites','155 w. 58th st.','new york city',212-484-5113,'french (classic)',0
'cha cha cha','656 n. virgil ave.','los angeles',213/664-7723,caribbean,'bone\'s restaurant','3130 piedmont rd. ne',atlanta,404-237-2663,steakhouses,0
'viva mercado\'s','6182 w. flamingo rd.','las vegas',702/871-8826,mexican,'trio cafe','1870 fillmore st.','san francisco',415-563-2248,american,0
'shun lee west','43 w. 65th st.','new york',212/371-8844,asian,'wa-ha-ka oaxaca mexican grill','2141 polk st.','san francisco',415-775-1055,mexican,0
firehouse,'522 columbus ave.  between 85th and 86th sts.','new york',212/595-3139,american,'lulu restaurant-bis-cafe','816 folsom st.','san francisco',415-495-5775,mediterranean,0
aqua,'252 california st.','san francisco',415/956-9662,seafood,r-23,'923 e. third st.','los angeles',213-687-7178,japanese,0
'caffe bondi ristorante','7 w. 20th st.','new york',212/691-8136,italian,'baja fresh','3345 kimber dr.','westlake village',805-498-4049,mexican,0
'sant ambroeus','1000 madison ave.  between 77th and 78th sts.','new york',212/570-2211,'coffee bar','indo cafe','10428 1/2 national blvd.',la,310-815-1290,indonesian,0
'monkey bar','60 e. 54th st.','new york',212/838-2600,american,citrus,'6703 melrose ave.','los angeles',213-857-0034,californian,0
'turkish kitchen','386 3rd ave.  between 27th and 28th sts.','new york',212/679-1810,'middle eastern','cafe \'50s','838 lincoln blvd.',venice,310-399-1955,american,0
aquavit,'13 w. 54th st.','new york',212/307-7311,continental,'nuevo laredo cantina','1495 chattahoochee ave. nw',atlanta,404-352-9009,mexican,0
'cafe bizou','14016 ventura blvd.','sherman oaks',818/788-3536,french,'maxwell\'s cafe','13329 washington blvd.','marina del rey',310-306-7829,american,0
'north india','3131 webster st.','san francisco',415/931-1556,asian,'river cafe','1 water st.',brooklyn,718-522-5200,'american (new)',0
'teresa\'s','103 1st ave.  between 6th and 7th sts.','new york',212/228-0604,'east european','morton\'s of chicago (atlanta)','303 peachtree st. ne',atlanta,404-577-4366,steakhouses,0
'mckinnon\'s louisiane','3209 maple dr.',atlanta,404/237-1313,southern,'edison cafe','228 w. 47th st.','new york city',212-840-5000,diners,0
'sant ambroeus','1000 madison ave.  between 77th and 78th sts.','new york',212/570-2211,'coffee bar',menchanko-tei,'39 w. 55th st.','new york city',212-247-1585,japanese,0
c3,'103 waverly pl.  near washington sq.','new york',212/254-1200,american,'les celebrites','155 w. 58th st.','new york city',212-484-5113,'french (classic)',0
'perry\'s','1944 union st.','san francisco',415/922-9022,american,'four seasons','99 e. 52nd st.','new york city',212-754-9494,'american (new)',0
republic,'37a union sq. w  between 16th and 17th sts.','new york',212/627-7172,asian,'la fonda latina','4427 roswell rd.',atlanta,404-303-8201,spanish,0
'buca giovanni','800 greenwich st.','san francisco',415/776-7766,italian,'la caravelle','33 w. 55th st.','new york city',212-586-4252,'french (classic)',0
chevys,'4th and howard sts.','san francisco',415/543-8060,'mexican/latin american/spanish',felidia,'243 e. 58th st.','new york city',212-758-1479,italian,0
'mccormick & kuleto\'s','ghirardelli sq.','san francisco',415/929-1730,seafood,'andre\'s french restaurant','401 s. 6th st.','las vegas',702-385-5016,'french (classic)',0
'ton kiang','3148 geary blvd.','san francisco',415/752-4440,asian,tortillas,'774 ponce de leon ave. ne',atlanta,404-892-0193,tex-mex,0
'bamboo garden','4850 flamingo rd.','las vegas',702/871-3262,asian,'ej\'s luncheonette','432 sixth ave.','new york city',212-473-5555,diners,0
'la folie','2316 polk st.','san francisco',415/776-5577,french,'hollywood hills coffee shop','6145 franklin ave.',hollywood,213-467-7678,'coffee shops',0
global,'33 93 2nd ave.  between 5th and 6th sts.','new york',212/477-8427,american,'westside cottage','689 ninth ave.','new york city',212-245-0800,chinese,0
'city grill','50 hurt plaza',atlanta,404/524-2489,international,'la serenata de garibaldi','1842 e. first','st. boyle hts.',213-265-2887,mexican/tex-mex,0
dive!,'10250 santa monica blvd.','los angeles',310/788-,'dive american',nava,'3060 peachtree rd.',atlanta,404-240-1984,southwestern,0
abbey,'163 ponce de leon ave.',atlanta,404/876-8532,international,'chez michel','804 north point st.','san francisco',415-775-7036,californian,0
'la grotta at ravinia dunwoody rd.','holiday inn/crowne plaza at ravinia  dunwoody',atlanta,770/395-9925,italian,'indo cafe','10428 1/2 national blvd.',la,310-815-1290,indonesian,0
'l\'auberge','1191 1st ave.  between 64th and 65th sts.','new york',212/288-8791,'middle eastern',majestic,'1031 ponce de leon ave.',atlanta,404-875-0276,diners,0
'splendido embarcadero',4,'san francisco',415/986-3222,mediterranean,seryna,'11 e. 53rd st.','new york city',212-980-9393,japanese,0
'city grill','50 hurt plaza',atlanta,404/524-2489,international,'bone\'s restaurant','3130 piedmont rd. ne',atlanta,404-237-2663,steakhouses,0
matsuhisa,'129 n. la cienega blvd.','beverly hills',310/659-9639,asian,'baja fresh','3345 kimber dr.','westlake village',805-498-4049,mexican,0
'marquet patisserie','15 e. 12th st.  between 5th ave. and university pl.','new york',212/229-9313,'coffee bar','cafe con leche','424 amsterdam ave.','new york city',212-595-7000,cuban,0
'cafe renaissance','7050 jimmy carter blvd.  norcross',atlanta,770/441--0291,american,moongate,'3400 las vegas blvd. s.','las vegas',702-791-7352,chinese,0
terrace,'400 w. 119th st.  between amsterdam and morningside aves.','new york',212/666-9490,continental,fringale,'570 fourth st.','san francisco',415-543-0573,'french bistro',0
'judson grill','152 w. 52nd st.','new york',212/582-5252,american,'bobby & june\'s kountry kitchen','375 14th st.',atlanta,404-876-3872,southern/soul,0
'lillie langtry\'s','129 e. fremont st.','las vegas',702/385-7111,asian,taiko,'11677 san vicente blvd.',brentwood,310-207-7782,'noodle shops',0
cava,'3rd st.','los angeles',213/658-8898,mediterranean,'pano\'s & paul\'s','1232 w. paces ferry rd.',atlanta,404-261-3662,'american (new)',0
'sant ambroeus','1000 madison ave.  between 77th and 78th sts.','new york',212/570-2211,'coffee bar',zab-e-lee,'4837 old national hwy.','college park',404-768-2705,thai,0
'hong kong villa','2332 clement st.','san francisco',415/752-8833,asian,'nicky blair\'s','3925 paradise rd.','las vegas',702-792-9900,italian,0
'judson grill','152 w. 52nd st.','new york',212/582-5252,american,'patsy\'s pizza','19 old fulton st.',brooklyn,718-858-4300,pizza,0
'caffe dell\'artista','46 greenwich ave.','new york',212/645-4431,'coffee bar','john\'s pizzeria','48 w. 65th st.','new york city',212-721-7001,pizza,0
ct,'111 e. 22nd st.  between park ave. s and lexington ave.','new york',212/995-8500,french,'zankou chicken','1415 e. colorado st.',glendale,818-244-1937,'middle eastern',0
'luna si','1931 peachtree rd.',atlanta,404/355-5993,continental,'cafe sunflower','5975 roswell rd.',atlanta,404-256-1675,'health food',0
'jimmy\'s','201 moreno dr.','los angeles',310/552-2394,continental,'buckhead diner','3073 piedmont rd.',atlanta,404-262-3336,'american (new)',0
'caffe dell\'artista','46 greenwich ave.','new york',212/645-4431,'coffee bar','corner bistro','331 w. fourth st.','new york city',212-242-9502,hamburgers,0
anthonys,'3109 piedmont rd.  just south of peachtree rd.',atlanta,404/262-7379,american,'van gogh\'s restaurant & bar','70 w. crossville rd.',roswell,770-993-1156,'american (new)',0
'21 club','21 w. 52nd st.','new york',212/582-7200,american,'bone\'s restaurant','3130 piedmont rd. ne',atlanta,404-237-2663,steakhouses,0
otabe,'68 e. 56th st.','new york',212/223-7575,asian,'peter luger steak house','178 broadway',brooklyn,718-387-7400,steakhouses,0
'main street','446 columbus ave.  between 81st and 82nd sts.','new york',212/873-5025,american,'mulberry st.','17040 ventura blvd.',encino,818-906-8881,pizza,0
'l\'orangerie','903 n. la cienega blvd.','los angeles',310/652-9770,french,'monsoon (ny)','435 amsterdam ave.','new york city',212-580-8686,thai,0
'les halles','411 park ave. s  between 28th and 29th sts.','new york',212/679-4111,french,'teresa\'s','80 montague st.',queens,718-520-2910,polish,0
'yujean kang\'s gourmet chinese cuisine','67 n. raymond ave.','los angeles',818/585-0855,asian,'uncle bill\'s pancake house','1305 highland ave.','manhattan beach',310-545-5177,diners,0
'schatzi on main','3110 main st.','los angeles',310/399-4800,continental,'tre visi','3799 las vegas blvd. s.','las vegas',702-891-7331,italian,0
'vivande porta via','2125 fillmore st.','san francisco',415/346-4430,italian,'joe\'s shanghai','9 pell st.',queens,718-539-3838,chinese,0
'il fornaio levi\'s plaza','1265 battery st.','san francisco',415/986-0100,italian,'kokomo cafe','6333 w. third st.',la,213-933-0773,american,0
'carmine\'s','2450 broadway  between 90th and 91st sts.','new york',212/362-2200,italian,'original pantry bakery','875 s. figueroa st. downtown',la,213-627-6879,diners,0
'golden unicorn','18 e. broadway at catherine st.','new york','212/ 941-0911',asian,petrossian,'182 w. 58th st.','new york city',212-245-2214,russian,0
'scala\'s bistro','432 powell st.','san francisco',415/395-8555,italian,'mo better meatty meat','7261 melrose ave.',la,213-935-5280,hamburgers,0
chevys,'4th and howard sts.','san francisco',415/543-8060,'mexican/latin american/spanish','dusit thai','3221 mission st.','san francisco',415-826-4639,thai,0
firehouse,'522 columbus ave.  between 85th and 86th sts.','new york',212/595-3139,american,'bistro 45','45 s. mentor ave.',pasadena,818-795-2478,californian,0
'manila garden','325 e. 14th st.  between 1st and 2nd aves.','new york',212/777-6314,asian,'dusit thai','3221 mission st.','san francisco',415-826-4639,thai,0
'bardelli\'s','243 o\'farrell st.','san francisco',415/982-0243,'old san francisco','fenix at the argyle','8358 sunset blvd.','w. hollywood',213-848-6677,'french (new)',0
'le marais','150 w. 46th st.','new york',212/869-0900,american,citrus,'6703 melrose ave.','los angeles',213-857-0034,californian,0
'ritz-carlton restaurant and dining room','600 stockton st.','san francisco',415/296-7465,american,'maxwell\'s cafe','13329 washington blvd.','marina del rey',310-306-7829,american,0
'arnie morton\'s of chicago','435 s. la cienega blv.','los angeles',310/246-1501,american,'indo cafe','10428 1/2 national blvd.',la,310-815-1290,indonesian,0
'mavalli palace','46 e. 29th st.','new york',212/679-5535,asian,'mary mac\'s tea room','224 ponce de leon ave.',atlanta,404-876-1800,southern/soul,0
2223,'2223 market st.','san francisco',415/431-0692,american,'patsy\'s pizza','19 old fulton st.',brooklyn,718-858-4300,pizza,0
bouterin,'420 e. 59th st.  off 1st ave.','new york',212/758-0323,french,'la grotta','2637 peachtree rd. ne',atlanta,404-231-1368,italian,0
'second street grille','200 e. fremont st.','las vegas',702/385-3232,seafood,'afghan kebab house','764 ninth ave.','new york city',212-307-1612,afghan,0
'vince & eddie\'s','70 w. 68th st.','new york',212/721-0068,american,'bristol farms market cafe','1570 rosecrans ave. s.',pasadena,310-643-5229,californian,0
'coyote cafe','3799 las vegas blvd. s','las vegas',702/891-7349,southwestern,'jackson diner','37-03 74th st.',queens,718-672-1232,indian,0
'matthew\'s','1030 3rd ave. at 61st st.','new york',212/838-4343,american,'harold\'s barbecue','171 mcdonough blvd.',atlanta,404-627-9268,bbq,0
'dynasty room','930 hilgard ave.','los angeles',310/208-8765,continental,jiraffe,'502 santa monica blvd','santa monica',310-917-6671,californian,0
'world wrapps','2257 chestnut st.','san francisco',415/563-9727,american,'sushi nozawa','11288 ventura blvd.','studio city',818-508-7017,japanese,0
docks,'633 3rd ave. at 40th st.','new york','212/ 986-8080',seafood,'la grotta','2637 peachtree rd. ne',atlanta,404-231-1368,italian,0
vertigo,'600 montgomery st.','san francisco',415/433-7250,mediterranean,'cafe bizou','14016 ventura blvd.','sherman oaks',818-788-3536,'french bistro',0
'yank sing','427 battery st.','san francisco',415/541-4949,asian,'joe\'s shanghai','9 pell st.',queens,718-539-3838,chinese,0
'gladstone\'s','4 fish 17300 pacific coast hwy. at sunset blvd.','pacific palisades',310/454-3474,american,'parkway grill','510 s. arroyo pkwy.',pasadena,818-795-1001,californian,0
'film center cafe','635 9th ave.  between 44th and 45th sts.','new york','212/ 262-2525',american,patina,'5955 melrose ave.','los angeles',213-467-1108,californian,0
nicola,'601 s. figueroa st.','los angeles',213/485-0927,american,'edison cafe','228 w. 47th st.','new york city',212-840-5000,diners,0
'mandarin court','1510 e. flamingo rd.','las vegas',702/737-1234,asian,'wa-ha-ka oaxaca mexican grill','2141 polk st.','san francisco',415-775-1055,mexican,0
indochine,'430 lafayette st.  between 4th st. and astor pl.','new york',212/505-5111,asian,'mitali east-west','296 bleecker st.','new york city',212-989-1367,indian,0
'north india','3131 webster st.','san francisco',415/931-1556,asian,'original pancake house (at)','4330 peachtree rd.',atlanta,404-237-4116,american,0
'golden unicorn','18 e. broadway at catherine st.','new york','212/ 941-0911',asian,'bristol farms market cafe','1570 rosecrans ave. s.',pasadena,310-643-5229,californian,0
'cafe pierre','2 e. 61st st.','new york',212/940-8185,french,'cassell\'s','3266 w. sixth st.',la,213-480-8668,hamburgers,0
'the bacchanal','3570 las vegas blvd. s','las vegas',702/731-7525,'only in las vegas','la cumbre','515 valencia st.','san francisco',415-863-8205,mexican,0
'la grotta at ravinia dunwoody rd.','holiday inn/crowne plaza at ravinia  dunwoody',atlanta,770/395-9925,italian,pisces,'95 ave. a','new york city',212-260-6660,seafood,0
'macarthur park','607 front st.','san francisco',415/398-5700,american,'edison cafe','228 w. 47th st.','new york city',212-840-5000,diners,0
'fleur de jour','348 e. 62nd st.','new york',212/355-2020,'coffee bar','doidge\'s','2217 union st.','san francisco',415-921-2149,american,0
'tadich grill','240 california st.','san francisco',415/391-2373,seafood,granita,'23725 w. malibu rd.',malibu,310-456-0488,californian,0
thepin,'298 gough st.','san francisco',415/863-9335,asian,'one if by land  tibs','17 barrow st.','new york city',212-228-0822,continental,0
'yank sing','427 battery st.','san francisco',415/541-4949,asian,'rainbow room','30 rockefeller plaza','new york city',212-632-5000,'american (new)',0
'inca grill','492 broome st.  near w. broadway','new york',212/966-3371,'latin american',mishima,'8474 w. third st.',la,213-782-0181,'noodle shops',0
verbena,'54 irving pl. at 17th st.','new york',212/260-5454,american,'cucina della fontana','368 bleecker st.','new york city',212-242-0636,italian,0
chevys,'4th and howard sts.','san francisco',415/543-8060,'mexican/latin american/spanish',aqua,'252 california st.','san francisco',415-956-9662,'american (new)',0
manora,'3226 mission st.','san francisco',415/861-6224,asian,'roosevelt tamale parlor','2817 24th st.','san francisco',415-550-9213,mexican,0
c3,'103 waverly pl.  near washington sq.','new york',212/254-1200,american,'fenix at the argyle','8358 sunset blvd.','w. hollywood',213-848-6677,'french (new)',0
republic,'37a union sq. w  between 16th and 17th sts.','new york',212/627-7172,asian,'park avenue cafe (new york city)','100 e. 63rd st.','new york city',212-644-1900,'american (new)',0
'fifty seven fifty seven','57 e. 57th st.','new york',212/758-5757,american,'bistro  the','56 e. andrews dr. nw',atlanta,404-231-5733,'french bistro',0
'el cholo','1121 s. western ave.','los angeles',213/734-2773,mexican,'buzio\'s in the rio','3700 w. flamingo rd.','las vegas',702-252-7697,seafood,0
'sofia fabulous pizza','1022 madison ave.  near 79th st.','new york',212/734-2676,italian,'gray\'s papaya','2090 broadway','new york city',212-799-0243,'hot dogs',0
'lucky strike','59 grand st.  between wooster st. and w. broadway','new york',212/941-0479,'or 212/941-0772 american','103 west','103 w. paces ferry rd.',atlanta,404-233-5993,continental,0
'cafe des artistes','1 w. 67th st.','new york',212/877-3500,continental,'szechuan kitchen','1460 first ave.','new york city',212-249-4615,chinese,0
'lucky strike','59 grand st.  between wooster st. and w. broadway','new york',212/941-0479,'or 212/941-0772 american',aureole,'34 e. 61st st.','new york city',212-319-1660,'american (new)',0
seryna,'11 e. 53rd st.','new york',212/980-9393,asian,'21 club','21 w. 52nd st.','new york city',212-582-7200,'american (new)',0
'20 mott','20 mott st.  between bowery and pell st.','new york',212/964-0380,asian,'carey\'s','1021 cobb pkwy. se',marietta,770-422-8042,hamburgers,0
agrotikon,'322 e. 14 st.  between 1st and 2nd aves.','new york',212/473-2602,mediterranean,'mario\'s bohemian cigar store cafe','2209 polk st.','san francisco',415-776-8226,italian,0
'arnie morton\'s of chicago','435 s. la cienega blv.','los angeles',310/246-1501,american,'koo koo roo','8393 w. beverly blvd.',la,213-655-9045,chicken,0
'monkey bar','60 e. 54th st.','new york',212/838-2600,american,'la grotta','2637 peachtree rd. ne',atlanta,404-231-1368,italian,0
granita,'23725 w. malibu rd.',malibu,310/456-0488,californian,campanile,'624 s. la brea ave.','los angeles',213-938-1447,californian,0
joss,'9255 sunset blvd.','los angeles',310/276-1886,asian,'chez michel','804 north point st.','san francisco',415-775-7036,californian,0
sfuzzi,'58 w. 65th st.','new york',212/873-3700,american,'ritz-carlton cafe (atlanta)','181 peachtree st.',atlanta,404-659-0400,'american (new)',0
'cafe la fortuna','69 w. 71st st.','new york',212/724-5846,'coffee bar','kuruma zushi','2nd fl.','new york city',212-317-2802,japanese,0
thepin,'298 gough st.','san francisco',415/863-9335,asian,'mani\'s bakery & espresso bar','519 s. fairfax ave.',la,213-938-8800,desserts,0
'south park cafe','108 south park','san francisco',415/495-7275,french,'bobby & june\'s kountry kitchen','375 14th st.',atlanta,404-876-3872,southern/soul,0
'pano\'s and paul\'s','1232 w. paces ferry rd.',atlanta,404/261-3662,international,mifune,'1737 post st.','san francisco',415-922-0337,japanese,0
'cupcake cafe','522 9th ave. at 39th st.','new york',212/465-1530,'coffee bar','wa-ha-ka oaxaca mexican grill','2141 polk st.','san francisco',415-775-1055,mexican,0
march,'405 e. 58th st.','new york',212/754-6272,american,taiko,'11677 san vicente blvd.',brentwood,310-207-7782,'noodle shops',0
match,'160 mercer st.  between houston and prince sts.','new york',212/906-9173,american,'kuruma zushi','2nd fl.','new york city',212-317-2802,japanese,0
'ernie\'s','2150 broadway  between 75th and 76th sts.','new york',212/496-1588,american,'cafe des artistes','1 w. 67th st.','new york city',212-877-3500,'french (classic)',0
'stars cafe','500 van ness ave.','san francisco',415/861-4344,american,'khan toke thai house','5937 geary blvd.','san francisco',415-668-6654,thai,0
'fujiyama mama','467 columbus ave.  between 82nd and 83rd sts.','new york',212/769-1144,asian,'cafe blanc','9777 little santa monica blvd.','beverly hills',310-888-0108,'pacific new wave',0
'cafe roma','3570 las vegas blvd. s','las vegas',702/731-7547,'coffee shops/diners','la cachette','10506 little santa monica blvd.','century city',310-470-4992,'french (new)',0
sofi,'3rd st.','los angeles',213/651-0346,mediterranean,'rae\'s','2901 pico blvd.','santa monica',310-828-7937,diners,0
verbena,'54 irving pl. at 17th st.','new york',212/260-5454,american,'hedgerose heights inn  the','490 e. paces ferry rd. ne',atlanta,404-233-7673,continental,0
'milan cafe and coffee bar','120 w. 23rd st.','new york',212/807-1801,'coffee bar','lettuce souprise you (at)','3525 mall blvd.',duluth,770-418-9969,cafeterias,0
'antonio\'s','3700 w. flamingo','las vegas',702/252-7737,italian,'sarabeth\'s','1295 madison ave.','new york city',212-410-7335,american,0
adrienne,'700 5th ave. at 55th st.','new york',212/903-3918,french,veselka,'144 second ave.','new york city',212-228-9682,ukrainian,0
'new york noodletown','28 1/2 bowery at bayard st.','new york',212/349-0923,asian,'la salsa (la)','22800 pch',malibu,310-456-6299,mexican,0
'khan toke thai house','5937 geary blvd.','san francisco',415/668-6654,asian,arcadia,'21 e. 62nd st.','new york city',212-223-2900,'american (new)',0
felidia,'243 e. 58th st.','new york',212/758-1479,italian,'edison cafe','228 w. 47th st.','new york city',212-840-5000,diners,0
lutece,'249 e. 50th st.','new york',212/752-2225,french,'lettuce souprise you (at)','3525 mall blvd.',duluth,770-418-9969,cafeterias,0
pastis,'1015 battery st.','san francisco',415/391-2555,french,'yujean kang\'s','67 n. raymond ave.',pasadena,818-585-0855,chinese,0
felix,'340 w. broadway at grand st.','new york',212/431-0021,french,'andre\'s french restaurant','401 s. 6th st.','las vegas',702-385-5016,'french (classic)',0
'motown cafe','104 w. 57th st.  near 6th ave.','new york',212/581-8030,american,'carey\'s','1021 cobb pkwy. se',marietta,770-422-8042,hamburgers,0
'the bacchanal','3570 las vegas blvd. s','las vegas',702/731-7525,'only in las vegas',sushisay,'38 e. 51st st.','new york city',212-755-1780,japanese,0
'river cafe','1 water st. at the east river',brooklyn,718/522-5200,american,'brookhaven cafe','4274 peachtree rd.',atlanta,404-231-5907,vegetarian,0
'sarabeth\'s kitchen','423 amsterdam ave.  between 80th and 81st sts.','new york',212/496-6280,american,chops,'70 w. paces ferry rd.',atlanta,404-262-2675,steakhouses,0
'harry\'s bar & american grill','2020 ave. of the stars','los angeles',310/277-2333,italian,'dusit thai','3221 mission st.','san francisco',415-826-4639,thai,0
first,'87 1st ave.  between 5th and 6th sts.','new york',212/674-3823,american,jiraffe,'502 santa monica blvd','santa monica',310-917-6671,californian,0
'river cafe','1 water st. at the east river',brooklyn,718/522-5200,american,'la grotta','2637 peachtree rd. ne',atlanta,404-231-1368,italian,0
'rex il ristorante','617 s. olive st.','los angeles',213/627-2300,italian,'teresa\'s','80 montague st.',queens,718-520-2910,polish,0
'sammy\'s roumanian steak house','157 chrystie st. at delancey st.','new york',212/673-0330,'east european','cafe flore','2298 market st.','san francisco',415-621-8579,californian,0
'empire korea','6 e. 32nd st.','new york',212/725-1333,asian,'windows on the world','107th fl.','new york city',212-524-7000,eclectic,0
'bryant park grill  roof restaurant and bp cafe','25 w. 40th st.  between 5th and 6th aves.','new york',212/840-6500,american,'la cumbre','515 valencia st.','san francisco',415-863-8205,mexican,0
ciboulette,'1529 piedmont ave.',atlanta,404/874-7600,french,'java jive','790 ponce de leon ave.',atlanta,404-876-6161,'coffee shops',0
'la grotta at ravinia dunwoody rd.','holiday inn/crowne plaza at ravinia  dunwoody',atlanta,770/395-9925,italian,'les celebrites','155 w. 58th st.','new york city',212-484-5113,'french (classic)',0
'morton\'s','8764 melrose ave.','los angeles',310/276-5205,american,pisces,'95 ave. a','new york city',212-260-6660,seafood,0
s.p.q.r,'133 mulberry st.  between hester and grand sts.','new york',212/925-3120,italian,'maxwell\'s cafe','13329 washington blvd.','marina del rey',310-306-7829,american,0
'alley\'s end','311 w. 17th st.','new york',212/627-8899,american,'bobby & june\'s kountry kitchen','375 14th st.',atlanta,404-876-3872,southern/soul,0
'casa la femme','150 wooster st.  between houston and prince sts.','new york',212/505-0005,'middle eastern','plumpjack cafe','3127 fillmore st.','san francisco',415-563-4755,'american (new)',0
'l\'udo','432 lafayette st.  near astor pl.','new york',212/388-0978,french,'roosevelt tamale parlor','2817 24th st.','san francisco',415-550-9213,mexican,0
'planet hollywood','140 w. 57th st.','new york',212/333-7827,american,'second street grill','200 e. fremont st.','las vegas',702-385-6277,'pacific rim',0
suppenkuche,'601 hayes st.','san francisco',415/252-9289,russian/german,'johnny reb\'s southern smokehouse','4663 long beach blvd.','long beach',310-423-7327,southern/soul,0
'fleur de lys','777 sutter st.','san francisco',415/673-7779,french,'cha cha cha\'s','1805 haight st.','san francisco',415-386-5758,caribbean,0
'indigo coastal grill','1397 n. highland ave.',atlanta,404/876-0676,caribbean,'la grenouille','3 e. 52nd st.','new york city',212-752-1495,'french (classic)',0
'golden steer','308 w. sahara ave.','las vegas',702/384-4470,'steak houses','arnie morton\'s of chicago','435 s. la cienega blvd.','los angeles',310-246-1501,steakhouses,0
'luna si','1931 peachtree rd.',atlanta,404/355-5993,continental,'falafel king','1059 broxton ave.',westwood,310-208-4444,'middle eastern',0
'empress court','3570 las vegas blvd. s','las vegas',702/731-7888,asian,'brent\'s deli','19565 parthenia ave.',northridge,818-886-5679,delis,0
'city grill','50 hurt plaza',atlanta,404/524-2489,international,'cha cha cha\'s','1805 haight st.','san francisco',415-386-5758,caribbean,0
faz,'161 sutter st.','san francisco',415/362-0404,'greek and middle eastern',lutece,'249 e. 50th st.','new york city',212-752-2225,'french (classic)',0
docks,'633 3rd ave. at 40th st.','new york','212/ 986-8080',seafood,'don antonio\'s','1136 westwood blvd.',westwood,310-209-1422,italian,0
'san pietro','18 e. 54th st.','new york',212/753-9015,italian,nava,'3060 peachtree rd.',atlanta,404-240-1984,southwestern,0
'caffe roma','385 broome st. at mulberry','new york',212/226-8413,'coffee bar','bristol farms market cafe','1570 rosecrans ave. s.',pasadena,310-643-5229,californian,0
barbetta,'321 w. 46th st.','new york',212/246-9171,italian,oceana,'55 e. 54th st.','new york city',212-759-5941,seafood,0
first,'87 1st ave.  between 5th and 6th sts.','new york',212/674-3823,american,'ej\'s luncheonette','432 sixth ave.','new york city',212-473-5555,diners,0
'california pizza kitchen','207 s. beverly dr.','los angeles',310/275-1101,californian,'second street grill','200 e. fremont st.','las vegas',702-385-6277,'pacific rim',0
'hong kong villa','2332 clement st.','san francisco',415/752-8833,asian,'mayflower cuisinier','4750 w. sahara ave.','las vegas',702-870-8432,chinese,0
'taste of new orleans','889 w. peachtree st.',atlanta,404/874-5535,southern,'dottie\'s true blue cafe','522 jones st.','san francisco',415-885-2767,diners,0
'mary mac\'s tea room','224 ponce de leon ave.',atlanta,404/876-1800,southern,'lulu restaurant-bis-cafe','816 folsom st.','san francisco',415-495-5775,mediterranean,0
'captain\'s table','860 2nd ave. at 46th st.','new york',212/697-9538,seafood,'gray\'s papaya','2090 broadway','new york city',212-799-0243,'hot dogs',0
verbena,'54 irving pl. at 17th st.','new york',212/260-5454,american,'palm too','840 second ave.','new york city',212-697-5198,steakhouses,0
'bamboo garden','4850 flamingo rd.','las vegas',702/871-3262,asian,citrus,'6703 melrose ave.','los angeles',213-857-0034,californian,0
'da nico','164 mulberry st.  between grand and broome sts.','new york',212/343-1212,italian,'pho hoa','642 broadway',chinatown,213-626-5530,vietnamese,0
'harbor village','4 embarcadero center','san francisco',415/781-8833,asian,'park avenue cafe (new york city)','100 e. 63rd st.','new york city',212-644-1900,'american (new)',0
remi,'145 w. 53rd st.','new york',212/581-4242,italian,'l\'orangerie','903 n. la cienega blvd.','w. hollywood',310-652-9770,'french (classic)',0
picholine,'35 w. 64th st.','new york',212/724-8585,mediterranean,'teresa\'s','80 montague st.',queens,718-520-2910,polish,0
'ca\'brea','346 s. la brea ave.','los angeles',213/938-2863,italian,shiro,'1505 mission st. s.',pasadena,818-799-4774,'pacific new wave',0
'straits cafe','3300 geary blvd.','san francisco',415/668-1783,asian,'dusit thai','3221 mission st.','san francisco',415-826-4639,thai,0
'bamboo garden','4850 flamingo rd.','las vegas',702/871-3262,asian,'piero\'s restaurant','355 convention center dr.','las vegas',702-369-2305,italian,0
daniel,'20 e. 76th st.','new york',212/288-0033,french,'falafel king','1059 broxton ave.',westwood,310-208-4444,'middle eastern',0
'nikolai\'s roof','255 courtland st.  at harris st.',atlanta,404/221-6362,continental,'swan oyster depot','1517 polk st.','san francisco',415-673-1101,seafood,0
'captain\'s table','860 2nd ave. at 46th st.','new york',212/697-9538,seafood,'21 club','21 w. 52nd st.','new york city',212-582-7200,'american (new)',0
pamir,'1065 1st ave.  at 58th st.','new york',212/644-9258,'middle eastern',kiev,'117 second ave.','new york city',212-674-4040,ukrainian,0
'river cafe','1 water st. at the east river',brooklyn,718/522-5200,american,'lombardi\'s','32 spring st.','new york city',212-941-7994,pizza,0
aqua,'252 california st.','san francisco',415/956-9662,seafood,'sign of the dove','1110 third ave.','new york city',212-861-8080,'american (new)',0
faz,'161 sutter st.','san francisco',415/362-0404,'greek and middle eastern',aquavit,'13 w. 54th st.','new york city',212-307-7311,scandinavian,0
drago,'2628 wilshire blvd.','santa monica',310/828-1585,italian,'cafe lalo','201 w. 83rd st.','new york city',212-496-6031,coffeehouses,0
'manhattan cafe','1161 1st ave.  between 63rd and 64th sts.','new york',212/888-6556,american,'don antonio\'s','1136 westwood blvd.',westwood,310-209-1422,italian,0
thepin,'298 gough st.','san francisco',415/863-9335,asian,'doidge\'s','2217 union st.','san francisco',415-921-2149,american,0
'mandarin court','1510 e. flamingo rd.','las vegas',702/737-1234,asian,'mi cocina','57 jane st.','new york city',212-627-8273,mexican,0
'caffe vivaldi','32 jones st. at bleecker st.','new york',212/691-7538,'coffee bar','benita\'s frites','1433 third st. promenade','santa monica',310-458-2889,'fast food',0
abbey,'163 ponce de leon ave.',atlanta,404/876-8532,international,veggieland,'220 sandy springs circle',atlanta,404-231-3111,vegetarian,0
'internet cafe','82 e. 3rd st.  between 1st and 2nd aves.','new york','212/ 614-0747','coffee bar','jo jo','160 e. 64th st.','new york city',212-223-5656,'french bistro',0
'kuleto\'s','221 powell st.','san francisco',415/397-7720,italian,'ritz-carlton dining room (san francisco)','600 stockton st.','san francisco',415-296-7465,'french (new)',0
'evergreen cafe','1288 1st ave. at 69th st.','new york',212/744-3266,asian,'bernard\'s','515 s. olive st.','los angeles',213-612-1580,continental,0
sfuzzi,'58 w. 65th st.','new york',212/873-3700,american,'tillerman  the','2245 e. flamingo rd.','las vegas',702-731-4036,steakhouses,0
'dante\'s down the hatch','underground underground mall  underground atlanta',atlanta,404/577-1800,continental,daniel,'20 e. 76th st.','new york city',212-288-0033,'french (new)',0
'bar anise','1022 3rd ave.  between 60th and 61st sts.','new york',212/355-1112,mediterranean,'san domenico','240 central park s.','new york city',212-265-5959,italian,0
'caffe roma','385 broome st. at mulberry','new york',212/226-8413,'coffee bar','cha cha cha\'s','1805 haight st.','san francisco',415-386-5758,caribbean,0
matsuhisa,'129 n. la cienega blvd.','beverly hills',310/659-9639,asian,'locanda veneta','8638 w. third st.','los angeles',310-274-1893,italian,0
2223,'2223 market st.','san francisco',415/431-0692,american,'island spice','402 w. 44th st.','new york city',212-765-1737,caribbean,0
'l\'orangerie','903 n. la cienega blvd.','los angeles',310/652-9770,french,arcadia,'21 e. 62nd st.','new york city',212-223-2900,'american (new)',0
'new york noodletown','28 1/2 bowery at bayard st.','new york',212/349-0923,asian,frijoleros,'1031 peachtree st. ne',atlanta,404-892-8226,tex-mex,0
'trader vic\'s','9876 wilshire blvd.','los angeles',310/276-6345,asian,valentino,'3115 pico blvd.','santa monica',310-829-4313,italian,0
'park avenue cafe','100 e. 63rd st.','new york',212/644-1900,american,'cafe sunflower','5975 roswell rd.',atlanta,404-256-1675,'health food',0
'mambo restaurante cubano','1402 n. highland ave.',atlanta,404/874-2626,caribbean,canoe,'4199 paces ferry rd.',atlanta,770-432-2663,'american (new)',0
'cafe renaissance','7050 jimmy carter blvd.  norcross',atlanta,770/441--0291,american,'don antonio\'s','1136 westwood blvd.',westwood,310-209-1422,italian,0
docks,'633 3rd ave. at 40th st.','new york','212/ 986-8080',seafood,'ritz-carlton cafe (buckhead)','3434 peachtree rd. ne',atlanta,404-237-2700,'american (new)',0
rain,'100 w. 82nd st.','new york',212/501-0776,asian,'indo cafe','10428 1/2 national blvd.',la,310-815-1290,indonesian,0
'tse yang','34 e. 51st st.','new york',212/688-5447,asian,'la cumbre','515 valencia st.','san francisco',415-863-8205,mexican,0
tapika,'950 8th ave. at 56th st.','new york','212/ 397-3737',american,'belvedere  the','9882 little santa monica blvd.','beverly hills',310-788-2306,'pacific new wave',0
'new york kom tang soot bul house','32 w. 32nd st.','new york','212/ 947-8482',asian,darbar,'44 w. 56th st.','new york city',212-432-7227,indian,0
'art\'s delicatessen','12224 ventura blvd.','studio city',818/762-1221,american,'buckhead diner','3073 piedmont rd.',atlanta,404-262-3336,'american (new)',0
mikado,'3400 las vegas blvd. s','las vegas',702/791-7111,asian,'nuevo laredo cantina','1495 chattahoochee ave. nw',atlanta,404-352-9009,mexican,0
'kyo-ya. sheraton palace hotel','2 new montgomery st.  at market st.','san francisco',415/546-5000,asian,'palace court','3570 las vegas blvd. s.','las vegas',702-731-7110,'french (new)',0
rumpus,'1 tillman pl.','san francisco',415/421-2300,american,'thailand restaurant','106 bayard st.','new york city',212-349-3132,thai,0
'frico bar','402 w. 43rd st.  off 9th ave.','new york',212/564-7272,italian,'zankou chicken','1415 e. colorado st.',glendale,818-244-1937,'middle eastern',0
'georgia grille','2290 peachtree rd.  peachtree square shopping center',atlanta,404/352-3517,american,'buckhead diner','3073 piedmont rd.',atlanta,404-262-3336,'american (new)',0
'columbus bakery','53rd sts.','new york',212/421-0334,'coffee bar','les celebrites','155 w. 58th st.','new york city',212-484-5113,'french (classic)',0
't salon','143 mercer st. at prince st.','new york',212/925-3700,'coffee bar','sparks steak house','210 e. 46th st.','new york city',212-687-4855,steakhouses,0
ipanema,'13 w. 46th st.','new york',212/730-5848,'latin american','le montrachet bistro','3000 paradise rd.','las vegas',702-732-5651,'french bistro',0
'cafe centro','200 park ave.  between 45th st. and vanderbilt ave.','new york',212/818-1222,french,'alon\'s at the terrace','659 peachtree st.',atlanta,404-724-0444,sandwiches,0
citrus,'6703 melrose ave.','los angeles',213/857-0034,californian,nava,'3060 peachtree rd.',atlanta,404-240-1984,southwestern,0
palio,'151 w. 51st. st.','new york',212/245-4850,italian,'michael\'s (las vegas)','3595 las vegas blvd. s.','las vegas',702-737-7111,continental,0
'lowcountry barbecue','6301 roswell rd.  sandy springs plaza  sandy springs',atlanta,404/255-5160,barbecue,'locanda veneta','8638 w. third st.','los angeles',310-274-1893,italian,0
'harbor village','4 embarcadero center','san francisco',415/781-8833,asian,'joe\'s','1023 abbot kinney blvd.',venice,310-399-5811,'american (new)',0
'alley\'s end','311 w. 17th st.','new york',212/627-8899,american,sushisay,'38 e. 51st st.','new york city',212-755-1780,japanese,0
'pano\'s and paul\'s','1232 w. paces ferry rd.',atlanta,404/261-3662,international,'masa\'s','648 bush st.','san francisco',415-989-7154,'french (new)',0
valentino,'3115 pico blvd.','santa monica',310/829-4313,italian,'ruby\'s (la)','45 s. fair oaks ave.',pasadena,818-796-7829,diners,0
'khan toke thai house','5937 geary blvd.','san francisco',415/668-6654,asian,'bistro  the','56 e. andrews dr. nw',atlanta,404-231-5733,'french bistro',0
'american place','2 park ave. at 32nd st.','new york',212/684-2122,american,'manhattan ocean club','57 w. 58th st.','new york city',212-371-7777,seafood,0
aja,'937 broadway at 22nd st.','new york',212/473-8388,american,'tavern on the green','central park west','new york city',212-873-3200,'american (new)',0
'cafe  ritz-carlton  buckhead','3434 peachtree rd.',atlanta,404/237-2700,'ext 6108 international',pisces,'95 ave. a','new york city',212-260-6660,seafood,0
'la grotta','2637 peachtree rd.  peachtree house condominium',atlanta,404/231-1368,italian,'la cachette','10506 little santa monica blvd.','century city',310-470-4992,'french (new)',0
'empire korea','6 e. 32nd st.','new york',212/725-1333,asian,'main course  the','10509 w. pico blvd.','rancho park',310-475-7564,american,0
kamogawa,'3300 peachtree rd.  grand hyatt',atlanta,404/841-0314,asian,r-23,'923 e. third st.','los angeles',213-687-7178,japanese,0
'l\'orangerie','903 n. la cienega blvd.','los angeles',310/652-9770,french,'chez michel','804 north point st.','san francisco',415-775-7036,californian,0
pastis,'1015 battery st.','san francisco',415/391-2555,french,'kelley & ping','127 greene st.','new york city',212-228-1212,pan-asian,0
'ca\'del sol','4100 cahuenga blvd.','los angeles',818/985-4669,italian,'cafe claude','7 claude ln.','san francisco',415-392-3505,'french bistro',0
'canter\'s','419 n. fairfax ave.','los angeles',213/651-2030.,american,'piero\'s restaurant','355 convention center dr.','las vegas',702-369-2305,italian,0
'south park cafe','108 south park','san francisco',415/495-7275,french,chanterelle,'2 harrison st.','new york city',212-966-6960,'french (new)',0
'hedgerose heights inn','490 e. paces ferry rd.',atlanta,404/233-7673,international,seryna,'11 e. 53rd st.','new york city',212-980-9393,japanese,0
'film center cafe','635 9th ave.  between 44th and 45th sts.','new york','212/ 262-2525',american,'tillerman  the','2245 e. flamingo rd.','las vegas',702-731-4036,steakhouses,0
remi,'145 w. 53rd st.','new york',212/581-4242,italian,'chin\'s','3200 las vegas blvd. s.','las vegas',702-733-8899,chinese,0
'mon kee seafood restaurant','679 n. spring st.','los angeles',213/628-6717,asian,'cucina della fontana','368 bleecker st.','new york city',212-242-0636,italian,0
'l\'auberge du midi','310 w. 4th st.  between w. 12th and bank sts.','new york',212/242-4705,french,'pink\'s famous chili dogs','709 n. la brea ave.',la,213-931-4223,'hot dogs',0
'brasserie le coze','3393 peachtree rd.  lenox square mall  near neiman marcus',atlanta,404/266-1440,french,'benny\'s burritos','93 ave. a','new york city',212-254-2054,mexican,0
otabe,'68 e. 56th st.','new york',212/223-7575,asian,'maxwell\'s cafe','13329 washington blvd.','marina del rey',310-306-7829,american,0
'bamboo garden','4850 flamingo rd.','las vegas',702/871-3262,asian,lutece,'249 e. 50th st.','new york city',212-752-2225,'french (classic)',0
pacifica,'138 lafayette st.  between canal and howard sts.','new york',212/941-4168,asian,'sweet lady jane','8360 melrose ave.',la,213-653-7145,desserts,0
'broadway deli','3rd st. promenade','santa monica',310/451-0616,american,palm,'837 second ave.','new york city',212-687-2953,steakhouses,0
'pano\'s and paul\'s','1232 w. paces ferry rd.',atlanta,404/261-3662,international,'nicky blair\'s','3925 paradise rd.','las vegas',702-792-9900,italian,0
'tommy tang\'s','7313 melrose ave.','los angeles',213/937-5733,asian,'maxwell\'s cafe','13329 washington blvd.','marina del rey',310-306-7829,american,0
bolo,'23 e. 22nd st.','new york',212/228-2200,mediterranean,'benny\'s burritos','93 ave. a','new york city',212-254-2054,mexican,0
'post house','28 e. 63rd st.','new york',212/935-2888,american,'alon\'s at the terrace','659 peachtree st.',atlanta,404-724-0444,sandwiches,0
'macarthur park','607 front st.','san francisco',415/398-5700,american,'103 west','103 w. paces ferry rd.',atlanta,404-233-5993,continental,0
odeon,'145 w. broadway at thomas st.','new york',212/233-0507,american,'sarabeth\'s','1295 madison ave.','new york city',212-410-7335,american,0
'sofia fabulous pizza','1022 madison ave.  near 79th st.','new york',212/734-2676,italian,'swan oyster depot','1517 polk st.','san francisco',415-673-1101,seafood,0
'georgia grille','2290 peachtree rd.  peachtree square shopping center',atlanta,404/352-3517,american,'jan\'s family restaurant','8424 beverly blvd.',la,213-651-2866,'coffee shops',0
eclipse,'8800 melrose ave.','los angeles',310/724-5959,californian,'lombardi\'s','32 spring st.','new york city',212-941-7994,pizza,0
'georgia grille','2290 peachtree rd.  peachtree square shopping center',atlanta,404/352-3517,american,'edison cafe','228 w. 47th st.','new york city',212-840-5000,diners,0
alamo,'304 e. 48th st.','new york','212/ 759-0590',mexican,patina,'5955 melrose ave.','los angeles',213-467-1108,californian,0
'penang soho','109 spring st.  between greene and mercer sts.','new york',212/274-8883,asian,'cucina di pesce','87 e. fourth st.','new york city',212-260-6800,seafood,0
'mesa grill','102 5th ave.  between 15th and 16th sts.','new york',212/807-7400,american,'brent\'s deli','19565 parthenia ave.',northridge,818-886-5679,delis,0
prego,'362 n. camden dr.','los angeles',310/277-7346,italian,'sushi nozawa','11288 ventura blvd.','studio city',818-508-7017,japanese,0
'mccormick & kuleto\'s','ghirardelli sq.','san francisco',415/929-1730,seafood,'cafe blanc','9777 little santa monica blvd.','beverly hills',310-888-0108,'pacific new wave',0
'gilliland\'s','2424 main st.','santa monica',310/392-3901,american,'gumbo pot  the','6333 w. third st.',la,213-933-0358,cajun/creole,0
'ruth\'s chris','148 w. 51st st.','new york',212/245-9600,american,'cha cha cha\'s','1805 haight st.','san francisco',415-386-5758,caribbean,0
orso,'322 w. 46th st.','new york',212/489-7212,italian,'lemongrass grill','61a seventh ave.',brooklyn,718-399-7100,thai,0
'corrado cafe','1013 3rd ave.  between 60th and 61st sts.','new york',212/753-5100,'coffee bar','thelma\'s kitchen','764 marietta st. nw',atlanta,404-688-5855,cafeterias,0
sanppo,'1702 post st.','san francisco',415/346-3486,asian,'original pancake house (at)','4330 peachtree rd.',atlanta,404-237-4116,american,0
'mary mac\'s tea room','224 ponce de leon ave.',atlanta,404/876-1800,southern,shiro,'1505 mission st. s.',pasadena,818-799-4774,'pacific new wave',0
'wu kong','101 spear st.','san francisco',415/957-9300,asian,'ruth\'s chris steak house (los angeles)','224 s. beverly dr.','beverly hills',310-859-8744,steakhouses,0
march,'405 e. 58th st.','new york',212/754-6272,american,'lemongrass grill','61a seventh ave.',brooklyn,718-399-7100,thai,0
'les celebrites','160 central park s','new york',212/484-5113,french,'slanted door','584 valencia st.','san francisco',415-861-8032,vietnamese,0
rubicon,'558 sacramento st.','san francisco',415/434-4100,american,'feast from the east','1949 westwood blvd.','west la',310-475-0400,chinese,0
'straits cafe','3300 geary blvd.','san francisco',415/668-1783,asian,'la mediterranee','288 noe st.','san francisco',415-431-7210,mediterranean,0
'nate \'n\' al\'s','414 n. beverly dr.','los angeles',310/274-0101,american,'koo koo roo','8393 w. beverly blvd.',la,213-655-9045,chicken,0
'arnie morton\'s of chicago','435 s. la cienega blv.','los angeles',310/246-1501,american,'monte carlo','3145 las vegas blvd. s.','las vegas',702-733-4524,'french (new)',0
'main street','446 columbus ave.  between 81st and 82nd sts.','new york',212/873-5025,american,'bistro  the','56 e. andrews dr. nw',atlanta,404-231-5733,'french bistro',0
'caffe lure','169 sullivan st.  between houston and bleecker sts.','new york',212/473-2642,french,daniel,'20 e. 76th st.','new york city',212-288-0033,'french (new)',0
daniel,'20 e. 76th st.','new york',212/288-0033,french,'cafe des artistes','1 w. 67th st.','new york city',212-877-3500,'french (classic)',0
'hotel bel-air','701 stone canyon rd.','bel air',310/472-1211,californian,'johnny rockets (la)','7507 melrose ave.',la,213-651-3361,american,0
maykadeh,'470 green st.','san francisco',415/362-8286,'greek and middle eastern','sushi nozawa','11288 ventura blvd.','studio city',818-508-7017,japanese,0
layla,'211 w. broadway at franklin st.','new york',212/431-0700,'middle eastern','main course  the','10509 w. pico blvd.','rancho park',310-475-7564,american,0
'tang pavillion','65 w. 55th st.','new york',212/956-6888,asian,chops,'70 w. paces ferry rd.',atlanta,404-262-2675,steakhouses,0
'gladstone\'s','4 fish 17300 pacific coast hwy. at sunset blvd.','pacific palisades',310/454-3474,american,valentino,'3115 pico blvd.','santa monica',310-829-4313,italian,0
'hudson river club','4 world financial center','new york',212/786-1500,american,'carnegie deli','854 seventh ave.','new york city',212-757-2245,delis,0
'bugsy\'s diner','3555 las vegas blvd. s','las vegas',702/733-3111,'coffee shops/diners','koo koo roo','8393 w. beverly blvd.',la,213-655-9045,chicken,0
'rose pistola','532 columbus ave.','san francisco',415/399-0499,italian,'patsy\'s pizza','19 old fulton st.',brooklyn,718-858-4300,pizza,0
'emily\'s','1325 5th ave. at 111th st.','new york',212/996-1212,american,'virgil\'s real bbq','152 w. 44th st.','new york city',212-921-9494,bbq,0
'san pietro','18 e. 54th st.','new york',212/753-9015,italian,'szechuan hunan cottage','1588 york ave.','new york city',212-535-5223,chinese,0
'turkish kitchen','386 3rd ave.  between 27th and 28th sts.','new york',212/679-1810,'middle eastern','mi cocina','57 jane st.','new york city',212-627-8273,mexican,0
faz,'161 sutter st.','san francisco',415/362-0404,'greek and middle eastern','elias corner','24-02 31st st.',queens,718-932-1510,greek,0
'tommy tang\'s','7313 melrose ave.','los angeles',213/937-5733,asian,darbar,'44 w. 56th st.','new york city',212-432-7227,indian,0
verbena,'54 irving pl. at 17th st.','new york',212/260-5454,american,'carmine\'s','2450 broadway','new york city',212-362-2200,italian,0
'south of france','2345 cheshire bridge rd.',atlanta,404/325-6963,french,'sam\'s noodle shop','411 third ave.','new york city',212-213-2288,chinese,0
'shun lee west','43 w. 65th st.','new york',212/371-8844,asian,'original pantry bakery','875 s. figueroa st. downtown',la,213-627-6879,diners,0
alamo,'304 e. 48th st.','new york','212/ 759-0590',mexican,'good enough to eat','483 amsterdam ave.','new york city',212-496-0163,american,0
'dante\'s down the hatch  buckhead','3380 peachtree rd.',atlanta,404/266-1600,continental,oceana,'55 e. 54th st.','new york city',212-759-5941,seafood,0
'judson grill','152 w. 52nd st.','new york',212/582-5252,american,riviera,'519 e. paces ferry rd.',atlanta,404-262-7112,mediterranean,0
'little szechuan','c buford hwy.  northwoods plaza  doraville',atlanta,770/451-0192,asian,'mitali east-west','296 bleecker st.','new york city',212-989-1367,indian,0
oritalia,'1915 fillmore st.','san francisco',415/346-1333,italian,'shun lee palace','155 e. 55th st.','new york city',212-371-8844,chinese,0
'r&g lounge','631 b kearny st.','san francisco',415/982-7877,'or 415/982-3811 asian','buzio\'s in the rio','3700 w. flamingo rd.','las vegas',702-252-7697,seafood,0
'harry\'s bar & american grill','2020 ave. of the stars','los angeles',310/277-2333,italian,'la cote basque','60 w. 55th st.','new york city',212-688-6525,'french (classic)',0
'tavola calda','7371 melrose ave.','los angeles',213/658-6340,italian,'veni vidi vici','41 14th st.',atlanta,404-875-8424,italian,0
'nikolai\'s roof','255 courtland st.  at harris st.',atlanta,404/221-6362,continental,'heera of india','595 piedmont ave.',atlanta,404-876-4408,indian,0
tomtom,'3393 peachtree rd.',atlanta,404/264-1163,continental,'les celebrites','155 w. 58th st.','new york city',212-484-5113,'french (classic)',0
'gabriela\'s','685 amsterdam ave. at 93rd st.','new york',212/961-0574,mexican,'patsy\'s pizza','19 old fulton st.',brooklyn,718-858-4300,pizza,0
drago,'2628 wilshire blvd.','santa monica',310/828-1585,italian,matsuhisa,'129 n. la cienega blvd.','beverly hills',310-659-9639,seafood,0
'gladstone\'s','4 fish 17300 pacific coast hwy. at sunset blvd.','pacific palisades',310/454-3474,american,'marnee thai','2225 irving st.','san francisco',415-665-9500,thai,0
'roettelle a. g','126 e. 7th st.  between 1st ave. and ave. a','new york',212/674-4140,continental,delectables,'1 margaret mitchell sq.',atlanta,404-681-2909,cafeterias,0
'fishin eddie','73 w. 71st st.','new york',212/874-3474,seafood,'spago (las vegas)','3500 las vegas blvd. s.','las vegas',702-369-6300,californian,0
'caffe vivaldi','32 jones st. at bleecker st.','new york',212/691-7538,'coffee bar',soto,'3330 piedmont rd.',atlanta,404-233-2005,japanese,0
'emily\'s','1325 5th ave. at 111th st.','new york',212/996-1212,american,'buckhead diner','3073 piedmont rd.',atlanta,404-262-3336,'american (new)',0
'french quarter food shop','923 peachtree st.  at 8th st.',atlanta,404/875-2489,southern,'lombardi\'s','32 spring st.','new york city',212-941-7994,pizza,0
'les halles','411 park ave. s  between 28th and 29th sts.','new york',212/679-4111,french,'pinot bistro','12969 ventura blvd.','studio city',818-990-0500,'french bistro',0
'imperial fez','2285 peachtree rd.  peachtree battle condominium',atlanta,404/351-0870,mediterranean,'second avenue deli','156 second ave.','new york city',212-677-0606,delis,0
home,'20 cornelia st.  between bleecker and w. 4th st.','new york',212/243-9579,american,'fenix at the argyle','8358 sunset blvd.','w. hollywood',213-848-6677,'french (new)',0
'ca\'brea','346 s. la brea ave.','los angeles',213/938-2863,italian,'rose of india','308 e. sixth st.','new york city',212-533-5011,indian,0
pomaire,'371 w. 46th st.  off 9th ave.','new york','212/ 956-3055','latin american','afghan kebab house','764 ninth ave.','new york city',212-307-1612,afghan,0
'le bernardin','155 w. 51st st.','new york',212/489-1515,french,'carey\'s','1021 cobb pkwy. se',marietta,770-422-8042,hamburgers,0
'brothers bar-b-q','225 varick st. at clarkston st.','new york',212/727-2775,american,'java jive','790 ponce de leon ave.',atlanta,404-876-6161,'coffee shops',0
'yank sing','427 battery st.','san francisco',415/541-4949,asian,'good enough to eat','483 amsterdam ave.','new york city',212-496-0163,american,0
'roettelle a. g','126 e. 7th st.  between 1st ave. and ave. a','new york',212/674-4140,continental,'phnom penh cambodian restaurant','631 larkin st.','san francisco',415-775-5979,cambodian,0
'french roast cafe','2340 broadway at 85th st.','new york',212/799-1533,'coffee bar','island spice','402 w. 44th st.','new york city',212-765-1737,caribbean,0
tapika,'950 8th ave. at 56th st.','new york','212/ 397-3737',american,'second avenue deli','156 second ave.','new york city',212-677-0606,delis,0
'golden nugget hotel','129 e. fremont st.','las vegas',702/385-7111,buffets,'smith & wollensky','797 third ave.','new york city',212-753-1530,steakhouses,0
march,'405 e. 58th st.','new york',212/754-6272,american,'hedgerose heights inn  the','490 e. paces ferry rd. ne',atlanta,404-233-7673,continental,0
'matthew\'s','1030 3rd ave. at 61st st.','new york',212/838-4343,american,'rose of india','308 e. sixth st.','new york city',212-533-5011,indian,0
'canter\'s','419 n. fairfax ave.','los angeles',213/651-2030.,american,canoe,'4199 paces ferry rd.',atlanta,770-432-2663,'american (new)',0
'hotel bel-air','701 stone canyon rd.','bel air',310/472-1211,californian,'steakhouse  the','128 e. fremont st.','las vegas',702-382-1600,steakhouses,0
'coyote cafe','3799 las vegas blvd. s','las vegas',702/891-7349,southwestern,'lombardi\'s','32 spring st.','new york city',212-941-7994,pizza,0
palio,'151 w. 51st. st.','new york',212/245-4850,italian,'kalo\'s coffee house','1248 clairmont rd.',decatur,404-325-3733,coffeehouses,0
flowers,'21 west 17th st.  between 5th and 6th aves.','new york',212/691-8888,american,'john o\'groats','10516 w. pico blvd.','west la',310-204-0692,'coffee shops',0
'rainbow room','30 rockefeller plaza','new york',212/632-5000,'or 212/632-5100 american','mayflower cuisinier','4750 w. sahara ave.','las vegas',702-870-8432,chinese,0
'arturo\'s','106 w. houston st.  off thompson st.','new york',212/677-3820,italian,'indian delights','3675 satellite blvd.',duluth,100-813-8212,indian,0
'chez michel','804 northpoint','san francisco',415/775-7036,french,'edison cafe','228 w. 47th st.','new york city',212-840-5000,diners,0
xunta,'174 1st ave.  between 10th and 11th sts.','new york',212/614-0620,mediterranean,'benny\'s burritos','93 ave. a','new york city',212-254-2054,mexican,0
'jewel of india','15 w. 44th st.','new york',212/869-5544,asian,'bistro  the','56 e. andrews dr. nw',atlanta,404-231-5733,'french bistro',0
'hi-life restaurant and lounge','1340 1st ave. at 72nd st.','new york',212/249-3600,american,'philippe the original','1001 n. alameda st.',chinatown,213-628-3781,cafeterias,0
'jewel of india','15 w. 44th st.','new york',212/869-5544,asian,'la caridad','2199 broadway','new york city',212-874-2780,cuban,0
'margarita\'s mexican cantina','3120 las vegas blvd. s','las vegas',702/794-8200,mexican,'poquito mas','2635 w. olive ave.',burbank,818-563-2252,mexican,0
'fat matt\'s rib shack','1811 piedmont ave.  near cheshire bridge rd.',atlanta,404/607-1622,barbecue,'kokomo cafe','6333 w. third st.',la,213-933-0773,american,0
'sundown cafe','2165 cheshire bridge rd.',atlanta,404/321-1118,american,boulevard,'1 mission st.','san francisco',415-543-6084,'american (new)',0
beaurivage,'26025 pacific coast hwy.',malibu,310/456-5733,french,'pinot bistro','12969 ventura blvd.','studio city',818-990-0500,'french bistro',0
'rainbow room','30 rockefeller plaza','new york',212/632-5000,'or 212/632-5100 american','chin\'s','3200 las vegas blvd. s.','las vegas',702-733-8899,chinese,0
flowers,'21 west 17th st.  between 5th and 6th aves.','new york',212/691-8888,american,'ciboulette restaurant','1529 piedmont ave.',atlanta,404-874-7600,'french (new)',0
mikado,'3400 las vegas blvd. s','las vegas',702/791-7111,asian,'wa-ha-ka oaxaca mexican grill','2141 polk st.','san francisco',415-775-1055,mexican,0
follonico,'6 w. 24th st.','new york',212/691-6359,italian,'original pantry bakery','875 s. figueroa st. downtown',la,213-627-6879,diners,0
'palio d\'asti','640 sacramento st.','san francisco',415/395-9800,italian,'thelma\'s kitchen','764 marietta st. nw',atlanta,404-688-5855,cafeterias,0
delectables,'1 margaret mitchell sq.',atlanta,404/681-2909,american,'greenwood\'s','1087 green st.',roswell,770-992-5383,southern/soul,0
abbey,'163 ponce de leon ave.',atlanta,404/876-8532,international,'belvedere  the','9882 little santa monica blvd.','beverly hills',310-788-2306,'pacific new wave',0
'le jardin','25 cleveland pl.  near spring st.','new york',212/343-9599,french,'lespinasse (new york city)','2 e. 55th st.','new york city',212-339-6719,asian,0
'21 club','21 w. 52nd st.','new york',212/582-7200,american,matsuhisa,'129 n. la cienega blvd.','beverly hills',310-659-9639,seafood,0
'lowcountry barbecue','6301 roswell rd.  sandy springs plaza  sandy springs',atlanta,404/255-5160,barbecue,'kokomo cafe','6333 w. third st.',la,213-933-0773,american,0
'monkey bar','60 e. 54th st.','new york',212/838-2600,american,'vicolo pizzeria','201 ivy st.','san francisco',415-863-2382,pizza,0
'drai\'s','730 n. la cienega blvd.','los angeles',310/358-8585,french,'stefano\'s','129 fremont st.','las vegas',702-385-7111,italian,0
remi,'145 w. 53rd st.','new york',212/581-4242,italian,mishima,'8474 w. third st.',la,213-782-0181,'noodle shops',0
'sarabeth\'s kitchen','423 amsterdam ave.  between 80th and 81st sts.','new york',212/496-6280,american,'cucina della fontana','368 bleecker st.','new york city',212-242-0636,italian,0
'inca grill','492 broome st.  near w. broadway','new york',212/966-3371,'latin american','mi cocina','57 jane st.','new york city',212-627-8273,mexican,0
arizona,'206 206 e. 60th st.','new york',212/838-0440,american,'locanda veneta','8638 w. third st.','los angeles',310-274-1893,italian,0
republic,'37a union sq. w  between 16th and 17th sts.','new york',212/627-7172,asian,'cafe lalo','201 w. 83rd st.','new york city',212-496-6031,coffeehouses,0
'21 club','21 w. 52nd st.','new york',212/582-7200,american,'fiore rotisserie & grille','3700 w. flamingo rd.','las vegas',702-252-7702,italian,0
'fiorello\'s roman cafe','1900 broadway  between 63rd and 64th sts.','new york',212/595-5330,italian,'hollywood hills coffee shop','6145 franklin ave.',hollywood,213-467-7678,'coffee shops',0
'union square cafe','21 e. 16th st.','new york',212/243-4020,american,postrio,'545 post st.','san francisco',415-776-7825,californian,0
'rex il ristorante','617 s. olive st.','los angeles',213/627-2300,italian,'la mediterranee','288 noe st.','san francisco',415-431-7210,mediterranean,0
'yoyo tsumami bistro','1611 post st.','san francisco',415/922-7788,french,'flying biscuit  the','1655 mclendon ave.',atlanta,404-687-8888,eclectic,0
'coco loco','40  buckhead crossing mall on the sidney marcus blvd.',atlanta,404/364-0212,caribbean,'ruth\'s chris steak house (los angeles)','224 s. beverly dr.','beverly hills',310-859-8744,steakhouses,0
'vivande ristorante','670 golden gate ave.','san francisco',415/673-9245,italian,'monsoon (ny)','435 amsterdam ave.','new york city',212-580-8686,thai,0
bacchanalia,'3125 piedmont rd.  near peachtree rd.',atlanta,404/365-0410,international,'jo jo','160 e. 64th st.','new york city',212-223-5656,'french bistro',0
'des alpes','732 broadway','san francisco',415/788-9900,french,daniel,'20 e. 76th st.','new york city',212-288-0033,'french (new)',0
'il fornaio cucina italiana','301 n. beverly dr.','los angeles',310/550-8330,italian,'brookhaven cafe','4274 peachtree rd.',atlanta,404-231-5907,vegetarian,0
helmand,'430 broadway','san francisco',415/362-0641,'greek and middle eastern','sweet lady jane','8360 melrose ave.',la,213-653-7145,desserts,0
pastis,'1015 battery st.','san francisco',415/391-2555,french,'patsy\'s pizza','19 old fulton st.',brooklyn,718-858-4300,pizza,0
fenix,'8358 sunset blvd. west',hollywood,213/848-6677,american,campanile,'624 s. la brea ave.','los angeles',213-938-1447,californian,0
abruzzi,'2355 peachtree rd.  peachtree battle shopping center',atlanta,404/261-8186,italian,'la grenouille','3 e. 52nd st.','new york city',212-752-1495,'french (classic)',0
'sammy\'s roumanian steak house','157 chrystie st. at delancey st.','new york',212/673-0330,'east european','smith & wollensky','797 third ave.','new york city',212-753-1530,steakhouses,0
terrace,'400 w. 119th st.  between amsterdam and morningside aves.','new york',212/666-9490,continental,'tavern on the green','central park west','new york city',212-873-3200,'american (new)',0
'new york kom tang soot bul house','32 w. 32nd st.','new york','212/ 947-8482',asian,'il mulino','86 w. third st.','new york city',212-673-3783,italian,0
xunta,'174 1st ave.  between 10th and 11th sts.','new york',212/614-0620,mediterranean,'tavern on the green','central park west','new york city',212-873-3200,'american (new)',0
'spring street natural restaurant & bar','62 spring st. at lafayette st.','new york',212/966-0290,american,'campton place','340 stockton st.','san francisco',415-955-5555,'american (new)',0
cite,'120 w. 51st st.','new york',212/956-7100,french,'bradshaw\'s restaurant','2911 s. pharr court',atlanta,404-261-7015,southern/soul,0
'fujiyama mama','467 columbus ave.  between 82nd and 83rd sts.','new york',212/769-1144,asian,'mesa grill','102 fifth ave.','new york city',212-807-7400,southwestern,0
2223,'2223 market st.','san francisco',415/431-0692,american,'la fonda latina','4427 roswell rd.',atlanta,404-303-8201,spanish,0
'park avenue cafe','100 e. 63rd st.','new york',212/644-1900,american,'lemongrass grill','61a seventh ave.',brooklyn,718-399-7100,thai,0
'new york noodletown','28 1/2 bowery at bayard st.','new york',212/349-0923,asian,'sweet lady jane','8360 melrose ave.',la,213-653-7145,desserts,0
'restaurant  ritz-carlton  atlanta','181 peachtree st.',atlanta,404/659-0400,continental,'deacon burton\'s soulfood restaurant','1029 edgewood ave. se',atlanta,404-523-1929,southern/soul,0
'jo jo','160 e. 64th st.','new york',212/223-5656,american,'jody maroni\'s sausage kingdom','2011 ocean front walk',venice,310-306-1995,'hot dogs',0
'manhattan cafe','1161 1st ave.  between 63rd and 64th sts.','new york',212/888-6556,american,'pinot bistro','12969 ventura blvd.','studio city',818-990-0500,'french bistro',0
'dix et sept','181 w. 10th st.','new york',212/645-8023,french,'sushi nozawa','11288 ventura blvd.','studio city',818-508-7017,japanese,0
'mambo restaurante cubano','1402 n. highland ave.',atlanta,404/874-2626,caribbean,'ti couz','3108 16th st.','san francisco',415-252-7373,french,0
'hyde street bistro','1521 hyde st.','san francisco',415/441-7778,italian,'island spice','402 w. 44th st.','new york city',212-765-1737,caribbean,0
'river cafe','1 water st. at the east river',brooklyn,718/522-5200,american,'la cumbre','515 valencia st.','san francisco',415-863-8205,mexican,0
'sarabeth\'s kitchen','423 amsterdam ave.  between 80th and 81st sts.','new york',212/496-6280,american,'chinois on main','2709 main st.','santa monica',310-392-9025,'pacific new wave',0
bouterin,'420 e. 59th st.  off 1st ave.','new york',212/758-0323,french,'apple pan  the','10801 w. pico blvd.','west la',310-475-3585,american,0
'tadich grill','240 california st.','san francisco',415/391-2373,seafood,'zankou chicken','1415 e. colorado st.',glendale,818-244-1937,'middle eastern',0
'dining room','9500 wilshire blvd.','los angeles',310/275-5200,californian,march,'405 e. 58th st.','new york city',212-754-6272,'american (new)',0
'the savannah club','2420 broadway at 89th st.','new york',212/496-1066,american,'zankou chicken','1415 e. colorado st.',glendale,818-244-1937,'middle eastern',0
'victor\'s cafe','52 236 w. 52nd st.','new york',212/586-7714,'latin american','bristol farms market cafe','1570 rosecrans ave. s.',pasadena,310-643-5229,californian,0
firehouse,'522 columbus ave.  between 85th and 86th sts.','new york',212/595-3139,american,picholine,'35 w. 64th st.','new york city',212-724-8585,mediterranean,0
'gallagher\'s','228 w. 52nd st.','new york',212/245-5336,american,'ocean park cafe','3117 ocean park blvd.','santa monica',310-452-5728,american,0
'bistro roti','155 steuart st.','san francisco',415/495-6500,french,'russell\'s burgers','1198 pch','seal beach',310-596-9556,hamburgers,0
rumpus,'1 tillman pl.','san francisco',415/421-2300,american,'mel\'s drive-in','3355 geary st.','san francisco',415-387-2244,hamburgers,0
'bone\'s','3130 piedmont road',atlanta,404/237-2663,american,'phnom penh cambodian restaurant','631 larkin st.','san francisco',415-775-5979,cambodian,0
'dining room  ritz-carlton  buckhead','3434 peachtree rd.',atlanta,404/237-2700,international,'chin\'s','3200 las vegas blvd. s.','las vegas',702-733-8899,chinese,0
'victor\'s cafe','52 236 w. 52nd st.','new york',212/586-7714,'latin american','nikolai\'s roof','255 courtland st.',atlanta,404-221-6362,continental,0
abruzzi,'2355 peachtree rd.  peachtree battle shopping center',atlanta,404/261-8186,italian,'hamburger mary\'s','1582 folsom st.','san francisco',415-626-1985,hamburgers,0
nicola,'601 s. figueroa st.','los angeles',213/485-0927,american,chopstix,'4279 roswell rd.',atlanta,404-255-4868,chinese,0
'jo jo','160 e. 64th st.','new york',212/223-5656,american,mishima,'8474 w. third st.',la,213-782-0181,'noodle shops',0
'dante\'s down the hatch','underground underground mall  underground atlanta',atlanta,404/577-1800,continental,'original pancake house (at)','4330 peachtree rd.',atlanta,404-237-4116,american,0
'lincoln tavern','51 w. 64th st.','new york',212/721-8271,american,'slanted door','584 valencia st.','san francisco',415-861-8032,vietnamese,0
firehouse,'522 columbus ave.  between 85th and 86th sts.','new york',212/595-3139,american,'wa-ha-ka oaxaca mexican grill','2141 polk st.','san francisco',415-775-1055,mexican,0
'hsu\'s gourmet','192 peachtree center ave.  at international blvd.',atlanta,404/659-2788,asian,'le bernardin','155 w. 51st st.','new york city',212-489-1515,seafood,0
'zen palate','34 union sq. e at 16th st.','new york',212/614-9291,'and 212/614-9345 asian','bruno\'s','3838 centinela ave.','mar vista',310-397-5703,italian,0
'cafe claude','7 claude la.','san francisco',415/392-3505,french,'second street grill','200 e. fremont st.','las vegas',702-385-6277,'pacific rim',0
'restaurant horikawa','111 s. san pedro st.','los angeles',213/680-9355,asian,'michael\'s (los angeles)','1147 third st.','santa monica',310-451-0843,californian,0
'bally\'s big kitchen','3645 las vegas blvd. s','las vegas',702/739-4111,buffets,'falafel king','1059 broxton ave.',westwood,310-208-4444,'middle eastern',0
suppenkuche,'601 hayes st.','san francisco',415/252-9289,russian/german,'sam\'s noodle shop','411 third ave.','new york city',212-213-2288,chinese,0
'emily\'s','1325 5th ave. at 111th st.','new york',212/996-1212,american,'le bernardin','155 w. 51st st.','new york city',212-489-1515,seafood,0
'frico bar','402 w. 43rd st.  off 9th ave.','new york',212/564-7272,italian,'hamburger mary\'s','1582 folsom st.','san francisco',415-626-1985,hamburgers,0
pisces,'95 ave. a at 6th st.','new york',212/260-6660,seafood,'palm  the (los angeles)','9001 santa monica blvd.','w. hollywood',310-550-8811,steakhouses,0
aqua,'252 california st.','san francisco',415/956-9662,seafood,'afghan kebab house','764 ninth ave.','new york city',212-307-1612,afghan,0
remi,'145 w. 53rd st.','new york',212/581-4242,italian,riviera,'519 e. paces ferry rd.',atlanta,404-262-7112,mediterranean,0
'restaurant  ritz-carlton  atlanta','181 peachtree st.',atlanta,404/659-0400,continental,'smith & wollensky','797 third ave.','new york city',212-753-1530,steakhouses,0
'casa la femme','150 wooster st.  between houston and prince sts.','new york',212/505-0005,'middle eastern',patina,'5955 melrose ave.','los angeles',213-467-1108,californian,0
'9 jones street','9 jones st.','new york',212/989-1220,american,'thep phanom','400 waller st.','san francisco',415-431-2526,thai,0
'water club','500 e. 30th st.','new york',212/683-3333,american,'bistro 45','45 s. mentor ave.',pasadena,818-795-2478,californian,0
'la caravelle','33 w. 55th st.','new york',212/586-4252,french,'uncle bill\'s pancake house','1305 highland ave.','manhattan beach',310-545-5177,diners,0
'kuleto\'s','221 powell st.','san francisco',415/397-7720,italian,'art\'s deli','12224 ventura blvd.','studio city',818-762-1221,delis,0
greens,'bldg. a fort mason','san francisco',415/771-6222,vegetarian,'la caravelle','33 w. 55th st.','new york city',212-586-4252,'french (classic)',0
'izzy\'s steak & chop house','3345 steiner st.','san francisco',415/563-0487,'steak houses','cafe flore','2298 market st.','san francisco',415-621-8579,californian,0
chevys,'4th and howard sts.','san francisco',415/543-8060,'mexican/latin american/spanish','baja fresh','3345 kimber dr.','westlake village',805-498-4049,mexican,0
'red tulip','439 e. 75th st.','new york',212/734-4893,'eastern european','kokomo cafe','6333 w. third st.',la,213-933-0773,american,0
'jimmy sung\'s','219 e. 44th st.  between 2nd and 3rd aves.','new york',212/682-5678,asian,'san domenico','240 central park s.','new york city',212-265-5959,italian,0
'ambassador grill','1 united nations plaza at 44th st.','new york',212/702-5014,american,campanile,'624 s. la brea ave.','los angeles',213-938-1447,californian,0
'r&g lounge','631 b kearny st.','san francisco',415/982-7877,'or 415/982-3811 asian','lombardi\'s','32 spring st.','new york city',212-941-7994,pizza,0
'captain\'s table','860 2nd ave. at 46th st.','new york',212/697-9538,seafood,'bel-air hotel','701 stone canyon rd.','bel air',310-472-1211,californian,0
feast,'2411 w. sahara ave.','las vegas',702/367-2411,buffets,'palm  the (los angeles)','9001 santa monica blvd.','w. hollywood',310-550-8811,steakhouses,0
'osteria al droge','142 w. 44th st.','new york',212/944-3643,italian,'cucina della fontana','368 bleecker st.','new york city',212-242-0636,italian,0
'sundown cafe','2165 cheshire bridge rd.',atlanta,404/321-1118,american,'westside cottage','689 ninth ave.','new york city',212-245-0800,chinese,0
'south of france','2345 cheshire bridge rd.',atlanta,404/325-6963,french,'killer shrimp','4000 colfax ave.','studio city',818-508-1570,seafood,0
'coco loco','40  buckhead crossing mall on the sidney marcus blvd.',atlanta,404/364-0212,caribbean,'carmine\'s','2450 broadway','new york city',212-362-2200,italian,0
'empire korea','6 e. 32nd st.','new york',212/725-1333,asian,'original pantry bakery','875 s. figueroa st. downtown',la,213-627-6879,diners,0
carta,'1772 market st.','san francisco',415/863-3516,american,'don antonio\'s','1136 westwood blvd.',westwood,310-209-1422,italian,0
eclipse,'8800 melrose ave.','los angeles',310/724-5959,californian,'afghan kebab house','764 ninth ave.','new york city',212-307-1612,afghan,0
persepolis,'1423 2nd ave.  between 74th and 75th sts.','new york',212/535-1100,'middle eastern','madame ching\'s','3300 las vegas blvd. s.','las vegas',702-894-7111,asian,0
'le madri','168 w. 18th st.','new york',212/727-8022,italian,'rose pistola','532 columbus ave.','san francisco',415-399-0499,italian,0
ciboulette,'1529 piedmont ave.',atlanta,404/874-7600,french,'cafe des artistes','1 w. 67th st.','new york city',212-877-3500,'french (classic)',0
'the coffee pot','350 9th ave. at 49th st.','new york',212/265-3566,'coffee bar','buzio\'s in the rio','3700 w. flamingo rd.','las vegas',702-252-7697,seafood,0
'jewel of india','15 w. 44th st.','new york',212/869-5544,asian,'rae\'s','2901 pico blvd.','santa monica',310-828-7937,diners,0
'r&g lounge','631 b kearny st.','san francisco',415/982-7877,'or 415/982-3811 asian','cafe \'50s','838 lincoln blvd.',venice,310-399-1955,american,0
'colonnade restaurant','1879 cheshire bridge rd.',atlanta,404/874-5642,southern,'lettuce souprise you (at)','3525 mall blvd.',duluth,770-418-9969,cafeterias,0
'zuni cafe & grill','1658 market st.','san francisco',415/552-2522,mediterranean,yama,'122 e. 17th st.','new york city',212-475-0969,japanese,0
'chin\'s','3200 las vegas blvd. s','las vegas',702/733-8899,asian,'cafe \'50s','838 lincoln blvd.',venice,310-399-1955,american,0
'mi cocina','57 jane st.  off hudson st.','new york',212/627-8273,mexican,daniel,'20 e. 76th st.','new york city',212-288-0033,'french (new)',0
'marquet patisserie','15 e. 12th st.  between 5th ave. and university pl.','new york',212/229-9313,'coffee bar','zankou chicken','1415 e. colorado st.',glendale,818-244-1937,'middle eastern',0
'sa tsu ki','3043 buford hwy.',atlanta,404/325-5285,asian,'steakhouse  the','128 e. fremont st.','las vegas',702-382-1600,steakhouses,0
chevys,'4th and howard sts.','san francisco',415/543-8060,'mexican/latin american/spanish','greenwood\'s','1087 green st.',roswell,770-992-5383,southern/soul,0
'the coffee pot','350 9th ave. at 49th st.','new york',212/265-3566,'coffee bar',fringale,'570 fourth st.','san francisco',415-543-0573,'french bistro',0
'yank sing','427 battery st.','san francisco',415/541-4949,asian,'nuevo laredo cantina','1495 chattahoochee ave. nw',atlanta,404-352-9009,mexican,0
'dynasty room','930 hilgard ave.','los angeles',310/208-8765,continental,'21 club','21 w. 52nd st.','new york city',212-582-7200,'american (new)',0
'plumpjack cafe','3201 fillmore st.','san francisco',415/563-4755,mediterranean,aquavit,'13 w. 54th st.','new york city',212-307-7311,scandinavian,0
layla,'211 w. broadway at franklin st.','new york',212/431-0700,'middle eastern',soto,'3330 piedmont rd.',atlanta,404-233-2005,japanese,0
'south of france','2345 cheshire bridge rd.',atlanta,404/325-6963,french,'bristol farms market cafe','1570 rosecrans ave. s.',pasadena,310-643-5229,californian,0
patria,'250 park ave. s at 20th st.','new york',212/777-6211,'latin american','mo\'s burgers','1322 grant st.','san francisco',415-788-3779,hamburgers,0
'le gamin','50 macdougal st.  between houston and prince sts.','new york',212/254-4678,'coffee bar','brent\'s deli','19565 parthenia ave.',northridge,818-886-5679,delis,0
'sal anthony\'s','55 irving pl.','new york',212/982-9030,italian,shiro,'1505 mission st. s.',pasadena,818-799-4774,'pacific new wave',0
'ed debevic\'s','134 n. la cienega','los angeles',310/659-1952,american,'la grenouille','3 e. 52nd st.','new york city',212-752-1495,'french (classic)',0
'grill on the alley','9560 dayton way','los angeles',310/276-0615,american,'ciboulette restaurant','1529 piedmont ave.',atlanta,404-874-7600,'french (new)',0
'le dome','8720 sunset blvd.','los angeles',310/659-6919,french,'jo jo','160 e. 64th st.','new york city',212-223-5656,'french bistro',0
'ton kiang','3148 geary blvd.','san francisco',415/752-4440,asian,'sally\'s cafe & bakery','300 de haro st.','san francisco',415-626-6006,american,0
'drai\'s','730 n. la cienega blvd.','los angeles',310/358-8585,french,'house of chan','2469 cobb pkwy.',smyrna,770-955-9444,chinese,0
'uncle nick\'s','747 9th ave.  between 50th and 51st sts.','new york',212/315-1726,mediterranean,'house of chan','2469 cobb pkwy.',smyrna,770-955-9444,chinese,0
'le soleil','133 clement st.','san francisco',415/668-4848,asian,'locanda veneta','8638 w. third st.','los angeles',310-274-1893,italian,0
'mccormick & kuleto\'s','ghirardelli sq.','san francisco',415/929-1730,seafood,'joe\'s','1023 abbot kinney blvd.',venice,310-399-5811,'american (new)',0
'gaylord\'s','ghirardelli sq.','san francisco',415/771-8822,asian,'cafe \'50s','838 lincoln blvd.',venice,310-399-1955,american,0
remi,'145 w. 53rd st.','new york',212/581-4242,italian,'john o\'groats','10516 w. pico blvd.','west la',310-204-0692,'coffee shops',0
'sammy\'s roumanian steak house','157 chrystie st. at delancey st.','new york',212/673-0330,'east european','poquito mas','2635 w. olive ave.',burbank,818-563-2252,mexican,0
'bone\'s','3130 piedmont road',atlanta,404/237-2663,american,'kalo\'s coffee house','1248 clairmont rd.',decatur,404-325-3733,coffeehouses,0
'cafe botanica','160 central park s','new york',212/484-5120,french,'doidge\'s','2217 union st.','san francisco',415-921-2149,american,0
'roscoe\'s house of chicken \'n\' waffles','1514 n. gower st.','los angeles',213/466-9329,american,'baja fresh','3345 kimber dr.','westlake village',805-498-4049,mexican,0
'l\'osteria del forno','519 columbus ave.','san francisco',415/982-1124,italian,'tu lan','8 sixth st.','san francisco',415-626-0927,vietnamese,0
'jackson\'s farm','439 n. beverly drive','los angeles',310/273-5578,californian,'van gogh\'s restaurant & bar','70 w. crossville rd.',roswell,770-993-1156,'american (new)',0
'arnie morton\'s of chicago','435 s. la cienega blv.','los angeles',310/246-1501,american,'rainbow room','30 rockefeller plaza','new york city',212-632-5000,'american (new)',0
'bone\'s','3130 piedmont road',atlanta,404/237-2663,american,zab-e-lee,'4837 old national hwy.','college park',404-768-2705,thai,0
'le perigord','405 e. 52nd st.','new york',212/755-6244,french,'second street grill','200 e. fremont st.','las vegas',702-385-6277,'pacific rim',0
'gallagher\'s','228 w. 52nd st.','new york',212/245-5336,american,'la caridad','2199 broadway','new york city',212-874-2780,cuban,0
'hudson river club','4 world financial center','new york',212/786-1500,american,'koo koo roo','8393 w. beverly blvd.',la,213-655-9045,chicken,0
'sundown cafe','2165 cheshire bridge rd.',atlanta,404/321-1118,american,'cafe blanc','9777 little santa monica blvd.','beverly hills',310-888-0108,'pacific new wave',0
cite,'120 w. 51st st.','new york',212/956-7100,french,'jo jo','160 e. 64th st.','new york city',212-223-5656,'french bistro',0
global,'33 93 2nd ave.  between 5th and 6th sts.','new york',212/477-8427,american,'island spice','402 w. 44th st.','new york city',212-765-1737,caribbean,0
bacchanalia,'3125 piedmont rd.  near peachtree rd.',atlanta,404/365-0410,international,'palace court','3570 las vegas blvd. s.','las vegas',702-731-7110,'french (new)',0
pacifica,'138 lafayette st.  between canal and howard sts.','new york',212/941-4168,asian,'baja fresh','3345 kimber dr.','westlake village',805-498-4049,mexican,0
greens,'bldg. a fort mason','san francisco',415/771-6222,vegetarian,postrio,'545 post st.','san francisco',415-776-7825,californian,0
'the palm','9001 santa monica blvd.','los angeles',310/550-8811,american,'lemongrass grill','61a seventh ave.',brooklyn,718-399-7100,thai,0
'ernie\'s','2150 broadway  between 75th and 76th sts.','new york',212/496-1588,american,'rose pistola','532 columbus ave.','san francisco',415-399-0499,italian,0
pastis,'1015 battery st.','san francisco',415/391-2555,french,'ej\'s luncheonette','432 sixth ave.','new york city',212-473-5555,diners,0
republic,'37a union sq. w  between 16th and 17th sts.','new york',212/627-7172,asian,'ej\'s luncheonette','432 sixth ave.','new york city',212-473-5555,diners,0
'kabuto sushi','5116 geary blvd.','san francisco',415/752-5652,asian,'windows on the world','107th fl.','new york city',212-524-7000,eclectic,0
'the palm','9001 santa monica blvd.','los angeles',310/550-8811,american,'uncle bill\'s pancake house','1305 highland ave.','manhattan beach',310-545-5177,diners,0
'khan toke thai house','5937 geary blvd.','san francisco',415/668-6654,asian,'ritz-carlton restaurant','181 peachtree st.',atlanta,404-659-0400,'french (classic)',0
'big cup','228 8th ave.  between 21st and 22nd sts.','new york',212/206-0059,'coffee bar','bruno\'s','3838 centinela ave.','mar vista',310-397-5703,italian,0
cava,'3rd st.','los angeles',213/658-8898,mediterranean,'mayflower cuisinier','4750 w. sahara ave.','las vegas',702-870-8432,chinese,0
oritalia,'1915 fillmore st.','san francisco',415/346-1333,italian,'brent\'s deli','19565 parthenia ave.',northridge,818-886-5679,delis,0
'au mandarin','200-250 vesey st. world financial center','new york',212/385-0313,asian,ebisu,'1283 ninth ave.','san francisco',415-566-1770,japanese,0
'alley\'s end','311 w. 17th st.','new york',212/627-8899,american,'cucina di pesce','87 e. fourth st.','new york city',212-260-6800,seafood,0
'kabuto sushi','5116 geary blvd.','san francisco',415/752-5652,asian,'union square cafe','21 e. 16th st.','new york city',212-243-4020,'american (new)',0
'mambo restaurante cubano','1402 n. highland ave.',atlanta,404/874-2626,caribbean,zab-e-lee,'4837 old national hwy.','college park',404-768-2705,thai,0
'roscoe\'s house of chicken \'n\' waffles','1514 n. gower st.','los angeles',213/466-9329,american,'eric\'s chinese restaurant','1500 church st.','san francisco',415-282-0919,chinese,0
cava,'3rd st.','los angeles',213/658-8898,mediterranean,'la mediterranee','288 noe st.','san francisco',415-431-7210,mediterranean,0
verbena,'54 irving pl. at 17th st.','new york',212/260-5454,american,'emeril\'s new orleans fish house','3799 las vegas blvd. s.','las vegas',702-891-7374,seafood,0
'taste of new orleans','889 w. peachtree st.',atlanta,404/874-5535,southern,'pink\'s famous chili dogs','709 n. la brea ave.',la,213-931-4223,'hot dogs',0
'sea grill','19 w. 49th st.','new york',212/332-7610,seafood,'my thai','1248 clairmont rd.',atlanta,404-636-4280,thai,0
'louise\'s trattoria','4500 los feliz blvd.','los angeles',213/667-0777,italian,'cafe flore','2298 market st.','san francisco',415-621-8579,californian,0
palio,'151 w. 51st. st.','new york',212/245-4850,italian,fringale,'570 fourth st.','san francisco',415-543-0573,'french bistro',0
'lowcountry barbecue','6301 roswell rd.  sandy springs plaza  sandy springs',atlanta,404/255-5160,barbecue,'second street grill','200 e. fremont st.','las vegas',702-385-6277,'pacific rim',0
'second street grille','200 e. fremont st.','las vegas',702/385-3232,seafood,'la cote basque','60 w. 55th st.','new york city',212-688-6525,'french (classic)',0
'film center cafe','635 9th ave.  between 44th and 45th sts.','new york','212/ 262-2525',american,moustache,'405 atlantic ave.',brooklyn,718-852-5555,'middle eastern',0
patria,'250 park ave. s at 20th st.','new york',212/777-6211,'latin american','cafe con leche','424 amsterdam ave.','new york city',212-595-7000,cuban,0
suppenkuche,'601 hayes st.','san francisco',415/252-9289,russian/german,'philippe the original','1001 n. alameda st.',chinatown,213-628-3781,cafeterias,0
tomtom,'3393 peachtree rd.',atlanta,404/264-1163,continental,'joe\'s','1023 abbot kinney blvd.',venice,310-399-5811,'american (new)',0
'hard rock cafe','8600 beverly blvd.','los angeles',310/276-7605,american,'ti couz','3108 16th st.','san francisco',415-252-7373,french,0
'mambo restaurante cubano','1402 n. highland ave.',atlanta,404/874-2626,caribbean,'local nochol','30869 thousand oaks blvd.','westlake village',818-706-7706,'health food',0
'the savannah club','2420 broadway at 89th st.','new york',212/496-1066,american,'arnie morton\'s of chicago','435 s. la cienega blvd.','los angeles',310-246-1501,steakhouses,0
'dean & deluca','121 prince st.','new york',212/254-8776,'coffee bar',picholine,'35 w. 64th st.','new york city',212-724-8585,mediterranean,0
'frico bar','402 w. 43rd st.  off 9th ave.','new york',212/564-7272,italian,'dottie\'s true blue cafe','522 jones st.','san francisco',415-885-2767,diners,0
'dining room  ritz-carlton  buckhead','3434 peachtree rd.',atlanta,404/237-2700,international,'johnny rockets (la)','7507 melrose ave.',la,213-651-3361,american,0
'pen & pencil','205 e. 45th st.','new york',212/682-8660,american,'rose of india','308 e. sixth st.','new york city',212-533-5011,indian,0
'arnie morton\'s of chicago','435 s. la cienega blv.','los angeles',310/246-1501,american,r-23,'923 e. third st.','los angeles',213-687-7178,japanese,0
'veniero\'s pasticceria','342 e. 11th st.  near 1st ave.','new york',212/674-7264,'coffee bar',picholine,'35 w. 64th st.','new york city',212-724-8585,mediterranean,0
'jimmy sung\'s','219 e. 44th st.  between 2nd and 3rd aves.','new york',212/682-5678,asian,'sylvia\'s','328 lenox ave.','new york city',212-996-0660,southern/soul,0
'hsu\'s gourmet','192 peachtree center ave.  at international blvd.',atlanta,404/659-2788,asian,'gotham bar & grill','12 e. 12th st.','new york city',212-620-4020,'american (new)',0
diva,'341 w. broadway  near grand st.','new york',212/941-9024,italian,'cafe des artistes','1 w. 67th st.','new york city',212-877-3500,'french (classic)',0
betelnut,'2030 union st.','san francisco',415/929-8855,asian,pisces,'95 ave. a','new york city',212-260-6660,seafood,0
'veniero\'s pasticceria','342 e. 11th st.  near 1st ave.','new york',212/674-7264,'coffee bar','pho hoa','642 broadway',chinatown,213-626-5530,vietnamese,0
'cha cha cha','656 n. virgil ave.','los angeles',213/664-7723,caribbean,'cafe con leche','424 amsterdam ave.','new york city',212-595-7000,cuban,0
beaurivage,'26025 pacific coast hwy.',malibu,310/456-5733,french,'palm  the (atlanta)','3391 peachtree rd. ne',atlanta,404-814-1955,steakhouses,0
'stoyanof\'s cafe','1240 9th ave.','san francisco',415/664-3664,'greek and middle eastern',majestic,'1031 ponce de leon ave.',atlanta,404-875-0276,diners,0
'casa la femme','150 wooster st.  between houston and prince sts.','new york',212/505-0005,'middle eastern','island spice','402 w. 44th st.','new york city',212-765-1737,caribbean,0
'cafe bizou','14016 ventura blvd.','sherman oaks',818/788-3536,french,'coyote cafe (las vegas)','3799 las vegas blvd. s.','las vegas',702-891-7349,southwestern,0
'mangia e bevi','800 9th ave. at 53rd st.','new york',212/956-3976,italian,taiko,'11677 san vicente blvd.',brentwood,310-207-7782,'noodle shops',0
'popover cafe','551 amsterdam ave.  between 86th and 87th sts.','new york',212/595-8555,american,frijoleros,'1031 peachtree st. ne',atlanta,404-892-8226,tex-mex,0
'cafe roma','3570 las vegas blvd. s','las vegas',702/731-7547,'coffee shops/diners','johnny reb\'s southern smokehouse','4663 long beach blvd.','long beach',310-423-7327,southern/soul,0
'i trulli','122 e. 27th st.  between lexington and park aves.','new york',212/481-7372,italian,'benny\'s burritos','93 ave. a','new york city',212-254-2054,mexican,0
'jean lafitte','68 w. 58th st.','new york',212/751-2323,french,'stick to your ribs','5-16 51st ave.',queens,718-937-3030,bbq,0
home,'20 cornelia st.  between bleecker and w. 4th st.','new york',212/243-9579,american,postrio,'545 post st.','san francisco',415-776-7825,californian,0
'fishin eddie','73 w. 71st st.','new york',212/874-3474,seafood,'water grill','544 s. grand ave.','los angeles',213-891-0900,seafood,0
ipanema,'13 w. 46th st.','new york',212/730-5848,'latin american',veggieland,'220 sandy springs circle',atlanta,404-231-3111,vegetarian,0
serendipity,'3 225 e. 60th st.','new york',212/838-3531,american,'madame ching\'s','3300 las vegas blvd. s.','las vegas',702-894-7111,asian,0
bruno,'240 e. 58th st.','new york',212/688-4190,italian,'mitali east-west','296 bleecker st.','new york city',212-989-1367,indian,0
'bone\'s','3130 piedmont road',atlanta,404/237-2663,american,taiko,'11677 san vicente blvd.',brentwood,310-207-7782,'noodle shops',0
anthonys,'3109 piedmont rd.  just south of peachtree rd.',atlanta,404/262-7379,american,'maxwell\'s cafe','13329 washington blvd.','marina del rey',310-306-7829,american,0
'ed debevic\'s','134 n. la cienega','los angeles',310/659-1952,american,'la cumbre','515 valencia st.','san francisco',415-863-8205,mexican,0
'manila garden','325 e. 14th st.  between 1st and 2nd aves.','new york',212/777-6314,asian,'my thai','1248 clairmont rd.',atlanta,404-636-4280,thai,0
felix,'340 w. broadway at grand st.','new york',212/431-0021,french,'island spice','402 w. 44th st.','new york city',212-765-1737,caribbean,0
'cafe marimba','2317 chestnut st.','san francisco',415/776-1506,'mexican/latin american/spanish','edison cafe','228 w. 47th st.','new york city',212-840-5000,diners,0
'manila garden','325 e. 14th st.  between 1st and 2nd aves.','new york',212/777-6314,asian,'ritz-carlton cafe (buckhead)','3434 peachtree rd. ne',atlanta,404-237-2700,'american (new)',0
shaan,'57 w. 48th st.','new york','212/ 977-8400',asian,'mo better meatty meat','7261 melrose ave.',la,213-935-5280,hamburgers,0
ferrier,'29 e. 65th st.','new york',212/772-9000,french,'tommy\'s','2575 beverly blvd.',la,213-389-9060,hamburgers,0
'manila garden','325 e. 14th st.  between 1st and 2nd aves.','new york',212/777-6314,asian,'kelly\'s on trinity','333 bush st.','san francisco',415-362-4454,californian,0
xunta,'174 1st ave.  between 10th and 11th sts.','new york',212/614-0620,mediterranean,'killer shrimp','4000 colfax ave.','studio city',818-508-1570,seafood,0
'les halles','411 park ave. s  between 28th and 29th sts.','new york',212/679-4111,french,'doidge\'s','2217 union st.','san francisco',415-921-2149,american,0
'hudson river club','4 world financial center','new york',212/786-1500,american,'maxwell\'s cafe','13329 washington blvd.','marina del rey',310-306-7829,american,0
sfuzzi,'58 w. 65th st.','new york',212/873-3700,american,'lombardi\'s','32 spring st.','new york city',212-941-7994,pizza,0
'yolie\'s','3900 paradise rd.','las vegas',702/794-0700,'steak houses','cafe bizou','14016 ventura blvd.','sherman oaks',818-788-3536,'french bistro',0
'china grill','60 w. 53rd st.','new york',212/333-7788,american,'killer shrimp','4000 colfax ave.','studio city',818-508-1570,seafood,0
anthonys,'3109 piedmont rd.  just south of peachtree rd.',atlanta,404/262-7379,american,abruzzi,'2355 peachtree rd. ne',atlanta,404-261-8186,italian,0
'bertolini\'s','3570 las vegas blvd. s','las vegas',702/735-4663,italian,'le bernardin','155 w. 51st st.','new york city',212-489-1515,seafood,0
'pano\'s and paul\'s','1232 w. paces ferry rd.',atlanta,404/261-3662,international,'johnny reb\'s southern smokehouse','4663 long beach blvd.','long beach',310-423-7327,southern/soul,0
'heera of india','595 piedmont ave.  rio shopping mall',atlanta,404/876-4408,asian,'mel\'s drive-in','3355 geary st.','san francisco',415-387-2244,hamburgers,0
bix,'56 gold st.','san francisco',415/433-6300,american,'rainbow restaurant','2118 n. decatur rd.',decatur,404-633-3538,vegetarian,0
'cafe pierre','2 e. 61st st.','new york',212/940-8185,french,'martha\'s','22nd street grill 25 22nd','st. hermosa beach',310-376-7786,american,0
'le marais','150 w. 46th st.','new york',212/869-0900,american,'szechuan kitchen','1460 first ave.','new york city',212-249-4615,chinese,0
'sweet\'n\'tart cafe','76 mott st. at canal st.','new york',212/334-8088,asian,'feast from the east','1949 westwood blvd.','west la',310-475-0400,chinese,0
'cafe la fortuna','69 w. 71st st.','new york',212/724-5846,'coffee bar','tavern on the green','central park west','new york city',212-873-3200,'american (new)',0
chanterelle,'2 harrison st.  near hudson st.','new york',212/966-6960,american,'art\'s deli','12224 ventura blvd.','studio city',818-762-1221,delis,0
'dining room','9500 wilshire blvd.','los angeles',310/275-5200,californian,'bone\'s restaurant','3130 piedmont rd. ne',atlanta,404-237-2663,steakhouses,0
'golden nugget hotel','129 e. fremont st.','las vegas',702/385-7111,buffets,'grill  the','9560 dayton way','beverly hills',310-276-0615,'american (traditional)',0
'ton kiang','3148 geary blvd.','san francisco',415/752-4440,asian,daniel,'20 e. 76th st.','new york city',212-288-0033,'french (new)',0
'perry\'s','1944 union st.','san francisco',415/922-9022,american,'russell\'s burgers','1198 pch','seal beach',310-596-9556,hamburgers,0
republic,'37a union sq. w  between 16th and 17th sts.','new york',212/627-7172,asian,campanile,'624 s. la brea ave.','los angeles',213-938-1447,californian,0
arizona,'206 206 e. 60th st.','new york',212/838-0440,american,'spago (las vegas)','3500 las vegas blvd. s.','las vegas',702-369-6300,californian,0
montien,'1134 1st ave.   between 62nd and 63rd sts.','new york',212/421-4433,asian,zarela,'953 second ave.','new york city',212-644-6740,mexican,0
'jack sprat\'s grill','10668 w. pico blvd.','los angeles',310/837-6662,'health food',bacchanalia,'3125 piedmont rd.',atlanta,404-365-0410,californian,0
'south park cafe','108 south park','san francisco',415/495-7275,french,'fleur de lys','777 sutter st.','san francisco',415-673-7779,'french (new)',0
'grand ticino','228 thompson st.  between w. 3rd and bleecker sts.','new york',212/777-5922,italian,'morton\'s of chicago (atlanta)','303 peachtree st. ne',atlanta,404-577-4366,steakhouses,0
'wu kong','101 spear st.','san francisco',415/957-9300,asian,shiro,'1505 mission st. s.',pasadena,818-799-4774,'pacific new wave',0
zoe,'90 prince st.  between broadway and mercer st.','new york',212/966-6722,american,'baker\'s cajun cafe','1134 euclid ave.',atlanta,404-223-5039,cajun/creole,0
'south city kitchen','1144 crescent ave.',atlanta,404/873-7358,southern,'maxwell\'s cafe','13329 washington blvd.','marina del rey',310-306-7829,american,0
'la grotta at ravinia dunwoody rd.','holiday inn/crowne plaza at ravinia  dunwoody',atlanta,770/395-9925,italian,'second street grill','200 e. fremont st.','las vegas',702-385-6277,'pacific rim',0
'fraunces tavern','54 pearl st. at broad st.','new york',212/269-0144,american,'szechuan kitchen','1460 first ave.','new york city',212-249-4615,chinese,0
'cendrillon asian grill & marimba bar','45 mercer st.  between broome and grand sts.','new york',212/343-9012,asian,'koo koo roo','8393 w. beverly blvd.',la,213-655-9045,chicken,0
abruzzi,'2355 peachtree rd.  peachtree battle shopping center',atlanta,404/261-8186,italian,'thep phanom','400 waller st.','san francisco',415-431-2526,thai,0
'hyde street bistro','1521 hyde st.','san francisco',415/441-7778,italian,'shun lee palace','155 e. 55th st.','new york city',212-371-8844,chinese,0
'american place','2 park ave. at 32nd st.','new york',212/684-2122,american,'silver skillet  the','200 14th st. nw',atlanta,404-874-1388,'coffee shops',0
'motown cafe','104 w. 57th st.  near 6th ave.','new york',212/581-8030,american,'carmine\'s','2450 broadway','new york city',212-362-2200,italian,0
bizou,'598 fourth st.','san francisco',415/543-2222,french,'locanda veneta','8638 w. third st.','los angeles',310-274-1893,italian,0
pamplemousse,'400 e. sahara ave.','las vegas',702/733-2066,continental,'alon\'s at the terrace','659 peachtree st.',atlanta,404-724-0444,sandwiches,0
'island spice','402 w. 44th st.','new york',212/765-1737,'tel caribbean','ej\'s luncheonette','432 sixth ave.','new york city',212-473-5555,diners,0
'mi cocina','57 jane st.  off hudson st.','new york',212/627-8273,mexican,'la cote basque','60 w. 55th st.','new york city',212-688-6525,'french (classic)',0
'french roast cafe','2340 broadway at 85th st.','new york',212/799-1533,'coffee bar','gramercy tavern','42 e. 20th st.','new york city',212-477-0777,'american (new)',0
'bertolini\'s','3500 peachtree rd.  phipps plaza',atlanta,404/233-2333,italian,'palm  the (atlanta)','3391 peachtree rd. ne',atlanta,404-814-1955,steakhouses,0
'pleasant peasant','555 peachtree st.  at linden ave.',atlanta,404/874-3223,american,zab-e-lee,'4837 old national hwy.','college park',404-768-2705,thai,0
'yoyo tsumami bistro','1611 post st.','san francisco',415/922-7788,french,'stick to your ribs','5-16 51st ave.',queens,718-937-3030,bbq,0
'seventh regiment mess and bar','643 park ave. at 66th st.','new york',212/744-4107,american,'edison cafe','228 w. 47th st.','new york city',212-840-5000,diners,0
'fraunces tavern','54 pearl st. at broad st.','new york',212/269-0144,american,'il mulino','86 w. third st.','new york city',212-673-3783,italian,0
'arturo\'s','106 w. houston st.  off thompson st.','new york',212/677-3820,italian,soto,'3330 piedmont rd.',atlanta,404-233-2005,japanese,0
'brothers bar-b-q','225 varick st. at clarkston st.','new york',212/727-2775,american,'pho hoa','642 broadway',chinatown,213-626-5530,vietnamese,0
home,'20 cornelia st.  between bleecker and w. 4th st.','new york',212/243-9579,american,picholine,'35 w. 64th st.','new york city',212-724-8585,mediterranean,0
broiler,'4111 boulder hwy.','las vegas',702/432-7777,american,'bruno\'s','3838 centinela ave.','mar vista',310-397-5703,italian,0
'jack sprat\'s grill','10668 w. pico blvd.','los angeles',310/837-6662,'health food','pano\'s & paul\'s','1232 w. paces ferry rd.',atlanta,404-261-3662,'american (new)',0
tapika,'950 8th ave. at 56th st.','new york','212/ 397-3737',american,'dottie\'s true blue cafe','522 jones st.','san francisco',415-885-2767,diners,0
'yank sing','427 battery st.','san francisco',415/541-4949,asian,boulevard,'1 mission st.','san francisco',415-543-6084,'american (new)',0
'lucky strike','59 grand st.  between wooster st. and w. broadway','new york',212/941-0479,'or 212/941-0772 american','dottie\'s true blue cafe','522 jones st.','san francisco',415-885-2767,diners,0
'caffe bondi ristorante','7 w. 20th st.','new york',212/691-8136,italian,'ciboulette restaurant','1529 piedmont ave.',atlanta,404-874-7600,'french (new)',0
'yujean kang\'s gourmet chinese cuisine','67 n. raymond ave.','los angeles',818/585-0855,asian,zab-e-lee,'4837 old national hwy.','college park',404-768-2705,thai,0
'marquet patisserie','15 e. 12th st.  between 5th ave. and university pl.','new york',212/229-9313,'coffee bar','fiore rotisserie & grille','3700 w. flamingo rd.','las vegas',702-252-7702,italian,0
'penang soho','109 spring st.  between greene and mercer sts.','new york',212/274-8883,asian,'l\'orangerie','903 n. la cienega blvd.','w. hollywood',310-652-9770,'french (classic)',0
'gallagher\'s','228 w. 52nd st.','new york',212/245-5336,american,'mary mac\'s tea room','224 ponce de leon ave.',atlanta,404-876-1800,southern/soul,0
'binion\'s coffee shop','128 fremont st.','las vegas',702/382-1600,'coffee shops/diners','locanda veneta','8638 w. third st.','los angeles',310-274-1893,italian,0
'alain rondelli','126 clement st.','san francisco',415/387-0408,french,'joe\'s','1023 abbot kinney blvd.',venice,310-399-5811,'american (new)',0
'dix et sept','181 w. 10th st.','new york',212/645-8023,french,palm,'837 second ave.','new york city',212-687-2953,steakhouses,0
'splendido embarcadero',4,'san francisco',415/986-3222,mediterranean,'eric\'s chinese restaurant','1500 church st.','san francisco',415-282-0919,chinese,0
'roscoe\'s house of chicken \'n\' waffles','1514 n. gower st.','los angeles',213/466-9329,american,'morton\'s of chicago (las vegas)','3200 las vegas blvd. s.','las vegas',702-893-0703,steakhouses,0
'gabriela\'s','685 amsterdam ave. at 93rd st.','new york',212/961-0574,mexican,'cucina di pesce','87 e. fourth st.','new york city',212-260-6800,seafood,0
'inca grill','492 broome st.  near w. broadway','new york',212/966-3371,'latin american',granita,'23725 w. malibu rd.',malibu,310-456-0488,californian,0
lola,'30 west 22nd st.  between 5th and 6th ave.','new york',212/675-6700,american,'ritz-carlton dining room (san francisco)','600 stockton st.','san francisco',415-296-7465,'french (new)',0
'indigo coastal grill','1397 n. highland ave.',atlanta,404/876-0676,caribbean,'water grill','544 s. grand ave.','los angeles',213-891-0900,seafood,0
'luna si','1931 peachtree rd.',atlanta,404/355-5993,continental,'tommy\'s','2575 beverly blvd.',la,213-389-9060,hamburgers,0
'chin\'s','3200 las vegas blvd. s','las vegas',702/733-8899,asian,'la grotta','2637 peachtree rd. ne',atlanta,404-231-1368,italian,0
'bistro roti','155 steuart st.','san francisco',415/495-6500,french,mifune,'1737 post st.','san francisco',415-922-0337,japanese,0
'katia\'s','600 5th ave.','san francisco',415/668-9292,'','la caravelle','33 w. 55th st.','new york city',212-586-4252,'french (classic)',0
'kabuto sushi','5116 geary blvd.','san francisco',415/752-5652,asian,'kelly\'s on trinity','333 bush st.','san francisco',415-362-4454,californian,0
'sa tsu ki','3043 buford hwy.',atlanta,404/325-5285,asian,march,'405 e. 58th st.','new york city',212-754-6272,'american (new)',0
'main street','446 columbus ave.  between 81st and 82nd sts.','new york',212/873-5025,american,'hawthorne lane','22 hawthorne st.','san francisco',415-777-9779,californian,0
aureole,'34 e. 61st st.','new york','212/ 319-1660',american,'heera of india','595 piedmont ave.',atlanta,404-876-4408,indian,0
lola,'30 west 22nd st.  between 5th and 6th ave.','new york',212/675-6700,american,'bobby & june\'s kountry kitchen','375 14th st.',atlanta,404-876-3872,southern/soul,0
'binion\'s coffee shop','128 fremont st.','las vegas',702/382-1600,'coffee shops/diners','second avenue deli','156 second ave.','new york city',212-677-0606,delis,0
'tadich grill','240 california st.','san francisco',415/391-2373,seafood,'madame ching\'s','3300 las vegas blvd. s.','las vegas',702-894-7111,asian,0
'il nido','251 e. 53rd st.','new york',212/753-8450,italian,'killer shrimp','4000 colfax ave.','studio city',818-508-1570,seafood,0
'buckhead diner','3073 piedmont road',atlanta,404/262-3336,american,'tommy\'s','2575 beverly blvd.',la,213-389-9060,hamburgers,0
'carnegie deli','854 7th ave.  between 54th and 55th sts.','new york',212/757-2245,delicatessen,'la caridad','2199 broadway','new york city',212-874-2780,cuban,0
pacifica,'138 lafayette st.  between canal and howard sts.','new york',212/941-4168,asian,'thai house cafe','151 hudson st.','new york city',212-334-1085,thai,0
'harry\'s bar & american grill','2020 ave. of the stars','los angeles',310/277-2333,italian,'michael\'s (los angeles)','1147 third st.','santa monica',310-451-0843,californian,0
rumpus,'1 tillman pl.','san francisco',415/421-2300,american,shiro,'1505 mission st. s.',pasadena,818-799-4774,'pacific new wave',0
'motown cafe','104 w. 57th st.  near 6th ave.','new york',212/581-8030,american,pisces,'95 ave. a','new york city',212-260-6660,seafood,0
'alain rondelli','126 clement st.','san francisco',415/387-0408,french,'hollywood hills coffee shop','6145 franklin ave.',hollywood,213-467-7678,'coffee shops',0
'louise\'s trattoria','4500 los feliz blvd.','los angeles',213/667-0777,italian,'thai house cafe','151 hudson st.','new york city',212-334-1085,thai,0
rubicon,'558 sacramento st.','san francisco',415/434-4100,american,'brent\'s deli','19565 parthenia ave.',northridge,818-886-5679,delis,0
'trattoria dell\'arte','900 7th ave.  between 56th and 57th sts.','new york',212/245-9800,italian,'martha\'s','22nd street grill 25 22nd','st. hermosa beach',310-376-7786,american,0
abbey,'163 ponce de leon ave.',atlanta,404/876-8532,international,'cafe bizou','14016 ventura blvd.','sherman oaks',818-788-3536,'french bistro',0
'caffe dell\'artista','46 greenwich ave.','new york',212/645-4431,'coffee bar','mayflower cuisinier','4750 w. sahara ave.','las vegas',702-870-8432,chinese,0
'el cholo','1121 s. western ave.','los angeles',213/734-2773,mexican,'carmine\'s','2450 broadway','new york city',212-362-2200,italian,0
'bertolini\'s','3500 peachtree rd.  phipps plaza',atlanta,404/233-2333,italian,citrus,'6703 melrose ave.','los angeles',213-857-0034,californian,0
ferrier,'29 e. 65th st.','new york',212/772-9000,french,'jan\'s family restaurant','8424 beverly blvd.',la,213-651-2866,'coffee shops',0
'caffe bondi ristorante','7 w. 20th st.','new york',212/691-8136,italian,'michael\'s (los angeles)','1147 third st.','santa monica',310-451-0843,californian,0
'duane park cafe','157 duane st.  between w. broadway and hudson st.','new york',212/732-5555,american,'gumbo pot  the','6333 w. third st.',la,213-933-0358,cajun/creole,0
'alain rondelli','126 clement st.','san francisco',415/387-0408,french,'parkway grill','510 s. arroyo pkwy.',pasadena,818-795-1001,californian,0
'aleck\'s barbecue heaven','783 martin luther king jr. dr.',atlanta,404/525-2062,barbecue,aquavit,'13 w. 54th st.','new york city',212-307-7311,scandinavian,0
'mi cocina','57 jane st.  off hudson st.','new york',212/627-8273,mexican,'doidge\'s','2217 union st.','san francisco',415-921-2149,american,0
'louise\'s trattoria','4500 los feliz blvd.','los angeles',213/667-0777,italian,'park avenue cafe (new york city)','100 e. 63rd st.','new york city',212-644-1900,'american (new)',0
bouterin,'420 e. 59th st.  off 1st ave.','new york',212/758-0323,french,riviera,'519 e. paces ferry rd.',atlanta,404-262-7112,mediterranean,0
stingray,'428 amsterdam ave.  between 80th and 81st sts.','new york',212/501-7515,seafood,'buckhead diner','3073 piedmont rd.',atlanta,404-262-3336,'american (new)',0
'california culinary academy','625 polk st.','san francisco',415/771-3500,french,'uncle nick\'s','747 ninth ave.','new york city',212-245-7992,greek,0
'fat matt\'s rib shack','1811 piedmont ave.  near cheshire bridge rd.',atlanta,404/607-1622,barbecue,'asahi ramen','2027 sawtelle blvd.','west la',310-479-2231,'noodle shops',0
ct,'111 e. 22nd st.  between park ave. s and lexington ave.','new york',212/995-8500,french,'21 club','21 w. 52nd st.','new york city',212-582-7200,'american (new)',0
drago,'2628 wilshire blvd.','santa monica',310/828-1585,italian,'caffe greco','423 columbus ave.','san francisco',415-397-6261,continental,0
'stars cafe','500 van ness ave.','san francisco',415/861-4344,american,'tu lan','8 sixth st.','san francisco',415-626-0927,vietnamese,0
'stars cafe','500 van ness ave.','san francisco',415/861-4344,american,'sally\'s cafe & bakery','300 de haro st.','san francisco',415-626-6006,american,0
'internet cafe','82 e. 3rd st.  between 1st and 2nd aves.','new york','212/ 614-0747','coffee bar','original pancake house (at)','4330 peachtree rd.',atlanta,404-237-4116,american,0
'lanza restaurant','168 1st ave.  between 10th and 11th sts.','new york',212/674-7014,italian,'patsy\'s pizza','19 old fulton st.',brooklyn,718-858-4300,pizza,0
granita,'23725 w. malibu rd.',malibu,310/456-0488,californian,'thep phanom','400 waller st.','san francisco',415-431-2526,thai,0
'le colonial','149 e. 57th st.','new york','212/ 752-0808',asian,'van gogh\'s restaurant & bar','70 w. crossville rd.',roswell,770-993-1156,'american (new)',0
'capsouto freres','451 washington st.  near watts st.','new york',212/966-4900,french,'hugo\'s cellar','202 e. fremont st.','las vegas',702-385-4011,continental,0
'second street grille','200 e. fremont st.','las vegas',702/385-3232,seafood,'kuruma zushi','2nd fl.','new york city',212-317-2802,japanese,0
'bryant park grill  roof restaurant and bp cafe','25 w. 40th st.  between 5th and 6th aves.','new york',212/840-6500,american,'san domenico','240 central park s.','new york city',212-265-5959,italian,0
match,'160 mercer st.  between houston and prince sts.','new york',212/906-9173,american,'house of chan','2469 cobb pkwy.',smyrna,770-955-9444,chinese,0
'caffe dell\'artista','46 greenwich ave.','new york',212/645-4431,'coffee bar','pano\'s & paul\'s','1232 w. paces ferry rd.',atlanta,404-261-3662,'american (new)',0
'mckinnon\'s louisiane','3209 maple dr.',atlanta,404/237-1313,southern,'cucina di pesce','87 e. fourth st.','new york city',212-260-6800,seafood,0
bolo,'23 e. 22nd st.','new york',212/228-2200,mediterranean,'cafe con leche','424 amsterdam ave.','new york city',212-595-7000,cuban,0
'battista\'s hole in the wall','4041 audrie st. at flamingo rd.','las vegas',702/732-1424,italian,'duke\'s','8909 sunset blvd.','w. hollywood',310-652-3100,'coffee shops',0
'cafe bianco','1486 2nd ave.  between 77th and 78th sts.','new york',212/988-2655,'coffee bar','alon\'s at the terrace','659 peachtree st.',atlanta,404-724-0444,sandwiches,0
'china grill','60 w. 53rd st.','new york',212/333-7788,american,majestic,'1031 ponce de leon ave.',atlanta,404-875-0276,diners,0
serendipity,'3 225 e. 60th st.','new york',212/838-3531,american,'monte carlo','3145 las vegas blvd. s.','las vegas',702-733-4524,'french (new)',0
'cypress club','500 jackson st.','san francisco',415/296-8555,american,'szechuan kitchen','1460 first ave.','new york city',212-249-4615,chinese,0
'pacific dining car','6th st.','los angeles',213/483-6000,american,'silver skillet  the','200 14th st. nw',atlanta,404-874-1388,'coffee shops',0
'san domenico','240 central park s','new york',212/265-5959,italian,'la serenata de garibaldi','1842 e. first','st. boyle hts.',213-265-2887,mexican/tex-mex,0
'veni vidi vici','41 14th st.',atlanta,404/875-8424,italian,'carey\'s','1021 cobb pkwy. se',marietta,770-422-8042,hamburgers,0
'jack\'s','615 sacramento st.','san francisco',415/986-9854,'old san francisco','la folie','2316 polk st.','san francisco',415-776-5577,'french (new)',0
lola,'30 west 22nd st.  between 5th and 6th ave.','new york',212/675-6700,american,'thep phanom','400 waller st.','san francisco',415-431-2526,thai,0
'sa tsu ki','3043 buford hwy.',atlanta,404/325-5285,asian,picholine,'35 w. 64th st.','new york city',212-724-8585,mediterranean,0
anthonys,'3109 piedmont rd.  just south of peachtree rd.',atlanta,404/262-7379,american,'veni vidi vici','41 14th st.',atlanta,404-875-8424,italian,0
'milan cafe and coffee bar','120 w. 23rd st.','new york',212/807-1801,'coffee bar','gotham bar & grill','12 e. 12th st.','new york city',212-620-4020,'american (new)',0
'west beach cafe','60 n. venice blvd.','los angeles',310/823-5396,american,'sam\'s noodle shop','411 third ave.','new york city',212-213-2288,chinese,0
'sammy\'s roumanian steak house','157 chrystie st. at delancey st.','new york',212/673-0330,'east european',daniel,'20 e. 76th st.','new york city',212-288-0033,'french (new)',0
remi,'3rd st. promenade','santa monica',310/393-6545,italian,'fiore rotisserie & grille','3700 w. flamingo rd.','las vegas',702-252-7702,italian,0
eclipse,'8800 melrose ave.','los angeles',310/724-5959,californian,'szechuan hunan cottage','1588 york ave.','new york city',212-535-5223,chinese,0
west,'63rd street steakhouse 44 w. 63rd st.','new york',212/246-6363,american,'ruth\'s chris steak house (los angeles)','224 s. beverly dr.','beverly hills',310-859-8744,steakhouses,0
rain,'100 w. 82nd st.','new york',212/501-0776,asian,'bistro  the','56 e. andrews dr. nw',atlanta,404-231-5733,'french bistro',0
'jean lafitte','68 w. 58th st.','new york',212/751-2323,french,nava,'3060 peachtree rd.',atlanta,404-240-1984,southwestern,0
ciboulette,'1529 piedmont ave.',atlanta,404/874-7600,french,'cafe flore','2298 market st.','san francisco',415-621-8579,californian,0
arizona,'206 206 e. 60th st.','new york',212/838-0440,american,'rae\'s','2901 pico blvd.','santa monica',310-828-7937,diners,0
'l\'auberge du midi','310 w. 4th st.  between w. 12th and bank sts.','new york',212/242-4705,french,oceana,'55 e. 54th st.','new york city',212-759-5941,seafood,0
'lanza restaurant','168 1st ave.  between 10th and 11th sts.','new york',212/674-7014,italian,'lombardi\'s','32 spring st.','new york city',212-941-7994,pizza,0
'harry\'s bar & american grill','2020 ave. of the stars','los angeles',310/277-2333,italian,nobu,'105 hudson st.','new york city',212-219-0500,japanese,0
'mad fish','2182 broadway  between 77th and 78th sts.','new york',212/787-0202,seafood,soto,'3330 piedmont rd.',atlanta,404-233-2005,japanese,0
'inca grill','492 broome st.  near w. broadway','new york',212/966-3371,'latin american',picholine,'35 w. 64th st.','new york city',212-724-8585,mediterranean,0
'grand ticino','228 thompson st.  between w. 3rd and bleecker sts.','new york',212/777-5922,italian,'cucina di pesce','87 e. fourth st.','new york city',212-260-6800,seafood,0
'the coffee pot','350 9th ave. at 49th st.','new york',212/265-3566,'coffee bar','carnegie deli','854 seventh ave.','new york city',212-757-2245,delis,0
'pano\'s and paul\'s','1232 w. paces ferry rd.',atlanta,404/261-3662,international,'cafe lalo','201 w. 83rd st.','new york city',212-496-6031,coffeehouses,0
'zen palate','34 union sq. e at 16th st.','new york',212/614-9291,'and 212/614-9345 asian',postrio,'545 post st.','san francisco',415-776-7825,californian,0
tomtom,'3393 peachtree rd.',atlanta,404/264-1163,continental,'shun lee palace','155 e. 55th st.','new york city',212-371-8844,chinese,0
'mangia e bevi','800 9th ave. at 53rd st.','new york',212/956-3976,italian,'alon\'s at the terrace','659 peachtree st.',atlanta,404-724-0444,sandwiches,0
'gianni\'s','15 fulton st.','new york',212/608-7300,seafood,'trio cafe','1870 fillmore st.','san francisco',415-563-2248,american,0
'hong kong villa','2332 clement st.','san francisco',415/752-8833,asian,'benita\'s frites','1433 third st. promenade','santa monica',310-458-2889,'fast food',0
'rosa mexicano','1063 1st ave. at 58th st.','new york',212/753-7407,mexican,'baja fresh','3345 kimber dr.','westlake village',805-498-4049,mexican,0
'manila garden','325 e. 14th st.  between 1st and 2nd aves.','new york',212/777-6314,asian,'corner bistro','331 w. fourth st.','new york city',212-242-9502,hamburgers,0
'coco loco','40  buckhead crossing mall on the sidney marcus blvd.',atlanta,404/364-0212,caribbean,daniel,'20 e. 76th st.','new york city',212-288-0033,'french (new)',0
granita,'23725 w. malibu rd.',malibu,310/456-0488,californian,'cucina della fontana','368 bleecker st.','new york city',212-242-0636,italian,0
greens,'bldg. a fort mason','san francisco',415/771-6222,vegetarian,'water grill','544 s. grand ave.','los angeles',213-891-0900,seafood,0
'marquet patisserie','15 e. 12th st.  between 5th ave. and university pl.','new york',212/229-9313,'coffee bar','roosevelt tamale parlor','2817 24th st.','san francisco',415-550-9213,mexican,0
'pinot bistro','12969 ventura blvd.','los angeles',818/990-0500,french,'mani\'s bakery & espresso bar','519 s. fairfax ave.',la,213-938-8800,desserts,0
'caffe dell\'artista','46 greenwich ave.','new york',212/645-4431,'coffee bar',seryna,'11 e. 53rd st.','new york city',212-980-9393,japanese,0
'hedgerose heights inn','490 e. paces ferry rd.',atlanta,404/233-7673,international,'lespinasse (new york city)','2 e. 55th st.','new york city',212-339-6719,asian,0
helmand,'430 broadway','san francisco',415/362-0641,'greek and middle eastern','carey\'s','1021 cobb pkwy. se',marietta,770-422-8042,hamburgers,0
'hayes street grill','320 hayes st.','san francisco',415/863-5545,seafood,moongate,'3400 las vegas blvd. s.','las vegas',702-791-7352,chinese,0
'yujean kang\'s gourmet chinese cuisine','67 n. raymond ave.','los angeles',818/585-0855,asian,'plumpjack cafe','3127 fillmore st.','san francisco',415-563-4755,'american (new)',0
aquavit,'13 w. 54th st.','new york',212/307-7311,continental,'heera of india','595 piedmont ave.',atlanta,404-876-4408,indian,0
'i trulli','122 e. 27th st.  between lexington and park aves.','new york',212/481-7372,italian,'john\'s pizzeria','48 w. 65th st.','new york city',212-721-7001,pizza,0
'hi-life restaurant and lounge','1340 1st ave. at 72nd st.','new york',212/249-3600,american,'veni vidi vici','41 14th st.',atlanta,404-875-8424,italian,0
'south city kitchen','1144 crescent ave.',atlanta,404/873-7358,southern,'elias corner','24-02 31st st.',queens,718-932-1510,greek,0
bix,'56 gold st.','san francisco',415/433-6300,american,'spago (los angeles)','8795 sunset blvd.','w. hollywood',310-652-4025,californian,0
'cafe fes','246 w. 4th st. at charles st.','new york',212/924-7653,mediterranean,'white house restaurant','3172 peachtree rd. ne',atlanta,404-237-7601,diners,0
'manila garden','325 e. 14th st.  between 1st and 2nd aves.','new york',212/777-6314,asian,'river cafe','1 water st.',brooklyn,718-522-5200,'american (new)',0
'arturo\'s','106 w. houston st.  off thompson st.','new york',212/677-3820,italian,'spago (las vegas)','3500 las vegas blvd. s.','las vegas',702-369-6300,californian,0
'motown cafe','104 w. 57th st.  near 6th ave.','new york',212/581-8030,american,'chinois on main','2709 main st.','santa monica',310-392-9025,'pacific new wave',0
ct,'111 e. 22nd st.  between park ave. s and lexington ave.','new york',212/995-8500,french,patina,'5955 melrose ave.','los angeles',213-467-1108,californian,0
'sweet\'n\'tart cafe','76 mott st. at canal st.','new york',212/334-8088,asian,'asahi ramen','2027 sawtelle blvd.','west la',310-479-2231,'noodle shops',0
'california pizza kitchen','207 s. beverly dr.','los angeles',310/275-1101,californian,'kelley & ping','127 greene st.','new york city',212-228-1212,pan-asian,0
odeon,'145 w. broadway at thomas st.','new york',212/233-0507,american,'mi cocina','57 jane st.','new york city',212-627-8273,mexican,0
'fiorello\'s roman cafe','1900 broadway  between 63rd and 64th sts.','new york',212/595-5330,italian,'lettuce souprise you (at)','3525 mall blvd.',duluth,770-418-9969,cafeterias,0
'fat matt\'s rib shack','1811 piedmont ave.  near cheshire bridge rd.',atlanta,404/607-1622,barbecue,'chin\'s','3200 las vegas blvd. s.','las vegas',702-733-8899,chinese,0
